[
  {
    "Zip": 73013,
    "Center Name": "23rd st",
    "State": "OK"
  },
  {
    "Zip": 73102,
    "Center Name": "23rd st",
    "State": "OK"
  },
  {
    "Zip": 73103,
    "Center Name": "23rd st",
    "State": "OK"
  },
  {
    "Zip": 73104,
    "Center Name": "23rd st",
    "State": "OK"
  },
  {
    "Zip": 73105,
    "Center Name": "23rd st",
    "State": "OK"
  },
  {
    "Zip": 73106,
    "Center Name": "23rd st",
    "State": "OK"
  },
  {
    "Zip": 73107,
    "Center Name": "23rd st",
    "State": "OK"
  },
  {
    "Zip": 73111,
    "Center Name": "23rd st",
    "State": "OK"
  },
  {
    "Zip": 73112,
    "Center Name": "23rd st",
    "State": "OK"
  },
  {
    "Zip": 73114,
    "Center Name": "23rd st",
    "State": "OK"
  },
  {
    "Zip": 73116,
    "Center Name": "23rd st",
    "State": "OK"
  },
  {
    "Zip": 73117,
    "Center Name": "23rd st",
    "State": "OK"
  },
  {
    "Zip": 73118,
    "Center Name": "23rd st",
    "State": "OK"
  },
  {
    "Zip": 73120,
    "Center Name": "23rd st",
    "State": "OK"
  },
  {
    "Zip": 73121,
    "Center Name": "23rd st",
    "State": "OK"
  },
  {
    "Zip": 73122,
    "Center Name": "23rd st",
    "State": "OK"
  },
  {
    "Zip": 73131,
    "Center Name": "23rd st",
    "State": "OK"
  },
  {
    "Zip": 73141,
    "Center Name": "23rd st",
    "State": "OK"
  },
  {
    "Zip": 73151,
    "Center Name": "23rd st",
    "State": "OK"
  },
  {
    "Zip": 40202,
    "Center Name": "Algonquin Park",
    "State": "KY"
  },
  {
    "Zip": 40203,
    "Center Name": "Algonquin Park",
    "State": "KY"
  },
  {
    "Zip": 40208,
    "Center Name": "Algonquin Park",
    "State": "KY"
  },
  {
    "Zip": 40210,
    "Center Name": "Algonquin Park",
    "State": "KY"
  },
  {
    "Zip": 40211,
    "Center Name": "Algonquin Park",
    "State": "KY"
  },
  {
    "Zip": 40212,
    "Center Name": "Algonquin Park",
    "State": "KY"
  },
  {
    "Zip": 40214,
    "Center Name": "Algonquin Park",
    "State": "KY"
  },
  {
    "Zip": 40215,
    "Center Name": "Algonquin Park",
    "State": "KY"
  },
  {
    "Zip": 40216,
    "Center Name": "Algonquin Park",
    "State": "KY"
  },
  {
    "Zip": 40258,
    "Center Name": "Algonquin Park",
    "State": "KY"
  },
  {
    "Zip": 40272,
    "Center Name": "Algonquin Park",
    "State": "KY"
  },
  {
    "Zip": 40292,
    "Center Name": "Algonquin Park",
    "State": "KY"
  },
  {
    "Zip": 18015,
    "Center Name": "Allentown",
    "State": "PA"
  },
  {
    "Zip": 18031,
    "Center Name": "Allentown",
    "State": "PA"
  },
  {
    "Zip": 18034,
    "Center Name": "Allentown",
    "State": "PA"
  },
  {
    "Zip": 18036,
    "Center Name": "Allentown",
    "State": "PA"
  },
  {
    "Zip": 18049,
    "Center Name": "Allentown",
    "State": "PA"
  },
  {
    "Zip": 18055,
    "Center Name": "Allentown",
    "State": "PA"
  },
  {
    "Zip": 18062,
    "Center Name": "Allentown",
    "State": "PA"
  },
  {
    "Zip": 18069,
    "Center Name": "Allentown",
    "State": "PA"
  },
  {
    "Zip": 18087,
    "Center Name": "Allentown",
    "State": "PA"
  },
  {
    "Zip": 18101,
    "Center Name": "Allentown",
    "State": "PA"
  },
  {
    "Zip": 18102,
    "Center Name": "Allentown",
    "State": "PA"
  },
  {
    "Zip": 18103,
    "Center Name": "Allentown",
    "State": "PA"
  },
  {
    "Zip": 18104,
    "Center Name": "Allentown",
    "State": "PA"
  },
  {
    "Zip": 18106,
    "Center Name": "Allentown",
    "State": "PA"
  },
  {
    "Zip": 10466,
    "Center Name": "Allerton",
    "State": "NY"
  },
  {
    "Zip": 10467,
    "Center Name": "Allerton",
    "State": "NY"
  },
  {
    "Zip": 10469,
    "Center Name": "Allerton",
    "State": "NY"
  },
  {
    "Zip": 10475,
    "Center Name": "Allerton",
    "State": "NY"
  },
  {
    "Zip": 85118,
    "Center Name": "Apache Trail",
    "State": "AZ"
  },
  {
    "Zip": 85119,
    "Center Name": "Apache Trail",
    "State": "AZ"
  },
  {
    "Zip": 85120,
    "Center Name": "Apache Trail",
    "State": "AZ"
  },
  {
    "Zip": 85140,
    "Center Name": "Apache Trail",
    "State": "AZ"
  },
  {
    "Zip": 85207,
    "Center Name": "Apache Trail",
    "State": "AZ"
  },
  {
    "Zip": 85208,
    "Center Name": "Apache Trail",
    "State": "AZ"
  },
  {
    "Zip": 85209,
    "Center Name": "Apache Trail",
    "State": "AZ"
  },
  {
    "Zip": 85212,
    "Center Name": "Apache Trail",
    "State": "AZ"
  },
  {
    "Zip": 85264,
    "Center Name": "Apache Trail",
    "State": "AZ"
  },
  {
    "Zip": 19124,
    "Center Name": "Aramingo",
    "State": "PA"
  },
  {
    "Zip": 19125,
    "Center Name": "Aramingo",
    "State": "PA"
  },
  {
    "Zip": 19134,
    "Center Name": "Aramingo",
    "State": "PA"
  },
  {
    "Zip": 19137,
    "Center Name": "Aramingo",
    "State": "PA"
  },
  {
    "Zip": 75052,
    "Center Name": "Arlington",
    "State": "TX"
  },
  {
    "Zip": 76001,
    "Center Name": "Arlington",
    "State": "TX"
  },
  {
    "Zip": 76002,
    "Center Name": "Arlington",
    "State": "TX"
  },
  {
    "Zip": 76010,
    "Center Name": "Arlington",
    "State": "TX"
  },
  {
    "Zip": 76011,
    "Center Name": "Arlington",
    "State": "TX"
  },
  {
    "Zip": 76012,
    "Center Name": "Arlington",
    "State": "TX"
  },
  {
    "Zip": 76013,
    "Center Name": "Arlington",
    "State": "TX"
  },
  {
    "Zip": 76014,
    "Center Name": "Arlington",
    "State": "TX"
  },
  {
    "Zip": 76015,
    "Center Name": "Arlington",
    "State": "TX"
  },
  {
    "Zip": 76016,
    "Center Name": "Arlington",
    "State": "TX"
  },
  {
    "Zip": 76017,
    "Center Name": "Arlington",
    "State": "TX"
  },
  {
    "Zip": 76018,
    "Center Name": "Arlington",
    "State": "TX"
  },
  {
    "Zip": 76019,
    "Center Name": "Arlington",
    "State": "TX"
  },
  {
    "Zip": 76060,
    "Center Name": "Arlington",
    "State": "TX"
  },
  {
    "Zip": 76063,
    "Center Name": "Arlington",
    "State": "TX"
  },
  {
    "Zip": 60415,
    "Center Name": "Ashburn",
    "State": "IL"
  },
  {
    "Zip": 60453,
    "Center Name": "Ashburn",
    "State": "IL"
  },
  {
    "Zip": 60456,
    "Center Name": "Ashburn",
    "State": "IL"
  },
  {
    "Zip": 60459,
    "Center Name": "Ashburn",
    "State": "IL"
  },
  {
    "Zip": 60482,
    "Center Name": "Ashburn",
    "State": "IL"
  },
  {
    "Zip": 60620,
    "Center Name": "Ashburn",
    "State": "IL"
  },
  {
    "Zip": 60643,
    "Center Name": "Ashburn",
    "State": "IL"
  },
  {
    "Zip": 60652,
    "Center Name": "Ashburn",
    "State": "IL"
  },
  {
    "Zip": 60805,
    "Center Name": "Ashburn",
    "State": "IL"
  },
  {
    "Zip": 87102,
    "Center Name": "Atrisco",
    "State": "NM"
  },
  {
    "Zip": 87104,
    "Center Name": "Atrisco",
    "State": "NM"
  },
  {
    "Zip": 87120,
    "Center Name": "Atrisco",
    "State": "NM"
  },
  {
    "Zip": 87131,
    "Center Name": "Atrisco",
    "State": "NM"
  },
  {
    "Zip": 29842,
    "Center Name": "Augusta",
    "State": "GA"
  },
  {
    "Zip": 30805,
    "Center Name": "Augusta",
    "State": "GA"
  },
  {
    "Zip": 30809,
    "Center Name": "Augusta",
    "State": "GA"
  },
  {
    "Zip": 30813,
    "Center Name": "Augusta",
    "State": "GA"
  },
  {
    "Zip": 30815,
    "Center Name": "Augusta",
    "State": "GA"
  },
  {
    "Zip": 30901,
    "Center Name": "Augusta",
    "State": "GA"
  },
  {
    "Zip": 30904,
    "Center Name": "Augusta",
    "State": "GA"
  },
  {
    "Zip": 30905,
    "Center Name": "Augusta",
    "State": "GA"
  },
  {
    "Zip": 30906,
    "Center Name": "Augusta",
    "State": "GA"
  },
  {
    "Zip": 30907,
    "Center Name": "Augusta",
    "State": "GA"
  },
  {
    "Zip": 30909,
    "Center Name": "Augusta",
    "State": "GA"
  },
  {
    "Zip": 30912,
    "Center Name": "Augusta",
    "State": "GA"
  },
  {
    "Zip": 60134,
    "Center Name": "Aurora",
    "State": "IL"
  },
  {
    "Zip": 60502,
    "Center Name": "Aurora",
    "State": "IL"
  },
  {
    "Zip": 60503,
    "Center Name": "Aurora",
    "State": "IL"
  },
  {
    "Zip": 60504,
    "Center Name": "Aurora",
    "State": "IL"
  },
  {
    "Zip": 60505,
    "Center Name": "Aurora",
    "State": "IL"
  },
  {
    "Zip": 60506,
    "Center Name": "Aurora",
    "State": "IL"
  },
  {
    "Zip": 60510,
    "Center Name": "Aurora",
    "State": "IL"
  },
  {
    "Zip": 60512,
    "Center Name": "Aurora",
    "State": "IL"
  },
  {
    "Zip": 60538,
    "Center Name": "Aurora",
    "State": "IL"
  },
  {
    "Zip": 60539,
    "Center Name": "Aurora",
    "State": "IL"
  },
  {
    "Zip": 60542,
    "Center Name": "Aurora",
    "State": "IL"
  },
  {
    "Zip": 60543,
    "Center Name": "Aurora",
    "State": "IL"
  },
  {
    "Zip": 60555,
    "Center Name": "Aurora",
    "State": "IL"
  },
  {
    "Zip": 60563,
    "Center Name": "Aurora",
    "State": "IL"
  },
  {
    "Zip": 60564,
    "Center Name": "Aurora",
    "State": "IL"
  },
  {
    "Zip": 60617,
    "Center Name": "Avalon Park",
    "State": "IL"
  },
  {
    "Zip": 60619,
    "Center Name": "Avalon Park",
    "State": "IL"
  },
  {
    "Zip": 60628,
    "Center Name": "Avalon Park",
    "State": "IL"
  },
  {
    "Zip": 60649,
    "Center Name": "Avalon Park",
    "State": "IL"
  },
  {
    "Zip": 45202,
    "Center Name": "Avondale",
    "State": "OH"
  },
  {
    "Zip": 45203,
    "Center Name": "Avondale",
    "State": "OH"
  },
  {
    "Zip": 45206,
    "Center Name": "Avondale",
    "State": "OH"
  },
  {
    "Zip": 45207,
    "Center Name": "Avondale",
    "State": "OH"
  },
  {
    "Zip": 45208,
    "Center Name": "Avondale",
    "State": "OH"
  },
  {
    "Zip": 45209,
    "Center Name": "Avondale",
    "State": "OH"
  },
  {
    "Zip": 45212,
    "Center Name": "Avondale",
    "State": "OH"
  },
  {
    "Zip": 45213,
    "Center Name": "Avondale",
    "State": "OH"
  },
  {
    "Zip": 45215,
    "Center Name": "Avondale",
    "State": "OH"
  },
  {
    "Zip": 45216,
    "Center Name": "Avondale",
    "State": "OH"
  },
  {
    "Zip": 45217,
    "Center Name": "Avondale",
    "State": "OH"
  },
  {
    "Zip": 45219,
    "Center Name": "Avondale",
    "State": "OH"
  },
  {
    "Zip": 45220,
    "Center Name": "Avondale",
    "State": "OH"
  },
  {
    "Zip": 45224,
    "Center Name": "Avondale",
    "State": "OH"
  },
  {
    "Zip": 45227,
    "Center Name": "Avondale",
    "State": "OH"
  },
  {
    "Zip": 45229,
    "Center Name": "Avondale",
    "State": "OH"
  },
  {
    "Zip": 45231,
    "Center Name": "Avondale",
    "State": "OH"
  },
  {
    "Zip": 45232,
    "Center Name": "Avondale",
    "State": "OH"
  },
  {
    "Zip": 45236,
    "Center Name": "Avondale",
    "State": "OH"
  },
  {
    "Zip": 45237,
    "Center Name": "Avondale",
    "State": "OH"
  },
  {
    "Zip": 60104,
    "Center Name": "Bellwood",
    "State": "IL"
  },
  {
    "Zip": 60130,
    "Center Name": "Bellwood",
    "State": "IL"
  },
  {
    "Zip": 60131,
    "Center Name": "Bellwood",
    "State": "IL"
  },
  {
    "Zip": 60141,
    "Center Name": "Bellwood",
    "State": "IL"
  },
  {
    "Zip": 60153,
    "Center Name": "Bellwood",
    "State": "IL"
  },
  {
    "Zip": 60154,
    "Center Name": "Bellwood",
    "State": "IL"
  },
  {
    "Zip": 60155,
    "Center Name": "Bellwood",
    "State": "IL"
  },
  {
    "Zip": 60160,
    "Center Name": "Bellwood",
    "State": "IL"
  },
  {
    "Zip": 60162,
    "Center Name": "Bellwood",
    "State": "IL"
  },
  {
    "Zip": 60163,
    "Center Name": "Bellwood",
    "State": "IL"
  },
  {
    "Zip": 60164,
    "Center Name": "Bellwood",
    "State": "IL"
  },
  {
    "Zip": 60165,
    "Center Name": "Bellwood",
    "State": "IL"
  },
  {
    "Zip": 60305,
    "Center Name": "Bellwood",
    "State": "IL"
  },
  {
    "Zip": 60513,
    "Center Name": "Bellwood",
    "State": "IL"
  },
  {
    "Zip": 60526,
    "Center Name": "Bellwood",
    "State": "IL"
  },
  {
    "Zip": 60707,
    "Center Name": "Bellwood",
    "State": "IL"
  },
  {
    "Zip": 44405,
    "Center Name": "Belmont Ave",
    "State": "OH"
  },
  {
    "Zip": 44420,
    "Center Name": "Belmont Ave",
    "State": "OH"
  },
  {
    "Zip": 44425,
    "Center Name": "Belmont Ave",
    "State": "OH"
  },
  {
    "Zip": 44436,
    "Center Name": "Belmont Ave",
    "State": "OH"
  },
  {
    "Zip": 44437,
    "Center Name": "Belmont Ave",
    "State": "OH"
  },
  {
    "Zip": 44440,
    "Center Name": "Belmont Ave",
    "State": "OH"
  },
  {
    "Zip": 44446,
    "Center Name": "Belmont Ave",
    "State": "OH"
  },
  {
    "Zip": 44471,
    "Center Name": "Belmont Ave",
    "State": "OH"
  },
  {
    "Zip": 44481,
    "Center Name": "Belmont Ave",
    "State": "OH"
  },
  {
    "Zip": 44502,
    "Center Name": "Belmont Ave",
    "State": "OH"
  },
  {
    "Zip": 44503,
    "Center Name": "Belmont Ave",
    "State": "OH"
  },
  {
    "Zip": 44504,
    "Center Name": "Belmont Ave",
    "State": "OH"
  },
  {
    "Zip": 44505,
    "Center Name": "Belmont Ave",
    "State": "OH"
  },
  {
    "Zip": 44506,
    "Center Name": "Belmont Ave",
    "State": "OH"
  },
  {
    "Zip": 44507,
    "Center Name": "Belmont Ave",
    "State": "OH"
  },
  {
    "Zip": 44509,
    "Center Name": "Belmont Ave",
    "State": "OH"
  },
  {
    "Zip": 44510,
    "Center Name": "Belmont Ave",
    "State": "OH"
  },
  {
    "Zip": 44511,
    "Center Name": "Belmont Ave",
    "State": "OH"
  },
  {
    "Zip": 44512,
    "Center Name": "Belmont Ave",
    "State": "OH"
  },
  {
    "Zip": 44514,
    "Center Name": "Belmont Ave",
    "State": "OH"
  },
  {
    "Zip": 44555,
    "Center Name": "Belmont Ave",
    "State": "OH"
  },
  {
    "Zip": 76008,
    "Center Name": "Benbrook",
    "State": "TX"
  },
  {
    "Zip": 76036,
    "Center Name": "Benbrook",
    "State": "TX"
  },
  {
    "Zip": 76108,
    "Center Name": "Benbrook",
    "State": "TX"
  },
  {
    "Zip": 76109,
    "Center Name": "Benbrook",
    "State": "TX"
  },
  {
    "Zip": 76110,
    "Center Name": "Benbrook",
    "State": "TX"
  },
  {
    "Zip": 76115,
    "Center Name": "Benbrook",
    "State": "TX"
  },
  {
    "Zip": 76116,
    "Center Name": "Benbrook",
    "State": "TX"
  },
  {
    "Zip": 76122,
    "Center Name": "Benbrook",
    "State": "TX"
  },
  {
    "Zip": 76123,
    "Center Name": "Benbrook",
    "State": "TX"
  },
  {
    "Zip": 76126,
    "Center Name": "Benbrook",
    "State": "TX"
  },
  {
    "Zip": 76129,
    "Center Name": "Benbrook",
    "State": "TX"
  },
  {
    "Zip": 76132,
    "Center Name": "Benbrook",
    "State": "TX"
  },
  {
    "Zip": 76133,
    "Center Name": "Benbrook",
    "State": "TX"
  },
  {
    "Zip": 60402,
    "Center Name": "Berwyn",
    "State": "IL"
  },
  {
    "Zip": 60534,
    "Center Name": "Berwyn",
    "State": "IL"
  },
  {
    "Zip": 60546,
    "Center Name": "Berwyn",
    "State": "IL"
  },
  {
    "Zip": 60804,
    "Center Name": "Berwyn",
    "State": "IL"
  },
  {
    "Zip": 18014,
    "Center Name": "Bethlehem",
    "State": "PA"
  },
  {
    "Zip": 18017,
    "Center Name": "Bethlehem",
    "State": "PA"
  },
  {
    "Zip": 18018,
    "Center Name": "Bethlehem",
    "State": "PA"
  },
  {
    "Zip": 18020,
    "Center Name": "Bethlehem",
    "State": "PA"
  },
  {
    "Zip": 18032,
    "Center Name": "Bethlehem",
    "State": "PA"
  },
  {
    "Zip": 18042,
    "Center Name": "Bethlehem",
    "State": "PA"
  },
  {
    "Zip": 18045,
    "Center Name": "Bethlehem",
    "State": "PA"
  },
  {
    "Zip": 18052,
    "Center Name": "Bethlehem",
    "State": "PA"
  },
  {
    "Zip": 18064,
    "Center Name": "Bethlehem",
    "State": "PA"
  },
  {
    "Zip": 18067,
    "Center Name": "Bethlehem",
    "State": "PA"
  },
  {
    "Zip": 18109,
    "Center Name": "Bethlehem",
    "State": "PA"
  },
  {
    "Zip": 60406,
    "Center Name": "Blue Island",
    "State": "IL"
  },
  {
    "Zip": 60418,
    "Center Name": "Blue Island",
    "State": "IL"
  },
  {
    "Zip": 60419,
    "Center Name": "Blue Island",
    "State": "IL"
  },
  {
    "Zip": 60426,
    "Center Name": "Blue Island",
    "State": "IL"
  },
  {
    "Zip": 60428,
    "Center Name": "Blue Island",
    "State": "IL"
  },
  {
    "Zip": 60429,
    "Center Name": "Blue Island",
    "State": "IL"
  },
  {
    "Zip": 60445,
    "Center Name": "Blue Island",
    "State": "IL"
  },
  {
    "Zip": 60452,
    "Center Name": "Blue Island",
    "State": "IL"
  },
  {
    "Zip": 60462,
    "Center Name": "Blue Island",
    "State": "IL"
  },
  {
    "Zip": 60463,
    "Center Name": "Blue Island",
    "State": "IL"
  },
  {
    "Zip": 60469,
    "Center Name": "Blue Island",
    "State": "IL"
  },
  {
    "Zip": 60472,
    "Center Name": "Blue Island",
    "State": "IL"
  },
  {
    "Zip": 60477,
    "Center Name": "Blue Island",
    "State": "IL"
  },
  {
    "Zip": 60655,
    "Center Name": "Blue Island",
    "State": "IL"
  },
  {
    "Zip": 60803,
    "Center Name": "Blue Island",
    "State": "IL"
  },
  {
    "Zip": 60827,
    "Center Name": "Blue Island",
    "State": "IL"
  },
  {
    "Zip": 2703,
    "Center Name": "Branch Ave",
    "State": "RI"
  },
  {
    "Zip": 2860,
    "Center Name": "Branch Ave",
    "State": "RI"
  },
  {
    "Zip": 2861,
    "Center Name": "Branch Ave",
    "State": "RI"
  },
  {
    "Zip": 2863,
    "Center Name": "Branch Ave",
    "State": "RI"
  },
  {
    "Zip": 2904,
    "Center Name": "Branch Ave",
    "State": "RI"
  },
  {
    "Zip": 2906,
    "Center Name": "Branch Ave",
    "State": "RI"
  },
  {
    "Zip": 2908,
    "Center Name": "Branch Ave",
    "State": "RI"
  },
  {
    "Zip": 2911,
    "Center Name": "Branch Ave",
    "State": "RI"
  },
  {
    "Zip": 2912,
    "Center Name": "Branch Ave",
    "State": "RI"
  },
  {
    "Zip": 2916,
    "Center Name": "Branch Ave",
    "State": "RI"
  },
  {
    "Zip": 2918,
    "Center Name": "Branch Ave",
    "State": "RI"
  },
  {
    "Zip": 2919,
    "Center Name": "Branch Ave",
    "State": "RI"
  },
  {
    "Zip": 60609,
    "Center Name": "Brighton Park",
    "State": "IL"
  },
  {
    "Zip": 60629,
    "Center Name": "Brighton Park",
    "State": "IL"
  },
  {
    "Zip": 60632,
    "Center Name": "Brighton Park",
    "State": "IL"
  },
  {
    "Zip": 23112,
    "Center Name": "Broad Rock",
    "State": "VA"
  },
  {
    "Zip": 23113,
    "Center Name": "Broad Rock",
    "State": "VA"
  },
  {
    "Zip": 23114,
    "Center Name": "Broad Rock",
    "State": "VA"
  },
  {
    "Zip": 23224,
    "Center Name": "Broad Rock",
    "State": "VA"
  },
  {
    "Zip": 23225,
    "Center Name": "Broad Rock",
    "State": "VA"
  },
  {
    "Zip": 23231,
    "Center Name": "Broad Rock",
    "State": "VA"
  },
  {
    "Zip": 23234,
    "Center Name": "Broad Rock",
    "State": "VA"
  },
  {
    "Zip": 23235,
    "Center Name": "Broad Rock",
    "State": "VA"
  },
  {
    "Zip": 23236,
    "Center Name": "Broad Rock",
    "State": "VA"
  },
  {
    "Zip": 23237,
    "Center Name": "Broad Rock",
    "State": "VA"
  },
  {
    "Zip": 23831,
    "Center Name": "Broad Rock",
    "State": "VA"
  },
  {
    "Zip": 23832,
    "Center Name": "Broad Rock",
    "State": "VA"
  },
  {
    "Zip": 60615,
    "Center Name": "Bronzeville",
    "State": "IL"
  },
  {
    "Zip": 60616,
    "Center Name": "Bronzeville",
    "State": "IL"
  },
  {
    "Zip": 60637,
    "Center Name": "Bronzeville",
    "State": "IL"
  },
  {
    "Zip": 60653,
    "Center Name": "Bronzeville",
    "State": "IL"
  },
  {
    "Zip": 48423,
    "Center Name": "Burton",
    "State": "MI"
  },
  {
    "Zip": 48439,
    "Center Name": "Burton",
    "State": "MI"
  },
  {
    "Zip": 48473,
    "Center Name": "Burton",
    "State": "MI"
  },
  {
    "Zip": 48507,
    "Center Name": "Burton",
    "State": "MI"
  },
  {
    "Zip": 48509,
    "Center Name": "Burton",
    "State": "MI"
  },
  {
    "Zip": 48519,
    "Center Name": "Burton",
    "State": "MI"
  },
  {
    "Zip": 48529,
    "Center Name": "Burton",
    "State": "MI"
  },
  {
    "Zip": 11205,
    "Center Name": "Bushwick",
    "State": "NY"
  },
  {
    "Zip": 11206,
    "Center Name": "Bushwick",
    "State": "NY"
  },
  {
    "Zip": 11211,
    "Center Name": "Bushwick",
    "State": "NY"
  },
  {
    "Zip": 11221,
    "Center Name": "Bushwick",
    "State": "NY"
  },
  {
    "Zip": 11237,
    "Center Name": "Bushwick",
    "State": "NY"
  },
  {
    "Zip": 11249,
    "Center Name": "Bushwick",
    "State": "NY"
  },
  {
    "Zip": 11378,
    "Center Name": "Bushwick",
    "State": "NY"
  },
  {
    "Zip": 11379,
    "Center Name": "Bushwick",
    "State": "NY"
  },
  {
    "Zip": 11385,
    "Center Name": "Bushwick",
    "State": "NY"
  },
  {
    "Zip": 11411,
    "Center Name": "Cambria Heights",
    "State": "NY"
  },
  {
    "Zip": 11412,
    "Center Name": "Cambria Heights",
    "State": "NY"
  },
  {
    "Zip": 11413,
    "Center Name": "Cambria Heights",
    "State": "NY"
  },
  {
    "Zip": 11422,
    "Center Name": "Cambria Heights",
    "State": "NY"
  },
  {
    "Zip": 11423,
    "Center Name": "Cambria Heights",
    "State": "NY"
  },
  {
    "Zip": 11427,
    "Center Name": "Cambria Heights",
    "State": "NY"
  },
  {
    "Zip": 11428,
    "Center Name": "Cambria Heights",
    "State": "NY"
  },
  {
    "Zip": 11429,
    "Center Name": "Cambria Heights",
    "State": "NY"
  },
  {
    "Zip": 75001,
    "Center Name": "Carrollton",
    "State": "TX"
  },
  {
    "Zip": 75006,
    "Center Name": "Carrollton",
    "State": "TX"
  },
  {
    "Zip": 75007,
    "Center Name": "Carrollton",
    "State": "TX"
  },
  {
    "Zip": 75010,
    "Center Name": "Carrollton",
    "State": "TX"
  },
  {
    "Zip": 75019,
    "Center Name": "Carrollton",
    "State": "TX"
  },
  {
    "Zip": 75056,
    "Center Name": "Carrollton",
    "State": "TX"
  },
  {
    "Zip": 75057,
    "Center Name": "Carrollton",
    "State": "TX"
  },
  {
    "Zip": 75063,
    "Center Name": "Carrollton",
    "State": "TX"
  },
  {
    "Zip": 75067,
    "Center Name": "Carrollton",
    "State": "TX"
  },
  {
    "Zip": 75093,
    "Center Name": "Carrollton",
    "State": "TX"
  },
  {
    "Zip": 75234,
    "Center Name": "Carrollton",
    "State": "TX"
  },
  {
    "Zip": 75244,
    "Center Name": "Carrollton",
    "State": "TX"
  },
  {
    "Zip": 75248,
    "Center Name": "Carrollton",
    "State": "TX"
  },
  {
    "Zip": 75287,
    "Center Name": "Carrollton",
    "State": "TX"
  },
  {
    "Zip": 75040,
    "Center Name": "Casa View",
    "State": "TX"
  },
  {
    "Zip": 75041,
    "Center Name": "Casa View",
    "State": "TX"
  },
  {
    "Zip": 75042,
    "Center Name": "Casa View",
    "State": "TX"
  },
  {
    "Zip": 75043,
    "Center Name": "Casa View",
    "State": "TX"
  },
  {
    "Zip": 75218,
    "Center Name": "Casa View",
    "State": "TX"
  },
  {
    "Zip": 75228,
    "Center Name": "Casa View",
    "State": "TX"
  },
  {
    "Zip": 75238,
    "Center Name": "Casa View",
    "State": "TX"
  },
  {
    "Zip": 71106,
    "Center Name": "Cedar Grove",
    "State": "LA"
  },
  {
    "Zip": 71105,
    "Center Name": "Cedar Grove",
    "State": "LA"
  },
  {
    "Zip": 71118,
    "Center Name": "Cedar Grove",
    "State": "LA"
  },
  {
    "Zip": 35068,
    "Center Name": "Center Point",
    "State": "AL"
  },
  {
    "Zip": 35071,
    "Center Name": "Center Point",
    "State": "AL"
  },
  {
    "Zip": 35116,
    "Center Name": "Center Point",
    "State": "AL"
  },
  {
    "Zip": 35126,
    "Center Name": "Center Point",
    "State": "AL"
  },
  {
    "Zip": 35173,
    "Center Name": "Center Point",
    "State": "AL"
  },
  {
    "Zip": 35206,
    "Center Name": "Center Point",
    "State": "AL"
  },
  {
    "Zip": 35210,
    "Center Name": "Center Point",
    "State": "AL"
  },
  {
    "Zip": 35212,
    "Center Name": "Center Point",
    "State": "AL"
  },
  {
    "Zip": 35215,
    "Center Name": "Center Point",
    "State": "AL"
  },
  {
    "Zip": 35217,
    "Center Name": "Center Point",
    "State": "AL"
  },
  {
    "Zip": 35235,
    "Center Name": "Center Point",
    "State": "AL"
  },
  {
    "Zip": 23005,
    "Center Name": "Chamberlayne",
    "State": "VA"
  },
  {
    "Zip": 23059,
    "Center Name": "Chamberlayne",
    "State": "VA"
  },
  {
    "Zip": 23060,
    "Center Name": "Chamberlayne",
    "State": "VA"
  },
  {
    "Zip": 23069,
    "Center Name": "Chamberlayne",
    "State": "VA"
  },
  {
    "Zip": 23111,
    "Center Name": "Chamberlayne",
    "State": "VA"
  },
  {
    "Zip": 23116,
    "Center Name": "Chamberlayne",
    "State": "VA"
  },
  {
    "Zip": 23173,
    "Center Name": "Chamberlayne",
    "State": "VA"
  },
  {
    "Zip": 23219,
    "Center Name": "Chamberlayne",
    "State": "VA"
  },
  {
    "Zip": 23220,
    "Center Name": "Chamberlayne",
    "State": "VA"
  },
  {
    "Zip": 23221,
    "Center Name": "Chamberlayne",
    "State": "VA"
  },
  {
    "Zip": 23222,
    "Center Name": "Chamberlayne",
    "State": "VA"
  },
  {
    "Zip": 23223,
    "Center Name": "Chamberlayne",
    "State": "VA"
  },
  {
    "Zip": 23226,
    "Center Name": "Chamberlayne",
    "State": "VA"
  },
  {
    "Zip": 23227,
    "Center Name": "Chamberlayne",
    "State": "VA"
  },
  {
    "Zip": 23228,
    "Center Name": "Chamberlayne",
    "State": "VA"
  },
  {
    "Zip": 23229,
    "Center Name": "Chamberlayne",
    "State": "VA"
  },
  {
    "Zip": 23230,
    "Center Name": "Chamberlayne",
    "State": "VA"
  },
  {
    "Zip": 23233,
    "Center Name": "Chamberlayne",
    "State": "VA"
  },
  {
    "Zip": 23238,
    "Center Name": "Chamberlayne",
    "State": "VA"
  },
  {
    "Zip": 23284,
    "Center Name": "Chamberlayne",
    "State": "VA"
  },
  {
    "Zip": 23294,
    "Center Name": "Chamberlayne",
    "State": "VA"
  },
  {
    "Zip": 23298,
    "Center Name": "Chamberlayne",
    "State": "VA"
  },
  {
    "Zip": 85202,
    "Center Name": "Chandler",
    "State": "AZ"
  },
  {
    "Zip": 85224,
    "Center Name": "Chandler",
    "State": "AZ"
  },
  {
    "Zip": 85225,
    "Center Name": "Chandler",
    "State": "AZ"
  },
  {
    "Zip": 85233,
    "Center Name": "Chandler",
    "State": "AZ"
  },
  {
    "Zip": 85248,
    "Center Name": "Chandler",
    "State": "AZ"
  },
  {
    "Zip": 85249,
    "Center Name": "Chandler",
    "State": "AZ"
  },
  {
    "Zip": 85286,
    "Center Name": "Chandler",
    "State": "AZ"
  },
  {
    "Zip": 85295,
    "Center Name": "Chandler",
    "State": "AZ"
  },
  {
    "Zip": 85296,
    "Center Name": "Chandler",
    "State": "AZ"
  },
  {
    "Zip": 85297,
    "Center Name": "Chandler",
    "State": "AZ"
  },
  {
    "Zip": 85298,
    "Center Name": "Chandler",
    "State": "AZ"
  },
  {
    "Zip": 19027,
    "Center Name": "Cheltenham",
    "State": "PA"
  },
  {
    "Zip": 19038,
    "Center Name": "Cheltenham",
    "State": "PA"
  },
  {
    "Zip": 19095,
    "Center Name": "Cheltenham",
    "State": "PA"
  },
  {
    "Zip": 19118,
    "Center Name": "Cheltenham",
    "State": "PA"
  },
  {
    "Zip": 19138,
    "Center Name": "Cheltenham",
    "State": "PA"
  },
  {
    "Zip": 19150,
    "Center Name": "Cheltenham",
    "State": "PA"
  },
  {
    "Zip": 48111,
    "Center Name": "Cherry Hill",
    "State": "MI"
  },
  {
    "Zip": 48120,
    "Center Name": "Cherry Hill",
    "State": "MI"
  },
  {
    "Zip": 48124,
    "Center Name": "Cherry Hill",
    "State": "MI"
  },
  {
    "Zip": 48125,
    "Center Name": "Cherry Hill",
    "State": "MI"
  },
  {
    "Zip": 48126,
    "Center Name": "Cherry Hill",
    "State": "MI"
  },
  {
    "Zip": 48127,
    "Center Name": "Cherry Hill",
    "State": "MI"
  },
  {
    "Zip": 48128,
    "Center Name": "Cherry Hill",
    "State": "MI"
  },
  {
    "Zip": 48135,
    "Center Name": "Cherry Hill",
    "State": "MI"
  },
  {
    "Zip": 48141,
    "Center Name": "Cherry Hill",
    "State": "MI"
  },
  {
    "Zip": 48184,
    "Center Name": "Cherry Hill",
    "State": "MI"
  },
  {
    "Zip": 48185,
    "Center Name": "Cherry Hill",
    "State": "MI"
  },
  {
    "Zip": 48186,
    "Center Name": "Cherry Hill",
    "State": "MI"
  },
  {
    "Zip": 48187,
    "Center Name": "Cherry Hill",
    "State": "MI"
  },
  {
    "Zip": 48188,
    "Center Name": "Cherry Hill",
    "State": "MI"
  },
  {
    "Zip": 48210,
    "Center Name": "Cherry Hill",
    "State": "MI"
  },
  {
    "Zip": 60605,
    "Center Name": "Chinatown",
    "State": "IL"
  },
  {
    "Zip": 60616,
    "Center Name": "Chinatown",
    "State": "IL"
  },
  {
    "Zip": 60689,
    "Center Name": "Chinatown",
    "State": "IL"
  },
  {
    "Zip": 60604,
    "Center Name": "Chinatown",
    "State": "IL"
  },
  {
    "Zip": 11208,
    "Center Name": "City Line",
    "State": "NY"
  },
  {
    "Zip": 11414,
    "Center Name": "City Line",
    "State": "NY"
  },
  {
    "Zip": 11416,
    "Center Name": "City Line",
    "State": "NY"
  },
  {
    "Zip": 11417,
    "Center Name": "City Line",
    "State": "NY"
  },
  {
    "Zip": 11421,
    "Center Name": "City Line",
    "State": "NY"
  },
  {
    "Zip": 19050,
    "Center Name": "Cobbs Creek",
    "State": "PA"
  },
  {
    "Zip": 19142,
    "Center Name": "Cobbs Creek",
    "State": "PA"
  },
  {
    "Zip": 19143,
    "Center Name": "Cobbs Creek",
    "State": "PA"
  },
  {
    "Zip": 19153,
    "Center Name": "Cobbs Creek",
    "State": "PA"
  },
  {
    "Zip": 29016,
    "Center Name": "Columbia",
    "State": "SC"
  },
  {
    "Zip": 29033,
    "Center Name": "Columbia",
    "State": "SC"
  },
  {
    "Zip": 29169,
    "Center Name": "Columbia",
    "State": "SC"
  },
  {
    "Zip": 29201,
    "Center Name": "Columbia",
    "State": "SC"
  },
  {
    "Zip": 29203,
    "Center Name": "Columbia",
    "State": "SC"
  },
  {
    "Zip": 29204,
    "Center Name": "Columbia",
    "State": "SC"
  },
  {
    "Zip": 29205,
    "Center Name": "Columbia",
    "State": "SC"
  },
  {
    "Zip": 29206,
    "Center Name": "Columbia",
    "State": "SC"
  },
  {
    "Zip": 29207,
    "Center Name": "Columbia",
    "State": "SC"
  },
  {
    "Zip": 29208,
    "Center Name": "Columbia",
    "State": "SC"
  },
  {
    "Zip": 29209,
    "Center Name": "Columbia",
    "State": "SC"
  },
  {
    "Zip": 29210,
    "Center Name": "Columbia",
    "State": "SC"
  },
  {
    "Zip": 29212,
    "Center Name": "Columbia",
    "State": "SC"
  },
  {
    "Zip": 29223,
    "Center Name": "Columbia",
    "State": "SC"
  },
  {
    "Zip": 29229,
    "Center Name": "Columbia",
    "State": "SC"
  },
  {
    "Zip": 80022,
    "Center Name": "Commerce City",
    "State": "CO"
  },
  {
    "Zip": 80024,
    "Center Name": "Commerce City",
    "State": "CO"
  },
  {
    "Zip": 80030,
    "Center Name": "Commerce City",
    "State": "CO"
  },
  {
    "Zip": 80031,
    "Center Name": "Commerce City",
    "State": "CO"
  },
  {
    "Zip": 80202,
    "Center Name": "Commerce City",
    "State": "CO"
  },
  {
    "Zip": 80205,
    "Center Name": "Commerce City",
    "State": "CO"
  },
  {
    "Zip": 80207,
    "Center Name": "Commerce City",
    "State": "CO"
  },
  {
    "Zip": 80216,
    "Center Name": "Commerce City",
    "State": "CO"
  },
  {
    "Zip": 80221,
    "Center Name": "Commerce City",
    "State": "CO"
  },
  {
    "Zip": 80229,
    "Center Name": "Commerce City",
    "State": "CO"
  },
  {
    "Zip": 80233,
    "Center Name": "Commerce City",
    "State": "CO"
  },
  {
    "Zip": 80238,
    "Center Name": "Commerce City",
    "State": "CO"
  },
  {
    "Zip": 80260,
    "Center Name": "Commerce City",
    "State": "CO"
  },
  {
    "Zip": 80601,
    "Center Name": "Commerce City",
    "State": "CO"
  },
  {
    "Zip": 80640,
    "Center Name": "Commerce City",
    "State": "CO"
  },
  {
    "Zip": 44612,
    "Center Name": "Country Fair",
    "State": "OH"
  },
  {
    "Zip": 44626,
    "Center Name": "Country Fair",
    "State": "OH"
  },
  {
    "Zip": 44641,
    "Center Name": "Country Fair",
    "State": "OH"
  },
  {
    "Zip": 44646,
    "Center Name": "Country Fair",
    "State": "OH"
  },
  {
    "Zip": 44647,
    "Center Name": "Country Fair",
    "State": "OH"
  },
  {
    "Zip": 44662,
    "Center Name": "Country Fair",
    "State": "OH"
  },
  {
    "Zip": 44702,
    "Center Name": "Country Fair",
    "State": "OH"
  },
  {
    "Zip": 44703,
    "Center Name": "Country Fair",
    "State": "OH"
  },
  {
    "Zip": 44704,
    "Center Name": "Country Fair",
    "State": "OH"
  },
  {
    "Zip": 44705,
    "Center Name": "Country Fair",
    "State": "OH"
  },
  {
    "Zip": 44706,
    "Center Name": "Country Fair",
    "State": "OH"
  },
  {
    "Zip": 44707,
    "Center Name": "Country Fair",
    "State": "OH"
  },
  {
    "Zip": 44708,
    "Center Name": "Country Fair",
    "State": "OH"
  },
  {
    "Zip": 44709,
    "Center Name": "Country Fair",
    "State": "OH"
  },
  {
    "Zip": 44710,
    "Center Name": "Country Fair",
    "State": "OH"
  },
  {
    "Zip": 44714,
    "Center Name": "Country Fair",
    "State": "OH"
  },
  {
    "Zip": 44718,
    "Center Name": "Country Fair",
    "State": "OH"
  },
  {
    "Zip": 44720,
    "Center Name": "Country Fair",
    "State": "OH"
  },
  {
    "Zip": 44721,
    "Center Name": "Country Fair",
    "State": "OH"
  },
  {
    "Zip": 44730,
    "Center Name": "Country Fair",
    "State": "OH"
  },
  {
    "Zip": 45309,
    "Center Name": "Crown Point",
    "State": "OH"
  },
  {
    "Zip": 45315,
    "Center Name": "Crown Point",
    "State": "OH"
  },
  {
    "Zip": 45322,
    "Center Name": "Crown Point",
    "State": "OH"
  },
  {
    "Zip": 45325,
    "Center Name": "Crown Point",
    "State": "OH"
  },
  {
    "Zip": 45327,
    "Center Name": "Crown Point",
    "State": "OH"
  },
  {
    "Zip": 45342,
    "Center Name": "Crown Point",
    "State": "OH"
  },
  {
    "Zip": 45345,
    "Center Name": "Crown Point",
    "State": "OH"
  },
  {
    "Zip": 45402,
    "Center Name": "Crown Point",
    "State": "OH"
  },
  {
    "Zip": 45405,
    "Center Name": "Crown Point",
    "State": "OH"
  },
  {
    "Zip": 45406,
    "Center Name": "Crown Point",
    "State": "OH"
  },
  {
    "Zip": 45415,
    "Center Name": "Crown Point",
    "State": "OH"
  },
  {
    "Zip": 45416,
    "Center Name": "Crown Point",
    "State": "OH"
  },
  {
    "Zip": 45417,
    "Center Name": "Crown Point",
    "State": "OH"
  },
  {
    "Zip": 45426,
    "Center Name": "Crown Point",
    "State": "OH"
  },
  {
    "Zip": 45449,
    "Center Name": "Crown Point",
    "State": "OH"
  },
  {
    "Zip": 77065,
    "Center Name": "Cypress",
    "State": "TX"
  },
  {
    "Zip": 77095,
    "Center Name": "Cypress",
    "State": "TX"
  },
  {
    "Zip": 77064,
    "Center Name": "Cypress",
    "State": "TX"
  },
  {
    "Zip": 77041,
    "Center Name": "Cypress",
    "State": "TX"
  },
  {
    "Zip": 77070,
    "Center Name": "Cypress",
    "State": "TX"
  },
  {
    "Zip": 52722,
    "Center Name": "Davenport",
    "State": "IA"
  },
  {
    "Zip": 52726,
    "Center Name": "Davenport",
    "State": "IA"
  },
  {
    "Zip": 52728,
    "Center Name": "Davenport",
    "State": "IA"
  },
  {
    "Zip": 52773,
    "Center Name": "Davenport",
    "State": "IA"
  },
  {
    "Zip": 52801,
    "Center Name": "Davenport",
    "State": "IA"
  },
  {
    "Zip": 52802,
    "Center Name": "Davenport",
    "State": "IA"
  },
  {
    "Zip": 52803,
    "Center Name": "Davenport",
    "State": "IA"
  },
  {
    "Zip": 52804,
    "Center Name": "Davenport",
    "State": "IA"
  },
  {
    "Zip": 52806,
    "Center Name": "Davenport",
    "State": "IA"
  },
  {
    "Zip": 52807,
    "Center Name": "Davenport",
    "State": "IA"
  },
  {
    "Zip": 61284,
    "Center Name": "Davenport",
    "State": "IA"
  },
  {
    "Zip": 80010,
    "Center Name": "Del Mar",
    "State": "CO"
  },
  {
    "Zip": 80011,
    "Center Name": "Del Mar",
    "State": "CO"
  },
  {
    "Zip": 80012,
    "Center Name": "Del Mar",
    "State": "CO"
  },
  {
    "Zip": 80013,
    "Center Name": "Del Mar",
    "State": "CO"
  },
  {
    "Zip": 80014,
    "Center Name": "Del Mar",
    "State": "CO"
  },
  {
    "Zip": 80015,
    "Center Name": "Del Mar",
    "State": "CO"
  },
  {
    "Zip": 80017,
    "Center Name": "Del Mar",
    "State": "CO"
  },
  {
    "Zip": 80018,
    "Center Name": "Del Mar",
    "State": "CO"
  },
  {
    "Zip": 80019,
    "Center Name": "Del Mar",
    "State": "CO"
  },
  {
    "Zip": 80045,
    "Center Name": "Del Mar",
    "State": "CO"
  },
  {
    "Zip": 80111,
    "Center Name": "Del Mar",
    "State": "CO"
  },
  {
    "Zip": 80206,
    "Center Name": "Del Mar",
    "State": "CO"
  },
  {
    "Zip": 80220,
    "Center Name": "Del Mar",
    "State": "CO"
  },
  {
    "Zip": 80224,
    "Center Name": "Del Mar",
    "State": "CO"
  },
  {
    "Zip": 80230,
    "Center Name": "Del Mar",
    "State": "CO"
  },
  {
    "Zip": 80231,
    "Center Name": "Del Mar",
    "State": "CO"
  },
  {
    "Zip": 80237,
    "Center Name": "Del Mar",
    "State": "CO"
  },
  {
    "Zip": 80239,
    "Center Name": "Del Mar",
    "State": "CO"
  },
  {
    "Zip": 80246,
    "Center Name": "Del Mar",
    "State": "CO"
  },
  {
    "Zip": 80247,
    "Center Name": "Del Mar",
    "State": "CO"
  },
  {
    "Zip": 80249,
    "Center Name": "Del Mar",
    "State": "CO"
  },
  {
    "Zip": 70714,
    "Center Name": "Delmont Village",
    "State": "LA"
  },
  {
    "Zip": 70739,
    "Center Name": "Delmont Village",
    "State": "LA"
  },
  {
    "Zip": 70767,
    "Center Name": "Delmont Village",
    "State": "LA"
  },
  {
    "Zip": 70791,
    "Center Name": "Delmont Village",
    "State": "LA"
  },
  {
    "Zip": 70801,
    "Center Name": "Delmont Village",
    "State": "LA"
  },
  {
    "Zip": 70802,
    "Center Name": "Delmont Village",
    "State": "LA"
  },
  {
    "Zip": 70805,
    "Center Name": "Delmont Village",
    "State": "LA"
  },
  {
    "Zip": 70806,
    "Center Name": "Delmont Village",
    "State": "LA"
  },
  {
    "Zip": 70807,
    "Center Name": "Delmont Village",
    "State": "LA"
  },
  {
    "Zip": 70808,
    "Center Name": "Delmont Village",
    "State": "LA"
  },
  {
    "Zip": 70809,
    "Center Name": "Delmont Village",
    "State": "LA"
  },
  {
    "Zip": 70811,
    "Center Name": "Delmont Village",
    "State": "LA"
  },
  {
    "Zip": 70812,
    "Center Name": "Delmont Village",
    "State": "LA"
  },
  {
    "Zip": 70813,
    "Center Name": "Delmont Village",
    "State": "LA"
  },
  {
    "Zip": 70814,
    "Center Name": "Delmont Village",
    "State": "LA"
  },
  {
    "Zip": 70815,
    "Center Name": "Delmont Village",
    "State": "LA"
  },
  {
    "Zip": 70818,
    "Center Name": "Delmont Village",
    "State": "LA"
  },
  {
    "Zip": 70819,
    "Center Name": "Delmont Village",
    "State": "LA"
  },
  {
    "Zip": 85006,
    "Center Name": "Desert Palms",
    "State": "AZ"
  },
  {
    "Zip": 85008,
    "Center Name": "Desert Palms",
    "State": "AZ"
  },
  {
    "Zip": 85016,
    "Center Name": "Desert Palms",
    "State": "AZ"
  },
  {
    "Zip": 85018,
    "Center Name": "Desert Palms",
    "State": "AZ"
  },
  {
    "Zip": 85034,
    "Center Name": "Desert Palms",
    "State": "AZ"
  },
  {
    "Zip": 85251,
    "Center Name": "Desert Palms",
    "State": "AZ"
  },
  {
    "Zip": 85253,
    "Center Name": "Desert Palms",
    "State": "AZ"
  },
  {
    "Zip": 85257,
    "Center Name": "Desert Palms",
    "State": "AZ"
  },
  {
    "Zip": 75116,
    "Center Name": "Duncanville",
    "State": "TX"
  },
  {
    "Zip": 75138,
    "Center Name": "Duncanville",
    "State": "TX"
  },
  {
    "Zip": 75236,
    "Center Name": "Duncanville",
    "State": "TX"
  },
  {
    "Zip": 75137,
    "Center Name": "Duncanville",
    "State": "TX"
  },
  {
    "Zip": 75237,
    "Center Name": "Duncanville",
    "State": "TX"
  },
  {
    "Zip": 75249,
    "Center Name": "Duncanville",
    "State": "TX"
  },
  {
    "Zip": 75233,
    "Center Name": "Duncanville",
    "State": "TX"
  },
  {
    "Zip": 75232,
    "Center Name": "Duncanville",
    "State": "TX"
  },
  {
    "Zip": 75115,
    "Center Name": "Duncanville",
    "State": "TX"
  },
  {
    "Zip": 27701,
    "Center Name": "Durham",
    "State": "NC"
  },
  {
    "Zip": 27703,
    "Center Name": "Durham",
    "State": "NC"
  },
  {
    "Zip": 27704,
    "Center Name": "Durham",
    "State": "NC"
  },
  {
    "Zip": 27705,
    "Center Name": "Durham",
    "State": "NC"
  },
  {
    "Zip": 27707,
    "Center Name": "Durham",
    "State": "NC"
  },
  {
    "Zip": 27709,
    "Center Name": "Durham",
    "State": "NC"
  },
  {
    "Zip": 27712,
    "Center Name": "Durham",
    "State": "NC"
  },
  {
    "Zip": 27713,
    "Center Name": "Durham",
    "State": "NC"
  },
  {
    "Zip": 28104,
    "Center Name": "East Charlotte",
    "State": "NC"
  },
  {
    "Zip": 28105,
    "Center Name": "East Charlotte",
    "State": "NC"
  },
  {
    "Zip": 28204,
    "Center Name": "East Charlotte",
    "State": "NC"
  },
  {
    "Zip": 28205,
    "Center Name": "East Charlotte",
    "State": "NC"
  },
  {
    "Zip": 28212,
    "Center Name": "East Charlotte",
    "State": "NC"
  },
  {
    "Zip": 28213,
    "Center Name": "East Charlotte",
    "State": "NC"
  },
  {
    "Zip": 28215,
    "Center Name": "East Charlotte",
    "State": "NC"
  },
  {
    "Zip": 28227,
    "Center Name": "East Charlotte",
    "State": "NC"
  },
  {
    "Zip": 28262,
    "Center Name": "East Charlotte",
    "State": "NC"
  },
  {
    "Zip": 37721,
    "Center Name": "East Knoxville",
    "State": "TN"
  },
  {
    "Zip": 37764,
    "Center Name": "East Knoxville",
    "State": "TN"
  },
  {
    "Zip": 37806,
    "Center Name": "East Knoxville",
    "State": "TN"
  },
  {
    "Zip": 37849,
    "Center Name": "East Knoxville",
    "State": "TN"
  },
  {
    "Zip": 37871,
    "Center Name": "East Knoxville",
    "State": "TN"
  },
  {
    "Zip": 37902,
    "Center Name": "East Knoxville",
    "State": "TN"
  },
  {
    "Zip": 37909,
    "Center Name": "East Knoxville",
    "State": "TN"
  },
  {
    "Zip": 37912,
    "Center Name": "East Knoxville",
    "State": "TN"
  },
  {
    "Zip": 37914,
    "Center Name": "East Knoxville",
    "State": "TN"
  },
  {
    "Zip": 37915,
    "Center Name": "East Knoxville",
    "State": "TN"
  },
  {
    "Zip": 37916,
    "Center Name": "East Knoxville",
    "State": "TN"
  },
  {
    "Zip": 37917,
    "Center Name": "East Knoxville",
    "State": "TN"
  },
  {
    "Zip": 37918,
    "Center Name": "East Knoxville",
    "State": "TN"
  },
  {
    "Zip": 37919,
    "Center Name": "East Knoxville",
    "State": "TN"
  },
  {
    "Zip": 37920,
    "Center Name": "East Knoxville",
    "State": "TN"
  },
  {
    "Zip": 37921,
    "Center Name": "East Knoxville",
    "State": "TN"
  },
  {
    "Zip": 37924,
    "Center Name": "East Knoxville",
    "State": "TN"
  },
  {
    "Zip": 37996,
    "Center Name": "East Knoxville",
    "State": "TN"
  },
  {
    "Zip": 85201,
    "Center Name": "East Mesa",
    "State": "AZ"
  },
  {
    "Zip": 85203,
    "Center Name": "East Mesa",
    "State": "AZ"
  },
  {
    "Zip": 85204,
    "Center Name": "East Mesa",
    "State": "AZ"
  },
  {
    "Zip": 85205,
    "Center Name": "East Mesa",
    "State": "AZ"
  },
  {
    "Zip": 85206,
    "Center Name": "East Mesa",
    "State": "AZ"
  },
  {
    "Zip": 85210,
    "Center Name": "East Mesa",
    "State": "AZ"
  },
  {
    "Zip": 85213,
    "Center Name": "East Mesa",
    "State": "AZ"
  },
  {
    "Zip": 85215,
    "Center Name": "East Mesa",
    "State": "AZ"
  },
  {
    "Zip": 85234,
    "Center Name": "East Mesa",
    "State": "AZ"
  },
  {
    "Zip": 85256,
    "Center Name": "East Mesa",
    "State": "AZ"
  },
  {
    "Zip": 30272,
    "Center Name": "East Point",
    "State": "GA"
  },
  {
    "Zip": 30291,
    "Center Name": "East Point",
    "State": "GA"
  },
  {
    "Zip": 30320,
    "Center Name": "East Point",
    "State": "GA"
  },
  {
    "Zip": 30331,
    "Center Name": "East Point",
    "State": "GA"
  },
  {
    "Zip": 30337,
    "Center Name": "East Point",
    "State": "GA"
  },
  {
    "Zip": 30344,
    "Center Name": "East Point",
    "State": "GA"
  },
  {
    "Zip": 30349,
    "Center Name": "East Point",
    "State": "GA"
  },
  {
    "Zip": 77009,
    "Center Name": "Eastex",
    "State": "TX"
  },
  {
    "Zip": 77014,
    "Center Name": "Eastex",
    "State": "TX"
  },
  {
    "Zip": 77016,
    "Center Name": "Eastex",
    "State": "TX"
  },
  {
    "Zip": 77022,
    "Center Name": "Eastex",
    "State": "TX"
  },
  {
    "Zip": 77026,
    "Center Name": "Eastex",
    "State": "TX"
  },
  {
    "Zip": 77032,
    "Center Name": "Eastex",
    "State": "TX"
  },
  {
    "Zip": 77037,
    "Center Name": "Eastex",
    "State": "TX"
  },
  {
    "Zip": 77039,
    "Center Name": "Eastex",
    "State": "TX"
  },
  {
    "Zip": 77044,
    "Center Name": "Eastex",
    "State": "TX"
  },
  {
    "Zip": 77050,
    "Center Name": "Eastex",
    "State": "TX"
  },
  {
    "Zip": 77060,
    "Center Name": "Eastex",
    "State": "TX"
  },
  {
    "Zip": 77073,
    "Center Name": "Eastex",
    "State": "TX"
  },
  {
    "Zip": 77076,
    "Center Name": "Eastex",
    "State": "TX"
  },
  {
    "Zip": 77078,
    "Center Name": "Eastex",
    "State": "TX"
  },
  {
    "Zip": 77090,
    "Center Name": "Eastex",
    "State": "TX"
  },
  {
    "Zip": 77093,
    "Center Name": "Eastex",
    "State": "TX"
  },
  {
    "Zip": 77338,
    "Center Name": "Eastex",
    "State": "TX"
  },
  {
    "Zip": 77396,
    "Center Name": "Eastex",
    "State": "TX"
  },
  {
    "Zip": 48021,
    "Center Name": "Eastgate",
    "State": "MI"
  },
  {
    "Zip": 48026,
    "Center Name": "Eastgate",
    "State": "MI"
  },
  {
    "Zip": 48035,
    "Center Name": "Eastgate",
    "State": "MI"
  },
  {
    "Zip": 48066,
    "Center Name": "Eastgate",
    "State": "MI"
  },
  {
    "Zip": 48080,
    "Center Name": "Eastgate",
    "State": "MI"
  },
  {
    "Zip": 48081,
    "Center Name": "Eastgate",
    "State": "MI"
  },
  {
    "Zip": 48082,
    "Center Name": "Eastgate",
    "State": "MI"
  },
  {
    "Zip": 48088,
    "Center Name": "Eastgate",
    "State": "MI"
  },
  {
    "Zip": 48089,
    "Center Name": "Eastgate",
    "State": "MI"
  },
  {
    "Zip": 48093,
    "Center Name": "Eastgate",
    "State": "MI"
  },
  {
    "Zip": 48312,
    "Center Name": "Eastgate",
    "State": "MI"
  },
  {
    "Zip": 60201,
    "Center Name": "Edgewater",
    "State": "IL"
  },
  {
    "Zip": 60202,
    "Center Name": "Edgewater",
    "State": "IL"
  },
  {
    "Zip": 60208,
    "Center Name": "Edgewater",
    "State": "IL"
  },
  {
    "Zip": 60613,
    "Center Name": "Edgewater",
    "State": "IL"
  },
  {
    "Zip": 60614,
    "Center Name": "Edgewater",
    "State": "IL"
  },
  {
    "Zip": 60626,
    "Center Name": "Edgewater",
    "State": "IL"
  },
  {
    "Zip": 60640,
    "Center Name": "Edgewater",
    "State": "IL"
  },
  {
    "Zip": 60645,
    "Center Name": "Edgewater",
    "State": "IL"
  },
  {
    "Zip": 60657,
    "Center Name": "Edgewater",
    "State": "IL"
  },
  {
    "Zip": 60659,
    "Center Name": "Edgewater",
    "State": "IL"
  },
  {
    "Zip": 60660,
    "Center Name": "Edgewater",
    "State": "IL"
  },
  {
    "Zip": 40109,
    "Center Name": "Edgewood",
    "State": "KY"
  },
  {
    "Zip": 40118,
    "Center Name": "Edgewood",
    "State": "KY"
  },
  {
    "Zip": 40204,
    "Center Name": "Edgewood",
    "State": "KY"
  },
  {
    "Zip": 40205,
    "Center Name": "Edgewood",
    "State": "KY"
  },
  {
    "Zip": 40206,
    "Center Name": "Edgewood",
    "State": "KY"
  },
  {
    "Zip": 40207,
    "Center Name": "Edgewood",
    "State": "KY"
  },
  {
    "Zip": 40209,
    "Center Name": "Edgewood",
    "State": "KY"
  },
  {
    "Zip": 40213,
    "Center Name": "Edgewood",
    "State": "KY"
  },
  {
    "Zip": 40217,
    "Center Name": "Edgewood",
    "State": "KY"
  },
  {
    "Zip": 40218,
    "Center Name": "Edgewood",
    "State": "KY"
  },
  {
    "Zip": 40219,
    "Center Name": "Edgewood",
    "State": "KY"
  },
  {
    "Zip": 40220,
    "Center Name": "Edgewood",
    "State": "KY"
  },
  {
    "Zip": 40228,
    "Center Name": "Edgewood",
    "State": "KY"
  },
  {
    "Zip": 40229,
    "Center Name": "Edgewood",
    "State": "KY"
  },
  {
    "Zip": 40291,
    "Center Name": "Edgewood",
    "State": "KY"
  },
  {
    "Zip": 40299,
    "Center Name": "Edgewood",
    "State": "KY"
  },
  {
    "Zip": 60010,
    "Center Name": "Elgin",
    "State": "IL"
  },
  {
    "Zip": 60102,
    "Center Name": "Elgin",
    "State": "IL"
  },
  {
    "Zip": 60110,
    "Center Name": "Elgin",
    "State": "IL"
  },
  {
    "Zip": 60118,
    "Center Name": "Elgin",
    "State": "IL"
  },
  {
    "Zip": 60120,
    "Center Name": "Elgin",
    "State": "IL"
  },
  {
    "Zip": 60123,
    "Center Name": "Elgin",
    "State": "IL"
  },
  {
    "Zip": 60124,
    "Center Name": "Elgin",
    "State": "IL"
  },
  {
    "Zip": 60177,
    "Center Name": "Elgin",
    "State": "IL"
  },
  {
    "Zip": 85012,
    "Center Name": "Encanto Village",
    "State": "AZ"
  },
  {
    "Zip": 85013,
    "Center Name": "Encanto Village",
    "State": "AZ"
  },
  {
    "Zip": 85014,
    "Center Name": "Encanto Village",
    "State": "AZ"
  },
  {
    "Zip": 85015,
    "Center Name": "Encanto Village",
    "State": "AZ"
  },
  {
    "Zip": 85017,
    "Center Name": "Encanto Village",
    "State": "AZ"
  },
  {
    "Zip": 28012,
    "Center Name": "Enderly Park",
    "State": "NC"
  },
  {
    "Zip": 28078,
    "Center Name": "Enderly Park",
    "State": "NC"
  },
  {
    "Zip": 28120,
    "Center Name": "Enderly Park",
    "State": "NC"
  },
  {
    "Zip": 28134,
    "Center Name": "Enderly Park",
    "State": "NC"
  },
  {
    "Zip": 28202,
    "Center Name": "Enderly Park",
    "State": "NC"
  },
  {
    "Zip": 28203,
    "Center Name": "Enderly Park",
    "State": "NC"
  },
  {
    "Zip": 28206,
    "Center Name": "Enderly Park",
    "State": "NC"
  },
  {
    "Zip": 28208,
    "Center Name": "Enderly Park",
    "State": "NC"
  },
  {
    "Zip": 28210,
    "Center Name": "Enderly Park",
    "State": "NC"
  },
  {
    "Zip": 28214,
    "Center Name": "Enderly Park",
    "State": "NC"
  },
  {
    "Zip": 28216,
    "Center Name": "Enderly Park",
    "State": "NC"
  },
  {
    "Zip": 28217,
    "Center Name": "Enderly Park",
    "State": "NC"
  },
  {
    "Zip": 28269,
    "Center Name": "Enderly Park",
    "State": "NC"
  },
  {
    "Zip": 28273,
    "Center Name": "Enderly Park",
    "State": "NC"
  },
  {
    "Zip": 28278,
    "Center Name": "Enderly Park",
    "State": "NC"
  },
  {
    "Zip": 60621,
    "Center Name": "Englewood",
    "State": "IL"
  },
  {
    "Zip": 60636,
    "Center Name": "Englewood",
    "State": "IL"
  },
  {
    "Zip": 60637,
    "Center Name": "Englewood",
    "State": "IL"
  },
  {
    "Zip": 60620,
    "Center Name": "Englewood",
    "State": "IL"
  },
  {
    "Zip": 60609,
    "Center Name": "Englewood",
    "State": "IL"
  },
  {
    "Zip": 60615,
    "Center Name": "Englewood",
    "State": "IL"
  },
  {
    "Zip": 60619,
    "Center Name": "Englewood",
    "State": "IL"
  },
  {
    "Zip": 60653,
    "Center Name": "Englewood",
    "State": "IL"
  },
  {
    "Zip": 60629,
    "Center Name": "Englewood",
    "State": "IL"
  },
  {
    "Zip": 60649,
    "Center Name": "Englewood",
    "State": "IL"
  },
  {
    "Zip": 60652,
    "Center Name": "Englewood",
    "State": "IL"
  },
  {
    "Zip": 60632,
    "Center Name": "Englewood",
    "State": "IL"
  },
  {
    "Zip": 60616,
    "Center Name": "Englewood",
    "State": "IL"
  },
  {
    "Zip": 60805,
    "Center Name": "Englewood",
    "State": "IL"
  },
  {
    "Zip": 77017,
    "Center Name": "Fairmont Junction",
    "State": "TX"
  },
  {
    "Zip": 77034,
    "Center Name": "Fairmont Junction",
    "State": "TX"
  },
  {
    "Zip": 77061,
    "Center Name": "Fairmont Junction",
    "State": "TX"
  },
  {
    "Zip": 77075,
    "Center Name": "Fairmont Junction",
    "State": "TX"
  },
  {
    "Zip": 77089,
    "Center Name": "Fairmont Junction",
    "State": "TX"
  },
  {
    "Zip": 77502,
    "Center Name": "Fairmont Junction",
    "State": "TX"
  },
  {
    "Zip": 77503,
    "Center Name": "Fairmont Junction",
    "State": "TX"
  },
  {
    "Zip": 77504,
    "Center Name": "Fairmont Junction",
    "State": "TX"
  },
  {
    "Zip": 77505,
    "Center Name": "Fairmont Junction",
    "State": "TX"
  },
  {
    "Zip": 77587,
    "Center Name": "Fairmont Junction",
    "State": "TX"
  },
  {
    "Zip": 46205,
    "Center Name": "Fall Creek",
    "State": "IN"
  },
  {
    "Zip": 46282,
    "Center Name": "Fall Creek",
    "State": "IN"
  },
  {
    "Zip": 46218,
    "Center Name": "Fall Creek",
    "State": "IN"
  },
  {
    "Zip": 46220,
    "Center Name": "Fall Creek",
    "State": "IN"
  },
  {
    "Zip": 46208,
    "Center Name": "Fall Creek",
    "State": "IN"
  },
  {
    "Zip": 46201,
    "Center Name": "Fall Creek",
    "State": "IN"
  },
  {
    "Zip": 46298,
    "Center Name": "Fall Creek",
    "State": "IN"
  },
  {
    "Zip": 46202,
    "Center Name": "Fall Creek",
    "State": "IN"
  },
  {
    "Zip": 46204,
    "Center Name": "Fall Creek",
    "State": "IN"
  },
  {
    "Zip": 46228,
    "Center Name": "Fall Creek",
    "State": "IN"
  },
  {
    "Zip": 46253,
    "Center Name": "Fall Creek",
    "State": "IN"
  },
  {
    "Zip": 46226,
    "Center Name": "Fall Creek",
    "State": "IN"
  },
  {
    "Zip": 46262,
    "Center Name": "Fall Creek",
    "State": "IN"
  },
  {
    "Zip": 46285,
    "Center Name": "Fall Creek",
    "State": "IN"
  },
  {
    "Zip": 46277,
    "Center Name": "Fall Creek",
    "State": "IN"
  },
  {
    "Zip": 46283,
    "Center Name": "Fall Creek",
    "State": "IN"
  },
  {
    "Zip": 46255,
    "Center Name": "Fall Creek",
    "State": "IN"
  },
  {
    "Zip": 46251,
    "Center Name": "Fall Creek",
    "State": "IN"
  },
  {
    "Zip": 46247,
    "Center Name": "Fall Creek",
    "State": "IN"
  },
  {
    "Zip": 46244,
    "Center Name": "Fall Creek",
    "State": "IN"
  },
  {
    "Zip": 46242,
    "Center Name": "Fall Creek",
    "State": "IN"
  },
  {
    "Zip": 46230,
    "Center Name": "Fall Creek",
    "State": "IN"
  },
  {
    "Zip": 46209,
    "Center Name": "Fall Creek",
    "State": "IN"
  },
  {
    "Zip": 46207,
    "Center Name": "Fall Creek",
    "State": "IN"
  },
  {
    "Zip": 46206,
    "Center Name": "Fall Creek",
    "State": "IN"
  },
  {
    "Zip": 46213,
    "Center Name": "Fall Creek",
    "State": "IN"
  },
  {
    "Zip": 46222,
    "Center Name": "Fall Creek",
    "State": "IN"
  },
  {
    "Zip": 11096,
    "Center Name": "Far Rockaway",
    "State": "NY"
  },
  {
    "Zip": 11516,
    "Center Name": "Far Rockaway",
    "State": "NY"
  },
  {
    "Zip": 11559,
    "Center Name": "Far Rockaway",
    "State": "NY"
  },
  {
    "Zip": 11691,
    "Center Name": "Far Rockaway",
    "State": "NY"
  },
  {
    "Zip": 11692,
    "Center Name": "Far Rockaway",
    "State": "NY"
  },
  {
    "Zip": 11693,
    "Center Name": "Far Rockaway",
    "State": "NY"
  },
  {
    "Zip": 11694,
    "Center Name": "Far Rockaway",
    "State": "NY"
  },
  {
    "Zip": 11691,
    "Center Name": "Far Rockaway",
    "State": "NY"
  },
  {
    "Zip": 11096,
    "Center Name": "Far Rockaway",
    "State": "NY"
  },
  {
    "Zip": 11692,
    "Center Name": "Far Rockaway",
    "State": "NY"
  },
  {
    "Zip": 11509,
    "Center Name": "Far Rockaway",
    "State": "NY"
  },
  {
    "Zip": 11516,
    "Center Name": "Far Rockaway",
    "State": "NY"
  },
  {
    "Zip": 11559,
    "Center Name": "Far Rockaway",
    "State": "NY"
  },
  {
    "Zip": 11693,
    "Center Name": "Far Rockaway",
    "State": "NY"
  },
  {
    "Zip": 11430,
    "Center Name": "Far Rockaway",
    "State": "NY"
  },
  {
    "Zip": 11598,
    "Center Name": "Far Rockaway",
    "State": "NY"
  },
  {
    "Zip": 11437,
    "Center Name": "Far Rockaway",
    "State": "NY"
  },
  {
    "Zip": 11422,
    "Center Name": "Far Rockaway",
    "State": "NY"
  },
  {
    "Zip": 11557,
    "Center Name": "Far Rockaway",
    "State": "NY"
  },
  {
    "Zip": 11581,
    "Center Name": "Far Rockaway",
    "State": "NY"
  },
  {
    "Zip": 11413,
    "Center Name": "Far Rockaway",
    "State": "NY"
  },
  {
    "Zip": 11694,
    "Center Name": "Far Rockaway",
    "State": "NY"
  },
  {
    "Zip": 19012,
    "Center Name": "Fern Rock",
    "State": "PA"
  },
  {
    "Zip": 19120,
    "Center Name": "Fern Rock",
    "State": "PA"
  },
  {
    "Zip": 19126,
    "Center Name": "Fern Rock",
    "State": "PA"
  },
  {
    "Zip": 19111,
    "Center Name": "Fern Rock",
    "State": "PA"
  },
  {
    "Zip": 19027,
    "Center Name": "Fern Rock",
    "State": "PA"
  },
  {
    "Zip": 19149,
    "Center Name": "Fern Rock",
    "State": "PA"
  },
  {
    "Zip": 19141,
    "Center Name": "Fern Rock",
    "State": "PA"
  },
  {
    "Zip": 19046,
    "Center Name": "Fern Rock",
    "State": "PA"
  },
  {
    "Zip": 19124,
    "Center Name": "Fern Rock",
    "State": "PA"
  },
  {
    "Zip": 19138,
    "Center Name": "Fern Rock",
    "State": "PA"
  },
  {
    "Zip": 44203,
    "Center Name": "Firestone Park",
    "State": "OH"
  },
  {
    "Zip": 44221,
    "Center Name": "Firestone Park",
    "State": "OH"
  },
  {
    "Zip": 44240,
    "Center Name": "Firestone Park",
    "State": "OH"
  },
  {
    "Zip": 44250,
    "Center Name": "Firestone Park",
    "State": "OH"
  },
  {
    "Zip": 44260,
    "Center Name": "Firestone Park",
    "State": "OH"
  },
  {
    "Zip": 44278,
    "Center Name": "Firestone Park",
    "State": "OH"
  },
  {
    "Zip": 44301,
    "Center Name": "Firestone Park",
    "State": "OH"
  },
  {
    "Zip": 44302,
    "Center Name": "Firestone Park",
    "State": "OH"
  },
  {
    "Zip": 44303,
    "Center Name": "Firestone Park",
    "State": "OH"
  },
  {
    "Zip": 44304,
    "Center Name": "Firestone Park",
    "State": "OH"
  },
  {
    "Zip": 44305,
    "Center Name": "Firestone Park",
    "State": "OH"
  },
  {
    "Zip": 44306,
    "Center Name": "Firestone Park",
    "State": "OH"
  },
  {
    "Zip": 44307,
    "Center Name": "Firestone Park",
    "State": "OH"
  },
  {
    "Zip": 44308,
    "Center Name": "Firestone Park",
    "State": "OH"
  },
  {
    "Zip": 44310,
    "Center Name": "Firestone Park",
    "State": "OH"
  },
  {
    "Zip": 44311,
    "Center Name": "Firestone Park",
    "State": "OH"
  },
  {
    "Zip": 44312,
    "Center Name": "Firestone Park",
    "State": "OH"
  },
  {
    "Zip": 44313,
    "Center Name": "Firestone Park",
    "State": "OH"
  },
  {
    "Zip": 44314,
    "Center Name": "Firestone Park",
    "State": "OH"
  },
  {
    "Zip": 44319,
    "Center Name": "Firestone Park",
    "State": "OH"
  },
  {
    "Zip": 44320,
    "Center Name": "Firestone Park",
    "State": "OH"
  },
  {
    "Zip": 44321,
    "Center Name": "Firestone Park",
    "State": "OH"
  },
  {
    "Zip": 44325,
    "Center Name": "Firestone Park",
    "State": "OH"
  },
  {
    "Zip": 44685,
    "Center Name": "Firestone Park",
    "State": "OH"
  },
  {
    "Zip": 11203,
    "Center Name": "Flatbush",
    "State": "NY"
  },
  {
    "Zip": 11210,
    "Center Name": "Flatbush",
    "State": "NY"
  },
  {
    "Zip": 11213,
    "Center Name": "Flatbush",
    "State": "NY"
  },
  {
    "Zip": 11215,
    "Center Name": "Flatbush",
    "State": "NY"
  },
  {
    "Zip": 11216,
    "Center Name": "Flatbush",
    "State": "NY"
  },
  {
    "Zip": 11225,
    "Center Name": "Flatbush",
    "State": "NY"
  },
  {
    "Zip": 11226,
    "Center Name": "Flatbush",
    "State": "NY"
  },
  {
    "Zip": 11238,
    "Center Name": "Flatbush",
    "State": "NY"
  },
  {
    "Zip": 63031,
    "Center Name": "Florissant",
    "State": "MO"
  },
  {
    "Zip": 63033,
    "Center Name": "Florissant",
    "State": "MO"
  },
  {
    "Zip": 63034,
    "Center Name": "Florissant",
    "State": "MO"
  },
  {
    "Zip": 63042,
    "Center Name": "Florissant",
    "State": "MO"
  },
  {
    "Zip": 63043,
    "Center Name": "Florissant",
    "State": "MO"
  },
  {
    "Zip": 63044,
    "Center Name": "Florissant",
    "State": "MO"
  },
  {
    "Zip": 63045,
    "Center Name": "Florissant",
    "State": "MO"
  },
  {
    "Zip": 63145,
    "Center Name": "Florissant",
    "State": "MO"
  },
  {
    "Zip": 63301,
    "Center Name": "Florissant",
    "State": "MO"
  },
  {
    "Zip": 63386,
    "Center Name": "Florissant",
    "State": "MO"
  },
  {
    "Zip": 46741,
    "Center Name": "Fort Wayne",
    "State": "IN"
  },
  {
    "Zip": 46774,
    "Center Name": "Fort Wayne",
    "State": "IN"
  },
  {
    "Zip": 46802,
    "Center Name": "Fort Wayne",
    "State": "IN"
  },
  {
    "Zip": 46803,
    "Center Name": "Fort Wayne",
    "State": "IN"
  },
  {
    "Zip": 46804,
    "Center Name": "Fort Wayne",
    "State": "IN"
  },
  {
    "Zip": 46805,
    "Center Name": "Fort Wayne",
    "State": "IN"
  },
  {
    "Zip": 46806,
    "Center Name": "Fort Wayne",
    "State": "IN"
  },
  {
    "Zip": 46807,
    "Center Name": "Fort Wayne",
    "State": "IN"
  },
  {
    "Zip": 46808,
    "Center Name": "Fort Wayne",
    "State": "IN"
  },
  {
    "Zip": 46809,
    "Center Name": "Fort Wayne",
    "State": "IN"
  },
  {
    "Zip": 46814,
    "Center Name": "Fort Wayne",
    "State": "IN"
  },
  {
    "Zip": 46815,
    "Center Name": "Fort Wayne",
    "State": "IN"
  },
  {
    "Zip": 46816,
    "Center Name": "Fort Wayne",
    "State": "IN"
  },
  {
    "Zip": 46818,
    "Center Name": "Fort Wayne",
    "State": "IN"
  },
  {
    "Zip": 46819,
    "Center Name": "Fort Wayne",
    "State": "IN"
  },
  {
    "Zip": 46825,
    "Center Name": "Fort Wayne",
    "State": "IN"
  },
  {
    "Zip": 46835,
    "Center Name": "Fort Wayne",
    "State": "IN"
  },
  {
    "Zip": 46845,
    "Center Name": "Fort Wayne",
    "State": "IN"
  },
  {
    "Zip": 38002,
    "Center Name": "Frayser",
    "State": "TN"
  },
  {
    "Zip": 38103,
    "Center Name": "Frayser",
    "State": "TN"
  },
  {
    "Zip": 38104,
    "Center Name": "Frayser",
    "State": "TN"
  },
  {
    "Zip": 38105,
    "Center Name": "Frayser",
    "State": "TN"
  },
  {
    "Zip": 38107,
    "Center Name": "Frayser",
    "State": "TN"
  },
  {
    "Zip": 38108,
    "Center Name": "Frayser",
    "State": "TN"
  },
  {
    "Zip": 38126,
    "Center Name": "Frayser",
    "State": "TN"
  },
  {
    "Zip": 38127,
    "Center Name": "Frayser",
    "State": "TN"
  },
  {
    "Zip": 38128,
    "Center Name": "Frayser",
    "State": "TN"
  },
  {
    "Zip": 38134,
    "Center Name": "Frayser",
    "State": "TN"
  },
  {
    "Zip": 38135,
    "Center Name": "Frayser",
    "State": "TN"
  },
  {
    "Zip": 11510,
    "Center Name": "Freeport",
    "State": "NY"
  },
  {
    "Zip": 11518,
    "Center Name": "Freeport",
    "State": "NY"
  },
  {
    "Zip": 11520,
    "Center Name": "Freeport",
    "State": "NY"
  },
  {
    "Zip": 11557,
    "Center Name": "Freeport",
    "State": "NY"
  },
  {
    "Zip": 11558,
    "Center Name": "Freeport",
    "State": "NY"
  },
  {
    "Zip": 11561,
    "Center Name": "Freeport",
    "State": "NY"
  },
  {
    "Zip": 11563,
    "Center Name": "Freeport",
    "State": "NY"
  },
  {
    "Zip": 11565,
    "Center Name": "Freeport",
    "State": "NY"
  },
  {
    "Zip": 11566,
    "Center Name": "Freeport",
    "State": "NY"
  },
  {
    "Zip": 11570,
    "Center Name": "Freeport",
    "State": "NY"
  },
  {
    "Zip": 11572,
    "Center Name": "Freeport",
    "State": "NY"
  },
  {
    "Zip": 11575,
    "Center Name": "Freeport",
    "State": "NY"
  },
  {
    "Zip": 11581,
    "Center Name": "Freeport",
    "State": "NY"
  },
  {
    "Zip": 11710,
    "Center Name": "Freeport",
    "State": "NY"
  },
  {
    "Zip": 11783,
    "Center Name": "Freeport",
    "State": "NY"
  },
  {
    "Zip": 11793,
    "Center Name": "Freeport",
    "State": "NY"
  },
  {
    "Zip": 60455,
    "Center Name": "Garfield Ridge",
    "State": "IL"
  },
  {
    "Zip": 60457,
    "Center Name": "Garfield Ridge",
    "State": "IL"
  },
  {
    "Zip": 60458,
    "Center Name": "Garfield Ridge",
    "State": "IL"
  },
  {
    "Zip": 60465,
    "Center Name": "Garfield Ridge",
    "State": "IL"
  },
  {
    "Zip": 60480,
    "Center Name": "Garfield Ridge",
    "State": "IL"
  },
  {
    "Zip": 60501,
    "Center Name": "Garfield Ridge",
    "State": "IL"
  },
  {
    "Zip": 60521,
    "Center Name": "Garfield Ridge",
    "State": "IL"
  },
  {
    "Zip": 60525,
    "Center Name": "Garfield Ridge",
    "State": "IL"
  },
  {
    "Zip": 60527,
    "Center Name": "Garfield Ridge",
    "State": "IL"
  },
  {
    "Zip": 60558,
    "Center Name": "Garfield Ridge",
    "State": "IL"
  },
  {
    "Zip": 60638,
    "Center Name": "Garfield Ridge",
    "State": "IL"
  },
  {
    "Zip": 75042,
    "Center Name": "Garland",
    "State": "TX"
  },
  {
    "Zip": 75045,
    "Center Name": "Garland",
    "State": "TX"
  },
  {
    "Zip": 75046,
    "Center Name": "Garland",
    "State": "TX"
  },
  {
    "Zip": 75047,
    "Center Name": "Garland",
    "State": "TX"
  },
  {
    "Zip": 75049,
    "Center Name": "Garland",
    "State": "TX"
  },
  {
    "Zip": 75041,
    "Center Name": "Garland",
    "State": "TX"
  },
  {
    "Zip": 75047,
    "Center Name": "Garland",
    "State": "TX"
  },
  {
    "Zip": 75243,
    "Center Name": "Garland",
    "State": "TX"
  },
  {
    "Zip": 75081,
    "Center Name": "Garland",
    "State": "TX"
  },
  {
    "Zip": 75040,
    "Center Name": "Garland",
    "State": "TX"
  },
  {
    "Zip": 75044,
    "Center Name": "Garland",
    "State": "TX"
  },
  {
    "Zip": 75083,
    "Center Name": "Garland",
    "State": "TX"
  },
  {
    "Zip": 75085,
    "Center Name": "Garland",
    "State": "TX"
  },
  {
    "Zip": 75231,
    "Center Name": "Garland",
    "State": "TX"
  },
  {
    "Zip": 74011,
    "Center Name": "Garnett Plaza",
    "State": "OK"
  },
  {
    "Zip": 74012,
    "Center Name": "Garnett Plaza",
    "State": "OK"
  },
  {
    "Zip": 74014,
    "Center Name": "Garnett Plaza",
    "State": "OK"
  },
  {
    "Zip": 74015,
    "Center Name": "Garnett Plaza",
    "State": "OK"
  },
  {
    "Zip": 74108,
    "Center Name": "Garnett Plaza",
    "State": "OK"
  },
  {
    "Zip": 74116,
    "Center Name": "Garnett Plaza",
    "State": "OK"
  },
  {
    "Zip": 74128,
    "Center Name": "Garnett Plaza",
    "State": "OK"
  },
  {
    "Zip": 74129,
    "Center Name": "Garnett Plaza",
    "State": "OK"
  },
  {
    "Zip": 74133,
    "Center Name": "Garnett Plaza",
    "State": "OK"
  },
  {
    "Zip": 74134,
    "Center Name": "Garnett Plaza",
    "State": "OK"
  },
  {
    "Zip": 74136,
    "Center Name": "Garnett Plaza",
    "State": "OK"
  },
  {
    "Zip": 74137,
    "Center Name": "Garnett Plaza",
    "State": "OK"
  },
  {
    "Zip": 74145,
    "Center Name": "Garnett Plaza",
    "State": "OK"
  },
  {
    "Zip": 74146,
    "Center Name": "Garnett Plaza",
    "State": "OK"
  },
  {
    "Zip": 46307,
    "Center Name": "Gary",
    "State": "IN"
  },
  {
    "Zip": 46311,
    "Center Name": "Gary",
    "State": "IN"
  },
  {
    "Zip": 46319,
    "Center Name": "Gary",
    "State": "IN"
  },
  {
    "Zip": 46342,
    "Center Name": "Gary",
    "State": "IN"
  },
  {
    "Zip": 46368,
    "Center Name": "Gary",
    "State": "IN"
  },
  {
    "Zip": 46373,
    "Center Name": "Gary",
    "State": "IN"
  },
  {
    "Zip": 46375,
    "Center Name": "Gary",
    "State": "IN"
  },
  {
    "Zip": 46385,
    "Center Name": "Gary",
    "State": "IN"
  },
  {
    "Zip": 46402,
    "Center Name": "Gary",
    "State": "IN"
  },
  {
    "Zip": 46403,
    "Center Name": "Gary",
    "State": "IN"
  },
  {
    "Zip": 46404,
    "Center Name": "Gary",
    "State": "IN"
  },
  {
    "Zip": 46405,
    "Center Name": "Gary",
    "State": "IN"
  },
  {
    "Zip": 46406,
    "Center Name": "Gary",
    "State": "IN"
  },
  {
    "Zip": 46407,
    "Center Name": "Gary",
    "State": "IN"
  },
  {
    "Zip": 46408,
    "Center Name": "Gary",
    "State": "IN"
  },
  {
    "Zip": 46409,
    "Center Name": "Gary",
    "State": "IN"
  },
  {
    "Zip": 46410,
    "Center Name": "Gary",
    "State": "IN"
  },
  {
    "Zip": 27235,
    "Center Name": "Gate City",
    "State": "NC"
  },
  {
    "Zip": 27313,
    "Center Name": "Gate City",
    "State": "NC"
  },
  {
    "Zip": 27407,
    "Center Name": "Gate City",
    "State": "NC"
  },
  {
    "Zip": 27409,
    "Center Name": "Gate City",
    "State": "NC"
  },
  {
    "Zip": 27410,
    "Center Name": "Gate City",
    "State": "NC"
  },
  {
    "Zip": 70116,
    "Center Name": "Gentilly",
    "State": "LA"
  },
  {
    "Zip": 70117,
    "Center Name": "Gentilly",
    "State": "LA"
  },
  {
    "Zip": 70122,
    "Center Name": "Gentilly",
    "State": "LA"
  },
  {
    "Zip": 70126,
    "Center Name": "Gentilly",
    "State": "LA"
  },
  {
    "Zip": 70127,
    "Center Name": "Gentilly",
    "State": "LA"
  },
  {
    "Zip": 70128,
    "Center Name": "Gentilly",
    "State": "LA"
  },
  {
    "Zip": 70129,
    "Center Name": "Gentilly",
    "State": "LA"
  },
  {
    "Zip": 70445,
    "Center Name": "Gentilly",
    "State": "LA"
  },
  {
    "Zip": 19119,
    "Center Name": "Germantown",
    "State": "PA"
  },
  {
    "Zip": 19128,
    "Center Name": "Germantown",
    "State": "PA"
  },
  {
    "Zip": 19129,
    "Center Name": "Germantown",
    "State": "PA"
  },
  {
    "Zip": 19141,
    "Center Name": "Germantown",
    "State": "PA"
  },
  {
    "Zip": 19144,
    "Center Name": "Germantown",
    "State": "PA"
  },
  {
    "Zip": 85019,
    "Center Name": "Glen Ave",
    "State": "AZ"
  },
  {
    "Zip": 85020,
    "Center Name": "Glen Ave",
    "State": "AZ"
  },
  {
    "Zip": 85021,
    "Center Name": "Glen Ave",
    "State": "AZ"
  },
  {
    "Zip": 85023,
    "Center Name": "Glen Ave",
    "State": "AZ"
  },
  {
    "Zip": 85027,
    "Center Name": "Glen Ave",
    "State": "AZ"
  },
  {
    "Zip": 85029,
    "Center Name": "Glen Ave",
    "State": "AZ"
  },
  {
    "Zip": 85051,
    "Center Name": "Glen Ave",
    "State": "AZ"
  },
  {
    "Zip": 85053,
    "Center Name": "Glen Ave",
    "State": "AZ"
  },
  {
    "Zip": 85306,
    "Center Name": "Glen Ave",
    "State": "AZ"
  },
  {
    "Zip": 46032,
    "Center Name": "Glendale",
    "State": "IN"
  },
  {
    "Zip": 46077,
    "Center Name": "Glendale",
    "State": "IN"
  },
  {
    "Zip": 46205,
    "Center Name": "Glendale",
    "State": "IN"
  },
  {
    "Zip": 46208,
    "Center Name": "Glendale",
    "State": "IN"
  },
  {
    "Zip": 46216,
    "Center Name": "Glendale",
    "State": "IN"
  },
  {
    "Zip": 46220,
    "Center Name": "Glendale",
    "State": "IN"
  },
  {
    "Zip": 46226,
    "Center Name": "Glendale",
    "State": "IN"
  },
  {
    "Zip": 46228,
    "Center Name": "Glendale",
    "State": "IN"
  },
  {
    "Zip": 46236,
    "Center Name": "Glendale",
    "State": "IN"
  },
  {
    "Zip": 46240,
    "Center Name": "Glendale",
    "State": "IN"
  },
  {
    "Zip": 46250,
    "Center Name": "Glendale",
    "State": "IN"
  },
  {
    "Zip": 46256,
    "Center Name": "Glendale",
    "State": "IN"
  },
  {
    "Zip": 46260,
    "Center Name": "Glendale",
    "State": "IN"
  },
  {
    "Zip": 46268,
    "Center Name": "Glendale",
    "State": "IN"
  },
  {
    "Zip": 46278,
    "Center Name": "Glendale",
    "State": "IN"
  },
  {
    "Zip": 46280,
    "Center Name": "Glendale",
    "State": "IN"
  },
  {
    "Zip": 46290,
    "Center Name": "Glendale",
    "State": "IN"
  },
  {
    "Zip": 85033,
    "Center Name": "Glenfair",
    "State": "AZ"
  },
  {
    "Zip": 85301,
    "Center Name": "Glenfair",
    "State": "AZ"
  },
  {
    "Zip": 85302,
    "Center Name": "Glenfair",
    "State": "AZ"
  },
  {
    "Zip": 85303,
    "Center Name": "Glenfair",
    "State": "AZ"
  },
  {
    "Zip": 85304,
    "Center Name": "Glenfair",
    "State": "AZ"
  },
  {
    "Zip": 85305,
    "Center Name": "Glenfair",
    "State": "AZ"
  },
  {
    "Zip": 85345,
    "Center Name": "Glenfair",
    "State": "AZ"
  },
  {
    "Zip": 85381,
    "Center Name": "Glenfair",
    "State": "AZ"
  },
  {
    "Zip": 44108,
    "Center Name": "Glenville",
    "State": "OH"
  },
  {
    "Zip": 44110,
    "Center Name": "Glenville",
    "State": "OH"
  },
  {
    "Zip": 44112,
    "Center Name": "Glenville",
    "State": "OH"
  },
  {
    "Zip": 44117,
    "Center Name": "Glenville",
    "State": "OH"
  },
  {
    "Zip": 44118,
    "Center Name": "Glenville",
    "State": "OH"
  },
  {
    "Zip": 44119,
    "Center Name": "Glenville",
    "State": "OH"
  },
  {
    "Zip": 44121,
    "Center Name": "Glenville",
    "State": "OH"
  },
  {
    "Zip": 27301,
    "Center Name": "Greensboro",
    "State": "NC"
  },
  {
    "Zip": 27401,
    "Center Name": "Greensboro",
    "State": "NC"
  },
  {
    "Zip": 27403,
    "Center Name": "Greensboro",
    "State": "NC"
  },
  {
    "Zip": 27405,
    "Center Name": "Greensboro",
    "State": "NC"
  },
  {
    "Zip": 27406,
    "Center Name": "Greensboro",
    "State": "NC"
  },
  {
    "Zip": 27408,
    "Center Name": "Greensboro",
    "State": "NC"
  },
  {
    "Zip": 27411,
    "Center Name": "Greensboro",
    "State": "NC"
  },
  {
    "Zip": 27412,
    "Center Name": "Greensboro",
    "State": "NC"
  },
  {
    "Zip": 27413,
    "Center Name": "Greensboro",
    "State": "NC"
  },
  {
    "Zip": 27455,
    "Center Name": "Greensboro",
    "State": "NC"
  },
  {
    "Zip": 29601,
    "Center Name": "Greenville",
    "State": "SC"
  },
  {
    "Zip": 29605,
    "Center Name": "Greenville",
    "State": "SC"
  },
  {
    "Zip": 29607,
    "Center Name": "Greenville",
    "State": "SC"
  },
  {
    "Zip": 29609,
    "Center Name": "Greenville",
    "State": "SC"
  },
  {
    "Zip": 29611,
    "Center Name": "Greenville",
    "State": "SC"
  },
  {
    "Zip": 29613,
    "Center Name": "Greenville",
    "State": "SC"
  },
  {
    "Zip": 29615,
    "Center Name": "Greenville",
    "State": "SC"
  },
  {
    "Zip": 29617,
    "Center Name": "Greenville",
    "State": "SC"
  },
  {
    "Zip": 29640,
    "Center Name": "Greenville",
    "State": "SC"
  },
  {
    "Zip": 29642,
    "Center Name": "Greenville",
    "State": "SC"
  },
  {
    "Zip": 29673,
    "Center Name": "Greenville",
    "State": "SC"
  },
  {
    "Zip": 29687,
    "Center Name": "Greenville",
    "State": "SC"
  },
  {
    "Zip": 46312,
    "Center Name": "Hammond",
    "State": "IN"
  },
  {
    "Zip": 46320,
    "Center Name": "Hammond",
    "State": "IN"
  },
  {
    "Zip": 46321,
    "Center Name": "Hammond",
    "State": "IN"
  },
  {
    "Zip": 46322,
    "Center Name": "Hammond",
    "State": "IN"
  },
  {
    "Zip": 46323,
    "Center Name": "Hammond",
    "State": "IN"
  },
  {
    "Zip": 46324,
    "Center Name": "Hammond",
    "State": "IN"
  },
  {
    "Zip": 46327,
    "Center Name": "Hammond",
    "State": "IN"
  },
  {
    "Zip": 46394,
    "Center Name": "Hammond",
    "State": "IN"
  },
  {
    "Zip": 60409,
    "Center Name": "Hammond",
    "State": "IN"
  },
  {
    "Zip": 60438,
    "Center Name": "Hammond",
    "State": "IN"
  },
  {
    "Zip": 60473,
    "Center Name": "Hammond",
    "State": "IN"
  },
  {
    "Zip": 60476,
    "Center Name": "Hammond",
    "State": "IN"
  },
  {
    "Zip": 60633,
    "Center Name": "Hammond",
    "State": "IN"
  },
  {
    "Zip": 80110,
    "Center Name": "Harvey Park",
    "State": "CO"
  },
  {
    "Zip": 80113,
    "Center Name": "Harvey Park",
    "State": "CO"
  },
  {
    "Zip": 80120,
    "Center Name": "Harvey Park",
    "State": "CO"
  },
  {
    "Zip": 80121,
    "Center Name": "Harvey Park",
    "State": "CO"
  },
  {
    "Zip": 80123,
    "Center Name": "Harvey Park",
    "State": "CO"
  },
  {
    "Zip": 80127,
    "Center Name": "Harvey Park",
    "State": "CO"
  },
  {
    "Zip": 80203,
    "Center Name": "Harvey Park",
    "State": "CO"
  },
  {
    "Zip": 80204,
    "Center Name": "Harvey Park",
    "State": "CO"
  },
  {
    "Zip": 80209,
    "Center Name": "Harvey Park",
    "State": "CO"
  },
  {
    "Zip": 80210,
    "Center Name": "Harvey Park",
    "State": "CO"
  },
  {
    "Zip": 80211,
    "Center Name": "Harvey Park",
    "State": "CO"
  },
  {
    "Zip": 80214,
    "Center Name": "Harvey Park",
    "State": "CO"
  },
  {
    "Zip": 80218,
    "Center Name": "Harvey Park",
    "State": "CO"
  },
  {
    "Zip": 80219,
    "Center Name": "Harvey Park",
    "State": "CO"
  },
  {
    "Zip": 80222,
    "Center Name": "Harvey Park",
    "State": "CO"
  },
  {
    "Zip": 80223,
    "Center Name": "Harvey Park",
    "State": "CO"
  },
  {
    "Zip": 80226,
    "Center Name": "Harvey Park",
    "State": "CO"
  },
  {
    "Zip": 80227,
    "Center Name": "Harvey Park",
    "State": "CO"
  },
  {
    "Zip": 80232,
    "Center Name": "Harvey Park",
    "State": "CO"
  },
  {
    "Zip": 80235,
    "Center Name": "Harvey Park",
    "State": "CO"
  },
  {
    "Zip": 80236,
    "Center Name": "Harvey Park",
    "State": "CO"
  },
  {
    "Zip": 80465,
    "Center Name": "Harvey Park",
    "State": "CO"
  },
  {
    "Zip": 60068,
    "Center Name": "Harwood Heights",
    "State": "IL"
  },
  {
    "Zip": 60176,
    "Center Name": "Harwood Heights",
    "State": "IL"
  },
  {
    "Zip": 60631,
    "Center Name": "Harwood Heights",
    "State": "IL"
  },
  {
    "Zip": 60634,
    "Center Name": "Harwood Heights",
    "State": "IL"
  },
  {
    "Zip": 60656,
    "Center Name": "Harwood Heights",
    "State": "IL"
  },
  {
    "Zip": 60666,
    "Center Name": "Harwood Heights",
    "State": "IL"
  },
  {
    "Zip": 60706,
    "Center Name": "Harwood Heights",
    "State": "IL"
  },
  {
    "Zip": 11001,
    "Center Name": "Hempstead",
    "State": "NY"
  },
  {
    "Zip": 11003,
    "Center Name": "Hempstead",
    "State": "NY"
  },
  {
    "Zip": 11010,
    "Center Name": "Hempstead",
    "State": "NY"
  },
  {
    "Zip": 11040,
    "Center Name": "Hempstead",
    "State": "NY"
  },
  {
    "Zip": 11042,
    "Center Name": "Hempstead",
    "State": "NY"
  },
  {
    "Zip": 11426,
    "Center Name": "Hempstead",
    "State": "NY"
  },
  {
    "Zip": 11501,
    "Center Name": "Hempstead",
    "State": "NY"
  },
  {
    "Zip": 11507,
    "Center Name": "Hempstead",
    "State": "NY"
  },
  {
    "Zip": 11514,
    "Center Name": "Hempstead",
    "State": "NY"
  },
  {
    "Zip": 11530,
    "Center Name": "Hempstead",
    "State": "NY"
  },
  {
    "Zip": 11549,
    "Center Name": "Hempstead",
    "State": "NY"
  },
  {
    "Zip": 11550,
    "Center Name": "Hempstead",
    "State": "NY"
  },
  {
    "Zip": 11552,
    "Center Name": "Hempstead",
    "State": "NY"
  },
  {
    "Zip": 11553,
    "Center Name": "Hempstead",
    "State": "NY"
  },
  {
    "Zip": 11554,
    "Center Name": "Hempstead",
    "State": "NY"
  },
  {
    "Zip": 11556,
    "Center Name": "Hempstead",
    "State": "NY"
  },
  {
    "Zip": 11568,
    "Center Name": "Hempstead",
    "State": "NY"
  },
  {
    "Zip": 11576,
    "Center Name": "Hempstead",
    "State": "NY"
  },
  {
    "Zip": 11577,
    "Center Name": "Hempstead",
    "State": "NY"
  },
  {
    "Zip": 11580,
    "Center Name": "Hempstead",
    "State": "NY"
  },
  {
    "Zip": 11590,
    "Center Name": "Hempstead",
    "State": "NY"
  },
  {
    "Zip": 11596,
    "Center Name": "Hempstead",
    "State": "NY"
  },
  {
    "Zip": 11756,
    "Center Name": "Hempstead",
    "State": "NY"
  },
  {
    "Zip": 60171,
    "Center Name": "Hermosa",
    "State": "IL"
  },
  {
    "Zip": 60639,
    "Center Name": "Hermosa",
    "State": "IL"
  },
  {
    "Zip": 60647,
    "Center Name": "Hermosa",
    "State": "IL"
  },
  {
    "Zip": 60707,
    "Center Name": "Hermosa",
    "State": "IL"
  },
  {
    "Zip": 60160,
    "Center Name": "Hermosa",
    "State": "IL"
  },
  {
    "Zip": 60634,
    "Center Name": "Hermosa",
    "State": "IL"
  },
  {
    "Zip": 60305,
    "Center Name": "Hermosa",
    "State": "IL"
  },
  {
    "Zip": 60131,
    "Center Name": "Hermosa",
    "State": "IL"
  },
  {
    "Zip": 60165,
    "Center Name": "Hermosa",
    "State": "IL"
  },
  {
    "Zip": 60164,
    "Center Name": "Hermosa",
    "State": "IL"
  },
  {
    "Zip": 60153,
    "Center Name": "Hermosa",
    "State": "IL"
  },
  {
    "Zip": 60176,
    "Center Name": "Hermosa",
    "State": "IL"
  },
  {
    "Zip": 27260,
    "Center Name": "High Point",
    "State": "NC"
  },
  {
    "Zip": 27262,
    "Center Name": "High Point",
    "State": "NC"
  },
  {
    "Zip": 27263,
    "Center Name": "High Point",
    "State": "NC"
  },
  {
    "Zip": 27265,
    "Center Name": "High Point",
    "State": "NC"
  },
  {
    "Zip": 27282,
    "Center Name": "High Point",
    "State": "NC"
  },
  {
    "Zip": 27360,
    "Center Name": "High Point",
    "State": "NC"
  },
  {
    "Zip": 27370,
    "Center Name": "High Point",
    "State": "NC"
  },
  {
    "Zip": 75038,
    "Center Name": "Irving",
    "State": "TX"
  },
  {
    "Zip": 75039,
    "Center Name": "Irving",
    "State": "TX"
  },
  {
    "Zip": 75050,
    "Center Name": "Irving",
    "State": "TX"
  },
  {
    "Zip": 75051,
    "Center Name": "Irving",
    "State": "TX"
  },
  {
    "Zip": 75060,
    "Center Name": "Irving",
    "State": "TX"
  },
  {
    "Zip": 75061,
    "Center Name": "Irving",
    "State": "TX"
  },
  {
    "Zip": 75062,
    "Center Name": "Irving",
    "State": "TX"
  },
  {
    "Zip": 75203,
    "Center Name": "Irving",
    "State": "TX"
  },
  {
    "Zip": 75207,
    "Center Name": "Irving",
    "State": "TX"
  },
  {
    "Zip": 75208,
    "Center Name": "Irving",
    "State": "TX"
  },
  {
    "Zip": 75211,
    "Center Name": "Irving",
    "State": "TX"
  },
  {
    "Zip": 75212,
    "Center Name": "Irving",
    "State": "TX"
  },
  {
    "Zip": 75220,
    "Center Name": "Irving",
    "State": "TX"
  },
  {
    "Zip": 75224,
    "Center Name": "Irving",
    "State": "TX"
  },
  {
    "Zip": 75229,
    "Center Name": "Irving",
    "State": "TX"
  },
  {
    "Zip": 75233,
    "Center Name": "Irving",
    "State": "TX"
  },
  {
    "Zip": 75235,
    "Center Name": "Irving",
    "State": "TX"
  },
  {
    "Zip": 75236,
    "Center Name": "Irving",
    "State": "TX"
  },
  {
    "Zip": 75247,
    "Center Name": "Irving",
    "State": "TX"
  },
  {
    "Zip": 75261,
    "Center Name": "Irving",
    "State": "TX"
  },
  {
    "Zip": 76006,
    "Center Name": "Irving",
    "State": "TX"
  },
  {
    "Zip": 76021,
    "Center Name": "Irving",
    "State": "TX"
  },
  {
    "Zip": 76039,
    "Center Name": "Irving",
    "State": "TX"
  },
  {
    "Zip": 76040,
    "Center Name": "Irving",
    "State": "TX"
  },
  {
    "Zip": 76051,
    "Center Name": "Irving",
    "State": "TX"
  },
  {
    "Zip": 76155,
    "Center Name": "Irving",
    "State": "TX"
  },
  {
    "Zip": 46055,
    "Center Name": "Irvington",
    "State": "IN"
  },
  {
    "Zip": 46140,
    "Center Name": "Irvington",
    "State": "IN"
  },
  {
    "Zip": 46163,
    "Center Name": "Irvington",
    "State": "IN"
  },
  {
    "Zip": 46201,
    "Center Name": "Irvington",
    "State": "IN"
  },
  {
    "Zip": 46203,
    "Center Name": "Irvington",
    "State": "IN"
  },
  {
    "Zip": 46218,
    "Center Name": "Irvington",
    "State": "IN"
  },
  {
    "Zip": 46219,
    "Center Name": "Irvington",
    "State": "IN"
  },
  {
    "Zip": 46229,
    "Center Name": "Irvington",
    "State": "IN"
  },
  {
    "Zip": 46235,
    "Center Name": "Irvington",
    "State": "IN"
  },
  {
    "Zip": 46239,
    "Center Name": "Irvington",
    "State": "IN"
  },
  {
    "Zip": 11368,
    "Center Name": "Jackson Heights",
    "State": "NY"
  },
  {
    "Zip": 11369,
    "Center Name": "Jackson Heights",
    "State": "NY"
  },
  {
    "Zip": 11370,
    "Center Name": "Jackson Heights",
    "State": "NY"
  },
  {
    "Zip": 11371,
    "Center Name": "Jackson Heights",
    "State": "NY"
  },
  {
    "Zip": 11372,
    "Center Name": "Jackson Heights",
    "State": "NY"
  },
  {
    "Zip": 11373,
    "Center Name": "Jackson Heights",
    "State": "NY"
  },
  {
    "Zip": 11374,
    "Center Name": "Jackson Heights",
    "State": "NY"
  },
  {
    "Zip": 11377,
    "Center Name": "Jackson Heights",
    "State": "NY"
  },
  {
    "Zip": 39110,
    "Center Name": "Jackson North",
    "State": "MS"
  },
  {
    "Zip": 39157,
    "Center Name": "Jackson North",
    "State": "MS"
  },
  {
    "Zip": 39174,
    "Center Name": "Jackson North",
    "State": "MS"
  },
  {
    "Zip": 39202,
    "Center Name": "Jackson North",
    "State": "MS"
  },
  {
    "Zip": 39206,
    "Center Name": "Jackson North",
    "State": "MS"
  },
  {
    "Zip": 39209,
    "Center Name": "Jackson North",
    "State": "MS"
  },
  {
    "Zip": 39210,
    "Center Name": "Jackson North",
    "State": "MS"
  },
  {
    "Zip": 39211,
    "Center Name": "Jackson North",
    "State": "MS"
  },
  {
    "Zip": 39213,
    "Center Name": "Jackson North",
    "State": "MS"
  },
  {
    "Zip": 39216,
    "Center Name": "Jackson North",
    "State": "MS"
  },
  {
    "Zip": 39056,
    "Center Name": "Jackson West",
    "State": "MS"
  },
  {
    "Zip": 39058,
    "Center Name": "Jackson West",
    "State": "MS"
  },
  {
    "Zip": 39154,
    "Center Name": "Jackson West",
    "State": "MS"
  },
  {
    "Zip": 39201,
    "Center Name": "Jackson West",
    "State": "MS"
  },
  {
    "Zip": 39203,
    "Center Name": "Jackson West",
    "State": "MS"
  },
  {
    "Zip": 39204,
    "Center Name": "Jackson West",
    "State": "MS"
  },
  {
    "Zip": 39208,
    "Center Name": "Jackson West",
    "State": "MS"
  },
  {
    "Zip": 39212,
    "Center Name": "Jackson West",
    "State": "MS"
  },
  {
    "Zip": 39217,
    "Center Name": "Jackson West",
    "State": "MS"
  },
  {
    "Zip": 39218,
    "Center Name": "Jackson West",
    "State": "MS"
  },
  {
    "Zip": 39232,
    "Center Name": "Jackson West",
    "State": "MS"
  },
  {
    "Zip": 39272,
    "Center Name": "Jackson West",
    "State": "MS"
  },
  {
    "Zip": 11366,
    "Center Name": "Jamaica",
    "State": "NY"
  },
  {
    "Zip": 11367,
    "Center Name": "Jamaica",
    "State": "NY"
  },
  {
    "Zip": 11375,
    "Center Name": "Jamaica",
    "State": "NY"
  },
  {
    "Zip": 11415,
    "Center Name": "Jamaica",
    "State": "NY"
  },
  {
    "Zip": 11418,
    "Center Name": "Jamaica",
    "State": "NY"
  },
  {
    "Zip": 11419,
    "Center Name": "Jamaica",
    "State": "NY"
  },
  {
    "Zip": 11432,
    "Center Name": "Jamaica",
    "State": "NY"
  },
  {
    "Zip": 11435,
    "Center Name": "Jamaica",
    "State": "NY"
  },
  {
    "Zip": 11439,
    "Center Name": "Jamaica",
    "State": "NY"
  },
  {
    "Zip": 48205,
    "Center Name": "Jefferson Village",
    "State": "MI"
  },
  {
    "Zip": 48212,
    "Center Name": "Jefferson Village",
    "State": "MI"
  },
  {
    "Zip": 48213,
    "Center Name": "Jefferson Village",
    "State": "MI"
  },
  {
    "Zip": 48214,
    "Center Name": "Jefferson Village",
    "State": "MI"
  },
  {
    "Zip": 48215,
    "Center Name": "Jefferson Village",
    "State": "MI"
  },
  {
    "Zip": 48224,
    "Center Name": "Jefferson Village",
    "State": "MI"
  },
  {
    "Zip": 48225,
    "Center Name": "Jefferson Village",
    "State": "MI"
  },
  {
    "Zip": 48230,
    "Center Name": "Jefferson Village",
    "State": "MI"
  },
  {
    "Zip": 48234,
    "Center Name": "Jefferson Village",
    "State": "MI"
  },
  {
    "Zip": 48236,
    "Center Name": "Jefferson Village",
    "State": "MI"
  },
  {
    "Zip": 40222,
    "Center Name": "Jeffersonville",
    "State": "IN"
  },
  {
    "Zip": 47111,
    "Center Name": "Jeffersonville",
    "State": "IN"
  },
  {
    "Zip": 47129,
    "Center Name": "Jeffersonville",
    "State": "IN"
  },
  {
    "Zip": 47130,
    "Center Name": "Jeffersonville",
    "State": "IN"
  },
  {
    "Zip": 47150,
    "Center Name": "Jeffersonville",
    "State": "IN"
  },
  {
    "Zip": 47172,
    "Center Name": "Jeffersonville",
    "State": "IN"
  },
  {
    "Zip": 63074,
    "Center Name": "Jennings",
    "State": "MO"
  },
  {
    "Zip": 63121,
    "Center Name": "Jennings",
    "State": "MO"
  },
  {
    "Zip": 63134,
    "Center Name": "Jennings",
    "State": "MO"
  },
  {
    "Zip": 63135,
    "Center Name": "Jennings",
    "State": "MO"
  },
  {
    "Zip": 63136,
    "Center Name": "Jennings",
    "State": "MO"
  },
  {
    "Zip": 63137,
    "Center Name": "Jennings",
    "State": "MO"
  },
  {
    "Zip": 63138,
    "Center Name": "Jennings",
    "State": "MO"
  },
  {
    "Zip": 63140,
    "Center Name": "Jennings",
    "State": "MO"
  },
  {
    "Zip": 60410,
    "Center Name": "Joliet - Main",
    "State": "IL"
  },
  {
    "Zip": 60421,
    "Center Name": "Joliet - Main",
    "State": "IL"
  },
  {
    "Zip": 60432,
    "Center Name": "Joliet - Main",
    "State": "IL"
  },
  {
    "Zip": 60433,
    "Center Name": "Joliet - Main",
    "State": "IL"
  },
  {
    "Zip": 60436,
    "Center Name": "Joliet - Main",
    "State": "IL"
  },
  {
    "Zip": 60442,
    "Center Name": "Joliet - Main",
    "State": "IL"
  },
  {
    "Zip": 60451,
    "Center Name": "Joliet - Main",
    "State": "IL"
  },
  {
    "Zip": 60403,
    "Center Name": "Joliet - West",
    "State": "IL"
  },
  {
    "Zip": 60404,
    "Center Name": "Joliet - West",
    "State": "IL"
  },
  {
    "Zip": 60431,
    "Center Name": "Joliet - West",
    "State": "IL"
  },
  {
    "Zip": 60435,
    "Center Name": "Joliet - West",
    "State": "IL"
  },
  {
    "Zip": 60441,
    "Center Name": "Joliet - West",
    "State": "IL"
  },
  {
    "Zip": 60446,
    "Center Name": "Joliet - West",
    "State": "IL"
  },
  {
    "Zip": 60544,
    "Center Name": "Joliet - West",
    "State": "IL"
  },
  {
    "Zip": 60586,
    "Center Name": "Joliet - West",
    "State": "IL"
  },
  {
    "Zip": 50320,
    "Center Name": "Jordan Park",
    "State": "IA"
  },
  {
    "Zip": 50315,
    "Center Name": "Jordan Park",
    "State": "IA"
  },
  {
    "Zip": 50395,
    "Center Name": "Jordan Park",
    "State": "IA"
  },
  {
    "Zip": 50309,
    "Center Name": "Jordan Park",
    "State": "IA"
  },
  {
    "Zip": 50307,
    "Center Name": "Jordan Park",
    "State": "IA"
  },
  {
    "Zip": 50982,
    "Center Name": "Jordan Park",
    "State": "IA"
  },
  {
    "Zip": 50327,
    "Center Name": "Jordan Park",
    "State": "IA"
  },
  {
    "Zip": 49001,
    "Center Name": "Kalamazoo",
    "State": "MI"
  },
  {
    "Zip": 49002,
    "Center Name": "Kalamazoo",
    "State": "MI"
  },
  {
    "Zip": 49004,
    "Center Name": "Kalamazoo",
    "State": "MI"
  },
  {
    "Zip": 49006,
    "Center Name": "Kalamazoo",
    "State": "MI"
  },
  {
    "Zip": 49007,
    "Center Name": "Kalamazoo",
    "State": "MI"
  },
  {
    "Zip": 49008,
    "Center Name": "Kalamazoo",
    "State": "MI"
  },
  {
    "Zip": 49009,
    "Center Name": "Kalamazoo",
    "State": "MI"
  },
  {
    "Zip": 49024,
    "Center Name": "Kalamazoo",
    "State": "MI"
  },
  {
    "Zip": 49048,
    "Center Name": "Kalamazoo",
    "State": "MI"
  },
  {
    "Zip": 72124,
    "Center Name": "Lakewood",
    "State": "AR"
  },
  {
    "Zip": 72115,
    "Center Name": "Lakewood",
    "State": "AR"
  },
  {
    "Zip": 72190,
    "Center Name": "Lakewood",
    "State": "AR"
  },
  {
    "Zip": 72114,
    "Center Name": "Lakewood",
    "State": "AR"
  },
  {
    "Zip": 72119,
    "Center Name": "Lakewood",
    "State": "AR"
  },
  {
    "Zip": 72292,
    "Center Name": "Lakewood",
    "State": "AR"
  },
  {
    "Zip": 72292,
    "Center Name": "Lakewood",
    "State": "AR"
  },
  {
    "Zip": 72222,
    "Center Name": "Lakewood",
    "State": "AR"
  },
  {
    "Zip": 72260,
    "Center Name": "Lakewood",
    "State": "AR"
  },
  {
    "Zip": 72231,
    "Center Name": "Lakewood",
    "State": "AR"
  },
  {
    "Zip": 72201,
    "Center Name": "Lakewood",
    "State": "AR"
  },
  {
    "Zip": 72203,
    "Center Name": "Lakewood",
    "State": "AR"
  },
  {
    "Zip": 72225,
    "Center Name": "Lakewood",
    "State": "AR"
  },
  {
    "Zip": 72221,
    "Center Name": "Lakewood",
    "State": "AR"
  },
  {
    "Zip": 72219,
    "Center Name": "Lakewood",
    "State": "AR"
  },
  {
    "Zip": 72217,
    "Center Name": "Lakewood",
    "State": "AR"
  },
  {
    "Zip": 72216,
    "Center Name": "Lakewood",
    "State": "AR"
  },
  {
    "Zip": 72215,
    "Center Name": "Lakewood",
    "State": "AR"
  },
  {
    "Zip": 72214,
    "Center Name": "Lakewood",
    "State": "AR"
  },
  {
    "Zip": 72295,
    "Center Name": "Lakewood",
    "State": "AR"
  },
  {
    "Zip": 17505,
    "Center Name": "Lancaster",
    "State": "PA"
  },
  {
    "Zip": 17508,
    "Center Name": "Lancaster",
    "State": "PA"
  },
  {
    "Zip": 17520,
    "Center Name": "Lancaster",
    "State": "PA"
  },
  {
    "Zip": 17522,
    "Center Name": "Lancaster",
    "State": "PA"
  },
  {
    "Zip": 17538,
    "Center Name": "Lancaster",
    "State": "PA"
  },
  {
    "Zip": 17540,
    "Center Name": "Lancaster",
    "State": "PA"
  },
  {
    "Zip": 17543,
    "Center Name": "Lancaster",
    "State": "PA"
  },
  {
    "Zip": 17545,
    "Center Name": "Lancaster",
    "State": "PA"
  },
  {
    "Zip": 17554,
    "Center Name": "Lancaster",
    "State": "PA"
  },
  {
    "Zip": 17572,
    "Center Name": "Lancaster",
    "State": "PA"
  },
  {
    "Zip": 17576,
    "Center Name": "Lancaster",
    "State": "PA"
  },
  {
    "Zip": 17579,
    "Center Name": "Lancaster",
    "State": "PA"
  },
  {
    "Zip": 17584,
    "Center Name": "Lancaster",
    "State": "PA"
  },
  {
    "Zip": 17601,
    "Center Name": "Lancaster",
    "State": "PA"
  },
  {
    "Zip": 17602,
    "Center Name": "Lancaster",
    "State": "PA"
  },
  {
    "Zip": 17603,
    "Center Name": "Lancaster",
    "State": "PA"
  },
  {
    "Zip": 46530,
    "Center Name": "Lasalle Park",
    "State": "IN"
  },
  {
    "Zip": 46544,
    "Center Name": "Lasalle Park",
    "State": "IN"
  },
  {
    "Zip": 46545,
    "Center Name": "Lasalle Park",
    "State": "IN"
  },
  {
    "Zip": 46554,
    "Center Name": "Lasalle Park",
    "State": "IN"
  },
  {
    "Zip": 46556,
    "Center Name": "Lasalle Park",
    "State": "IN"
  },
  {
    "Zip": 46601,
    "Center Name": "Lasalle Park",
    "State": "IN"
  },
  {
    "Zip": 46613,
    "Center Name": "Lasalle Park",
    "State": "IN"
  },
  {
    "Zip": 46614,
    "Center Name": "Lasalle Park",
    "State": "IN"
  },
  {
    "Zip": 46615,
    "Center Name": "Lasalle Park",
    "State": "IN"
  },
  {
    "Zip": 46616,
    "Center Name": "Lasalle Park",
    "State": "IN"
  },
  {
    "Zip": 46617,
    "Center Name": "Lasalle Park",
    "State": "IN"
  },
  {
    "Zip": 46619,
    "Center Name": "Lasalle Park",
    "State": "IN"
  },
  {
    "Zip": 46628,
    "Center Name": "Lasalle Park",
    "State": "IN"
  },
  {
    "Zip": 46635,
    "Center Name": "Lasalle Park",
    "State": "IN"
  },
  {
    "Zip": 46637,
    "Center Name": "Lasalle Park",
    "State": "IN"
  },
  {
    "Zip": 44122,
    "Center Name": "Lee Harvard",
    "State": "OH"
  },
  {
    "Zip": 44124,
    "Center Name": "Lee Harvard",
    "State": "OH"
  },
  {
    "Zip": 44128,
    "Center Name": "Lee Harvard",
    "State": "OH"
  },
  {
    "Zip": 44137,
    "Center Name": "Lee Harvard",
    "State": "OH"
  },
  {
    "Zip": 44146,
    "Center Name": "Lee Harvard",
    "State": "OH"
  },
  {
    "Zip": 40361,
    "Center Name": "Legends Lane",
    "State": "KY"
  },
  {
    "Zip": 40502,
    "Center Name": "Legends Lane",
    "State": "KY"
  },
  {
    "Zip": 40503,
    "Center Name": "Legends Lane",
    "State": "KY"
  },
  {
    "Zip": 40504,
    "Center Name": "Legends Lane",
    "State": "KY"
  },
  {
    "Zip": 40505,
    "Center Name": "Legends Lane",
    "State": "KY"
  },
  {
    "Zip": 40506,
    "Center Name": "Legends Lane",
    "State": "KY"
  },
  {
    "Zip": 40507,
    "Center Name": "Legends Lane",
    "State": "KY"
  },
  {
    "Zip": 40508,
    "Center Name": "Legends Lane",
    "State": "KY"
  },
  {
    "Zip": 40509,
    "Center Name": "Legends Lane",
    "State": "KY"
  },
  {
    "Zip": 40510,
    "Center Name": "Legends Lane",
    "State": "KY"
  },
  {
    "Zip": 40511,
    "Center Name": "Legends Lane",
    "State": "KY"
  },
  {
    "Zip": 40513,
    "Center Name": "Legends Lane",
    "State": "KY"
  },
  {
    "Zip": 40515,
    "Center Name": "Legends Lane",
    "State": "KY"
  },
  {
    "Zip": 40516,
    "Center Name": "Legends Lane",
    "State": "KY"
  },
  {
    "Zip": 40517,
    "Center Name": "Legends Lane",
    "State": "KY"
  },
  {
    "Zip": 40526,
    "Center Name": "Legends Lane",
    "State": "KY"
  },
  {
    "Zip": 60411,
    "Center Name": "Lincoln Crossing",
    "State": "IL"
  },
  {
    "Zip": 60417,
    "Center Name": "Lincoln Crossing",
    "State": "IL"
  },
  {
    "Zip": 60422,
    "Center Name": "Lincoln Crossing",
    "State": "IL"
  },
  {
    "Zip": 60425,
    "Center Name": "Lincoln Crossing",
    "State": "IL"
  },
  {
    "Zip": 60430,
    "Center Name": "Lincoln Crossing",
    "State": "IL"
  },
  {
    "Zip": 60443,
    "Center Name": "Lincoln Crossing",
    "State": "IL"
  },
  {
    "Zip": 60449,
    "Center Name": "Lincoln Crossing",
    "State": "IL"
  },
  {
    "Zip": 60461,
    "Center Name": "Lincoln Crossing",
    "State": "IL"
  },
  {
    "Zip": 60466,
    "Center Name": "Lincoln Crossing",
    "State": "IL"
  },
  {
    "Zip": 60471,
    "Center Name": "Lincoln Crossing",
    "State": "IL"
  },
  {
    "Zip": 60475,
    "Center Name": "Lincoln Crossing",
    "State": "IL"
  },
  {
    "Zip": 60478,
    "Center Name": "Lincoln Crossing",
    "State": "IL"
  },
  {
    "Zip": 60484,
    "Center Name": "Lincoln Crossing",
    "State": "IL"
  },
  {
    "Zip": 60608,
    "Center Name": "Little Village",
    "State": "IL"
  },
  {
    "Zip": 60623,
    "Center Name": "Little Village",
    "State": "IL"
  },
  {
    "Zip": 60695,
    "Center Name": "Little Village",
    "State": "IL"
  },
  {
    "Zip": 60699,
    "Center Name": "Little Village",
    "State": "IL"
  },
  {
    "Zip": 60697,
    "Center Name": "Little Village",
    "State": "IL"
  },
  {
    "Zip": 60696,
    "Center Name": "Little Village",
    "State": "IL"
  },
  {
    "Zip": 60694,
    "Center Name": "Little Village",
    "State": "IL"
  },
  {
    "Zip": 60693,
    "Center Name": "Little Village",
    "State": "IL"
  },
  {
    "Zip": 60688,
    "Center Name": "Little Village",
    "State": "IL"
  },
  {
    "Zip": 60687,
    "Center Name": "Little Village",
    "State": "IL"
  },
  {
    "Zip": 60686,
    "Center Name": "Little Village",
    "State": "IL"
  },
  {
    "Zip": 60685,
    "Center Name": "Little Village",
    "State": "IL"
  },
  {
    "Zip": 60684,
    "Center Name": "Little Village",
    "State": "IL"
  },
  {
    "Zip": 60678,
    "Center Name": "Little Village",
    "State": "IL"
  },
  {
    "Zip": 60677,
    "Center Name": "Little Village",
    "State": "IL"
  },
  {
    "Zip": 60675,
    "Center Name": "Little Village",
    "State": "IL"
  },
  {
    "Zip": 60673,
    "Center Name": "Little Village",
    "State": "IL"
  },
  {
    "Zip": 60670,
    "Center Name": "Little Village",
    "State": "IL"
  },
  {
    "Zip": 60669,
    "Center Name": "Little Village",
    "State": "IL"
  },
  {
    "Zip": 60668,
    "Center Name": "Little Village",
    "State": "IL"
  },
  {
    "Zip": 60701,
    "Center Name": "Little Village",
    "State": "IL"
  },
  {
    "Zip": 75601,
    "Center Name": "Longview",
    "State": "TX"
  },
  {
    "Zip": 75602,
    "Center Name": "Longview",
    "State": "TX"
  },
  {
    "Zip": 75603,
    "Center Name": "Longview",
    "State": "TX"
  },
  {
    "Zip": 75604,
    "Center Name": "Longview",
    "State": "TX"
  },
  {
    "Zip": 75605,
    "Center Name": "Longview",
    "State": "TX"
  },
  {
    "Zip": 75650,
    "Center Name": "Longview",
    "State": "TX"
  },
  {
    "Zip": 75693,
    "Center Name": "Longview",
    "State": "TX"
  },
  {
    "Zip": 60607,
    "Center Name": "Madison St",
    "State": "IL"
  },
  {
    "Zip": 60610,
    "Center Name": "Madison St",
    "State": "IL"
  },
  {
    "Zip": 60612,
    "Center Name": "Madison St",
    "State": "IL"
  },
  {
    "Zip": 60622,
    "Center Name": "Madison St",
    "State": "IL"
  },
  {
    "Zip": 60624,
    "Center Name": "Madison St",
    "State": "IL"
  },
  {
    "Zip": 60642,
    "Center Name": "Madison St",
    "State": "IL"
  },
  {
    "Zip": 60651,
    "Center Name": "Madison St",
    "State": "IL"
  },
  {
    "Zip": 60654,
    "Center Name": "Madison St",
    "State": "IL"
  },
  {
    "Zip": 60661,
    "Center Name": "Madison St",
    "State": "IL"
  },
  {
    "Zip": 30008,
    "Center Name": "Marietta",
    "State": "GA"
  },
  {
    "Zip": 30060,
    "Center Name": "Marietta",
    "State": "GA"
  },
  {
    "Zip": 30062,
    "Center Name": "Marietta",
    "State": "GA"
  },
  {
    "Zip": 30064,
    "Center Name": "Marietta",
    "State": "GA"
  },
  {
    "Zip": 30066,
    "Center Name": "Marietta",
    "State": "GA"
  },
  {
    "Zip": 30067,
    "Center Name": "Marietta",
    "State": "GA"
  },
  {
    "Zip": 30068,
    "Center Name": "Marietta",
    "State": "GA"
  },
  {
    "Zip": 30069,
    "Center Name": "Marietta",
    "State": "GA"
  },
  {
    "Zip": 30080,
    "Center Name": "Marietta",
    "State": "GA"
  },
  {
    "Zip": 30082,
    "Center Name": "Marietta",
    "State": "GA"
  },
  {
    "Zip": 30106,
    "Center Name": "Marietta",
    "State": "GA"
  },
  {
    "Zip": 30127,
    "Center Name": "Marietta",
    "State": "GA"
  },
  {
    "Zip": 30144,
    "Center Name": "Marietta",
    "State": "GA"
  },
  {
    "Zip": 30152,
    "Center Name": "Marietta",
    "State": "GA"
  },
  {
    "Zip": 76102,
    "Center Name": "Meadowbrook",
    "State": "TX"
  },
  {
    "Zip": 76103,
    "Center Name": "Meadowbrook",
    "State": "TX"
  },
  {
    "Zip": 76104,
    "Center Name": "Meadowbrook",
    "State": "TX"
  },
  {
    "Zip": 76105,
    "Center Name": "Meadowbrook",
    "State": "TX"
  },
  {
    "Zip": 76112,
    "Center Name": "Meadowbrook",
    "State": "TX"
  },
  {
    "Zip": 76119,
    "Center Name": "Meadowbrook",
    "State": "TX"
  },
  {
    "Zip": 76120,
    "Center Name": "Meadowbrook",
    "State": "TX"
  },
  {
    "Zip": 76134,
    "Center Name": "Meadowbrook",
    "State": "TX"
  },
  {
    "Zip": 76140,
    "Center Name": "Meadowbrook",
    "State": "TX"
  },
  {
    "Zip": 75126,
    "Center Name": "Mesquite",
    "State": "TX"
  },
  {
    "Zip": 75149,
    "Center Name": "Mesquite",
    "State": "TX"
  },
  {
    "Zip": 75150,
    "Center Name": "Mesquite",
    "State": "TX"
  },
  {
    "Zip": 75181,
    "Center Name": "Mesquite",
    "State": "TX"
  },
  {
    "Zip": 75182,
    "Center Name": "Mesquite",
    "State": "TX"
  },
  {
    "Zip": 70001,
    "Center Name": "Metairie",
    "State": "LA"
  },
  {
    "Zip": 70002,
    "Center Name": "Metairie",
    "State": "LA"
  },
  {
    "Zip": 70003,
    "Center Name": "Metairie",
    "State": "LA"
  },
  {
    "Zip": 70005,
    "Center Name": "Metairie",
    "State": "LA"
  },
  {
    "Zip": 70006,
    "Center Name": "Metairie",
    "State": "LA"
  },
  {
    "Zip": 70062,
    "Center Name": "Metairie",
    "State": "LA"
  },
  {
    "Zip": 70065,
    "Center Name": "Metairie",
    "State": "LA"
  },
  {
    "Zip": 70121,
    "Center Name": "Metairie",
    "State": "LA"
  },
  {
    "Zip": 70123,
    "Center Name": "Metairie",
    "State": "LA"
  },
  {
    "Zip": 70124,
    "Center Name": "Metairie",
    "State": "LA"
  },
  {
    "Zip": 70454,
    "Center Name": "Metairie",
    "State": "LA"
  },
  {
    "Zip": 46304,
    "Center Name": "Midtown",
    "State": "IN"
  },
  {
    "Zip": 46368,
    "Center Name": "Midtown",
    "State": "IN"
  },
  {
    "Zip": 46391,
    "Center Name": "Midtown",
    "State": "IN"
  },
  {
    "Zip": 46360,
    "Center Name": "Midtown",
    "State": "IN"
  },
  {
    "Zip": 73020,
    "Center Name": "Midwest City",
    "State": "OK"
  },
  {
    "Zip": 73045,
    "Center Name": "Midwest City",
    "State": "OK"
  },
  {
    "Zip": 73049,
    "Center Name": "Midwest City",
    "State": "OK"
  },
  {
    "Zip": 73084,
    "Center Name": "Midwest City",
    "State": "OK"
  },
  {
    "Zip": 73110,
    "Center Name": "Midwest City",
    "State": "OK"
  },
  {
    "Zip": 73115,
    "Center Name": "Midwest City",
    "State": "OK"
  },
  {
    "Zip": 73129,
    "Center Name": "Midwest City",
    "State": "OK"
  },
  {
    "Zip": 73130,
    "Center Name": "Midwest City",
    "State": "OK"
  },
  {
    "Zip": 73135,
    "Center Name": "Midwest City",
    "State": "OK"
  },
  {
    "Zip": 73145,
    "Center Name": "Midwest City",
    "State": "OK"
  },
  {
    "Zip": 73149,
    "Center Name": "Midwest City",
    "State": "OK"
  },
  {
    "Zip": 73150,
    "Center Name": "Midwest City",
    "State": "OK"
  },
  {
    "Zip": 73165,
    "Center Name": "Midwest City",
    "State": "OK"
  },
  {
    "Zip": 74801,
    "Center Name": "Midwest City",
    "State": "OK"
  },
  {
    "Zip": 74804,
    "Center Name": "Midwest City",
    "State": "OK"
  },
  {
    "Zip": 74851,
    "Center Name": "Midwest City",
    "State": "OK"
  },
  {
    "Zip": 74855,
    "Center Name": "Midwest City",
    "State": "OK"
  },
  {
    "Zip": 74857,
    "Center Name": "Midwest City",
    "State": "OK"
  },
  {
    "Zip": 46530,
    "Center Name": "Mishawaka",
    "State": "IN"
  },
  {
    "Zip": 46544,
    "Center Name": "Mishawaka",
    "State": "IN"
  },
  {
    "Zip": 46545,
    "Center Name": "Mishawaka",
    "State": "IN"
  },
  {
    "Zip": 46561,
    "Center Name": "Mishawaka",
    "State": "IN"
  },
  {
    "Zip": 77036,
    "Center Name": "Mission Bend",
    "State": "TX"
  },
  {
    "Zip": 77042,
    "Center Name": "Mission Bend",
    "State": "TX"
  },
  {
    "Zip": 77063,
    "Center Name": "Mission Bend",
    "State": "TX"
  },
  {
    "Zip": 77072,
    "Center Name": "Mission Bend",
    "State": "TX"
  },
  {
    "Zip": 77077,
    "Center Name": "Mission Bend",
    "State": "TX"
  },
  {
    "Zip": 77082,
    "Center Name": "Mission Bend",
    "State": "TX"
  },
  {
    "Zip": 77083,
    "Center Name": "Mission Bend",
    "State": "TX"
  },
  {
    "Zip": 77094,
    "Center Name": "Mission Bend",
    "State": "TX"
  },
  {
    "Zip": 77099,
    "Center Name": "Mission Bend",
    "State": "TX"
  },
  {
    "Zip": 77406,
    "Center Name": "Mission Bend",
    "State": "TX"
  },
  {
    "Zip": 77407,
    "Center Name": "Mission Bend",
    "State": "TX"
  },
  {
    "Zip": 77450,
    "Center Name": "Mission Bend",
    "State": "TX"
  },
  {
    "Zip": 77478,
    "Center Name": "Mission Bend",
    "State": "TX"
  },
  {
    "Zip": 77498,
    "Center Name": "Mission Bend",
    "State": "TX"
  },
  {
    "Zip": 36602,
    "Center Name": "Mobile",
    "State": "AL"
  },
  {
    "Zip": 36603,
    "Center Name": "Mobile",
    "State": "AL"
  },
  {
    "Zip": 36604,
    "Center Name": "Mobile",
    "State": "AL"
  },
  {
    "Zip": 36605,
    "Center Name": "Mobile",
    "State": "AL"
  },
  {
    "Zip": 36606,
    "Center Name": "Mobile",
    "State": "AL"
  },
  {
    "Zip": 36607,
    "Center Name": "Mobile",
    "State": "AL"
  },
  {
    "Zip": 36608,
    "Center Name": "Mobile",
    "State": "AL"
  },
  {
    "Zip": 36609,
    "Center Name": "Mobile",
    "State": "AL"
  },
  {
    "Zip": 36610,
    "Center Name": "Mobile",
    "State": "AL"
  },
  {
    "Zip": 36611,
    "Center Name": "Mobile",
    "State": "AL"
  },
  {
    "Zip": 36612,
    "Center Name": "Mobile",
    "State": "AL"
  },
  {
    "Zip": 36613,
    "Center Name": "Mobile",
    "State": "AL"
  },
  {
    "Zip": 36615,
    "Center Name": "Mobile",
    "State": "AL"
  },
  {
    "Zip": 36617,
    "Center Name": "Mobile",
    "State": "AL"
  },
  {
    "Zip": 36618,
    "Center Name": "Mobile",
    "State": "AL"
  },
  {
    "Zip": 36619,
    "Center Name": "Mobile",
    "State": "AL"
  },
  {
    "Zip": 36688,
    "Center Name": "Mobile",
    "State": "AL"
  },
  {
    "Zip": 36693,
    "Center Name": "Mobile",
    "State": "AL"
  },
  {
    "Zip": 36695,
    "Center Name": "Mobile",
    "State": "AL"
  },
  {
    "Zip": 30288,
    "Center Name": "Moreland",
    "State": "GA"
  },
  {
    "Zip": 30306,
    "Center Name": "Moreland",
    "State": "GA"
  },
  {
    "Zip": 30307,
    "Center Name": "Moreland",
    "State": "GA"
  },
  {
    "Zip": 30312,
    "Center Name": "Moreland",
    "State": "GA"
  },
  {
    "Zip": 30315,
    "Center Name": "Moreland",
    "State": "GA"
  },
  {
    "Zip": 30316,
    "Center Name": "Moreland",
    "State": "GA"
  },
  {
    "Zip": 30317,
    "Center Name": "Moreland",
    "State": "GA"
  },
  {
    "Zip": 30354,
    "Center Name": "Moreland",
    "State": "GA"
  },
  {
    "Zip": 44103,
    "Center Name": "Morgana Park",
    "State": "OH"
  },
  {
    "Zip": 44104,
    "Center Name": "Morgana Park",
    "State": "OH"
  },
  {
    "Zip": 44105,
    "Center Name": "Morgana Park",
    "State": "OH"
  },
  {
    "Zip": 44106,
    "Center Name": "Morgana Park",
    "State": "OH"
  },
  {
    "Zip": 44114,
    "Center Name": "Morgana Park",
    "State": "OH"
  },
  {
    "Zip": 44115,
    "Center Name": "Morgana Park",
    "State": "OH"
  },
  {
    "Zip": 44120,
    "Center Name": "Morgana Park",
    "State": "OH"
  },
  {
    "Zip": 44125,
    "Center Name": "Morgana Park",
    "State": "OH"
  },
  {
    "Zip": 44127,
    "Center Name": "Morgana Park",
    "State": "OH"
  },
  {
    "Zip": 44131,
    "Center Name": "Morgana Park",
    "State": "OH"
  },
  {
    "Zip": 63101,
    "Center Name": "North City",
    "State": "MO"
  },
  {
    "Zip": 63102,
    "Center Name": "North City",
    "State": "MO"
  },
  {
    "Zip": 63103,
    "Center Name": "North City",
    "State": "MO"
  },
  {
    "Zip": 63105,
    "Center Name": "North City",
    "State": "MO"
  },
  {
    "Zip": 63106,
    "Center Name": "North City",
    "State": "MO"
  },
  {
    "Zip": 63107,
    "Center Name": "North City",
    "State": "MO"
  },
  {
    "Zip": 63108,
    "Center Name": "North City",
    "State": "MO"
  },
  {
    "Zip": 63112,
    "Center Name": "North City",
    "State": "MO"
  },
  {
    "Zip": 63113,
    "Center Name": "North City",
    "State": "MO"
  },
  {
    "Zip": 63114,
    "Center Name": "North City",
    "State": "MO"
  },
  {
    "Zip": 63115,
    "Center Name": "North City",
    "State": "MO"
  },
  {
    "Zip": 63117,
    "Center Name": "North City",
    "State": "MO"
  },
  {
    "Zip": 63120,
    "Center Name": "North City",
    "State": "MO"
  },
  {
    "Zip": 63124,
    "Center Name": "North City",
    "State": "MO"
  },
  {
    "Zip": 63130,
    "Center Name": "North City",
    "State": "MO"
  },
  {
    "Zip": 63132,
    "Center Name": "North City",
    "State": "MO"
  },
  {
    "Zip": 63133,
    "Center Name": "North City",
    "State": "MO"
  },
  {
    "Zip": 63147,
    "Center Name": "North City",
    "State": "MO"
  },
  {
    "Zip": 28301,
    "Center Name": "North Fayetteville",
    "State": "NC"
  },
  {
    "Zip": 28303,
    "Center Name": "North Fayetteville",
    "State": "NC"
  },
  {
    "Zip": 28304,
    "Center Name": "North Fayetteville",
    "State": "NC"
  },
  {
    "Zip": 28305,
    "Center Name": "North Fayetteville",
    "State": "NC"
  },
  {
    "Zip": 28306,
    "Center Name": "North Fayetteville",
    "State": "NC"
  },
  {
    "Zip": 28307,
    "Center Name": "North Fayetteville",
    "State": "NC"
  },
  {
    "Zip": 28310,
    "Center Name": "North Fayetteville",
    "State": "NC"
  },
  {
    "Zip": 28311,
    "Center Name": "North Fayetteville",
    "State": "NC"
  },
  {
    "Zip": 28312,
    "Center Name": "North Fayetteville",
    "State": "NC"
  },
  {
    "Zip": 28314,
    "Center Name": "North Fayetteville",
    "State": "NC"
  },
  {
    "Zip": 28348,
    "Center Name": "North Fayetteville",
    "State": "NC"
  },
  {
    "Zip": 28390,
    "Center Name": "North Fayetteville",
    "State": "NC"
  },
  {
    "Zip": 28395,
    "Center Name": "North Fayetteville",
    "State": "NC"
  },
  {
    "Zip": 48420,
    "Center Name": "North Flint",
    "State": "MI"
  },
  {
    "Zip": 48433,
    "Center Name": "North Flint",
    "State": "MI"
  },
  {
    "Zip": 48458,
    "Center Name": "North Flint",
    "State": "MI"
  },
  {
    "Zip": 48502,
    "Center Name": "North Flint",
    "State": "MI"
  },
  {
    "Zip": 48503,
    "Center Name": "North Flint",
    "State": "MI"
  },
  {
    "Zip": 48504,
    "Center Name": "North Flint",
    "State": "MI"
  },
  {
    "Zip": 48505,
    "Center Name": "North Flint",
    "State": "MI"
  },
  {
    "Zip": 48506,
    "Center Name": "North Flint",
    "State": "MI"
  },
  {
    "Zip": 48532,
    "Center Name": "North Flint",
    "State": "MI"
  },
  {
    "Zip": 27587,
    "Center Name": "Northeast Raleigh",
    "State": "NC"
  },
  {
    "Zip": 27604,
    "Center Name": "Northeast Raleigh",
    "State": "NC"
  },
  {
    "Zip": 27609,
    "Center Name": "Northeast Raleigh",
    "State": "NC"
  },
  {
    "Zip": 27612,
    "Center Name": "Northeast Raleigh",
    "State": "NC"
  },
  {
    "Zip": 27613,
    "Center Name": "Northeast Raleigh",
    "State": "NC"
  },
  {
    "Zip": 27614,
    "Center Name": "Northeast Raleigh",
    "State": "NC"
  },
  {
    "Zip": 27615,
    "Center Name": "Northeast Raleigh",
    "State": "NC"
  },
  {
    "Zip": 27616,
    "Center Name": "Northeast Raleigh",
    "State": "NC"
  },
  {
    "Zip": 77013,
    "Center Name": "Northshore",
    "State": "TX"
  },
  {
    "Zip": 77015,
    "Center Name": "Northshore",
    "State": "TX"
  },
  {
    "Zip": 77028,
    "Center Name": "Northshore",
    "State": "TX"
  },
  {
    "Zip": 77029,
    "Center Name": "Northshore",
    "State": "TX"
  },
  {
    "Zip": 77049,
    "Center Name": "Northshore",
    "State": "TX"
  },
  {
    "Zip": 77506,
    "Center Name": "Northshore",
    "State": "TX"
  },
  {
    "Zip": 77520,
    "Center Name": "Northshore",
    "State": "TX"
  },
  {
    "Zip": 77521,
    "Center Name": "Northshore",
    "State": "TX"
  },
  {
    "Zip": 77523,
    "Center Name": "Northshore",
    "State": "TX"
  },
  {
    "Zip": 77530,
    "Center Name": "Northshore",
    "State": "TX"
  },
  {
    "Zip": 77536,
    "Center Name": "Northshore",
    "State": "TX"
  },
  {
    "Zip": 77547,
    "Center Name": "Northshore",
    "State": "TX"
  },
  {
    "Zip": 77562,
    "Center Name": "Northshore",
    "State": "TX"
  },
  {
    "Zip": 77571,
    "Center Name": "Northshore",
    "State": "TX"
  },
  {
    "Zip": 76106,
    "Center Name": "Northside",
    "State": "TX"
  },
  {
    "Zip": 76107,
    "Center Name": "Northside",
    "State": "TX"
  },
  {
    "Zip": 76111,
    "Center Name": "Northside",
    "State": "TX"
  },
  {
    "Zip": 76114,
    "Center Name": "Northside",
    "State": "TX"
  },
  {
    "Zip": 76117,
    "Center Name": "Northside",
    "State": "TX"
  },
  {
    "Zip": 76127,
    "Center Name": "Northside",
    "State": "TX"
  },
  {
    "Zip": 76135,
    "Center Name": "Northside",
    "State": "TX"
  },
  {
    "Zip": 76137,
    "Center Name": "Northside",
    "State": "TX"
  },
  {
    "Zip": 76164,
    "Center Name": "Northside",
    "State": "TX"
  },
  {
    "Zip": 76179,
    "Center Name": "Northside",
    "State": "TX"
  },
  {
    "Zip": 72002,
    "Center Name": "Oak Forest",
    "State": "AR"
  },
  {
    "Zip": 72022,
    "Center Name": "Oak Forest",
    "State": "AR"
  },
  {
    "Zip": 72065,
    "Center Name": "Oak Forest",
    "State": "AR"
  },
  {
    "Zip": 72103,
    "Center Name": "Oak Forest",
    "State": "AR"
  },
  {
    "Zip": 72114,
    "Center Name": "Oak Forest",
    "State": "AR"
  },
  {
    "Zip": 72118,
    "Center Name": "Oak Forest",
    "State": "AR"
  },
  {
    "Zip": 72201,
    "Center Name": "Oak Forest",
    "State": "AR"
  },
  {
    "Zip": 72202,
    "Center Name": "Oak Forest",
    "State": "AR"
  },
  {
    "Zip": 72204,
    "Center Name": "Oak Forest",
    "State": "AR"
  },
  {
    "Zip": 72205,
    "Center Name": "Oak Forest",
    "State": "AR"
  },
  {
    "Zip": 72206,
    "Center Name": "Oak Forest",
    "State": "AR"
  },
  {
    "Zip": 72207,
    "Center Name": "Oak Forest",
    "State": "AR"
  },
  {
    "Zip": 72209,
    "Center Name": "Oak Forest",
    "State": "AR"
  },
  {
    "Zip": 72210,
    "Center Name": "Oak Forest",
    "State": "AR"
  },
  {
    "Zip": 72211,
    "Center Name": "Oak Forest",
    "State": "AR"
  },
  {
    "Zip": 72212,
    "Center Name": "Oak Forest",
    "State": "AR"
  },
  {
    "Zip": 72223,
    "Center Name": "Oak Forest",
    "State": "AR"
  },
  {
    "Zip": 72227,
    "Center Name": "Oak Forest",
    "State": "AR"
  },
  {
    "Zip": 38105,
    "Center Name": "Overton Park",
    "State": "TN"
  },
  {
    "Zip": 38112,
    "Center Name": "Overton Park",
    "State": "TN"
  },
  {
    "Zip": 38104,
    "Center Name": "Overton Park",
    "State": "TN"
  },
  {
    "Zip": 38107,
    "Center Name": "Overton Park",
    "State": "TN"
  },
  {
    "Zip": 38114,
    "Center Name": "Overton Park",
    "State": "TN"
  },
  {
    "Zip": 38111,
    "Center Name": "Overton Park",
    "State": "TN"
  },
  {
    "Zip": 38117,
    "Center Name": "Overton Park",
    "State": "TN"
  },
  {
    "Zip": 38122,
    "Center Name": "Overton Park",
    "State": "TN"
  },
  {
    "Zip": 38108,
    "Center Name": "Overton Park",
    "State": "TN"
  },
  {
    "Zip": 38109,
    "Center Name": "Overton Park",
    "State": "TN"
  },
  {
    "Zip": 38127,
    "Center Name": "Overton Park",
    "State": "TN"
  },
  {
    "Zip": 38106,
    "Center Name": "Overton Park",
    "State": "TN"
  },
  {
    "Zip": 38134,
    "Center Name": "Overton Park",
    "State": "TN"
  },
  {
    "Zip": 38018,
    "Center Name": "Overton Park",
    "State": "TN"
  },
  {
    "Zip": 38116,
    "Center Name": "Overton Park",
    "State": "TN"
  },
  {
    "Zip": 38002,
    "Center Name": "Overton Park",
    "State": "TN"
  },
  {
    "Zip": 38119,
    "Center Name": "Overton Park",
    "State": "TN"
  },
  {
    "Zip": 38128,
    "Center Name": "Overton Park",
    "State": "TN"
  },
  {
    "Zip": 38017,
    "Center Name": "Overton Park",
    "State": "TN"
  },
  {
    "Zip": 38115,
    "Center Name": "Overton Park",
    "State": "TN"
  },
  {
    "Zip": 38138,
    "Center Name": "Overton Park",
    "State": "TN"
  },
  {
    "Zip": 38111,
    "Center Name": "Park Ave",
    "State": "TN"
  },
  {
    "Zip": 38112,
    "Center Name": "Park Ave",
    "State": "TN"
  },
  {
    "Zip": 38115,
    "Center Name": "Park Ave",
    "State": "TN"
  },
  {
    "Zip": 38117,
    "Center Name": "Park Ave",
    "State": "TN"
  },
  {
    "Zip": 38118,
    "Center Name": "Park Ave",
    "State": "TN"
  },
  {
    "Zip": 38119,
    "Center Name": "Park Ave",
    "State": "TN"
  },
  {
    "Zip": 38120,
    "Center Name": "Park Ave",
    "State": "TN"
  },
  {
    "Zip": 38122,
    "Center Name": "Park Ave",
    "State": "TN"
  },
  {
    "Zip": 38138,
    "Center Name": "Park Ave",
    "State": "TN"
  },
  {
    "Zip": 38141,
    "Center Name": "Park Ave",
    "State": "TN"
  },
  {
    "Zip": 38152,
    "Center Name": "Park Ave",
    "State": "TN"
  },
  {
    "Zip": 10461,
    "Center Name": "Parkchester",
    "State": "NY"
  },
  {
    "Zip": 10462,
    "Center Name": "Parkchester",
    "State": "NY"
  },
  {
    "Zip": 10465,
    "Center Name": "Parkchester",
    "State": "NY"
  },
  {
    "Zip": 10462,
    "Center Name": "Parkchester",
    "State": "NY"
  },
  {
    "Zip": 10461,
    "Center Name": "Parkchester",
    "State": "NY"
  },
  {
    "Zip": 10472,
    "Center Name": "Parkchester",
    "State": "NY"
  },
  {
    "Zip": 10460,
    "Center Name": "Parkchester",
    "State": "NY"
  },
  {
    "Zip": 10473,
    "Center Name": "Parkchester",
    "State": "NY"
  },
  {
    "Zip": 10469,
    "Center Name": "Parkchester",
    "State": "NY"
  },
  {
    "Zip": 19004,
    "Center Name": "Parkside",
    "State": "PA"
  },
  {
    "Zip": 19082,
    "Center Name": "Parkside",
    "State": "PA"
  },
  {
    "Zip": 19096,
    "Center Name": "Parkside",
    "State": "PA"
  },
  {
    "Zip": 19131,
    "Center Name": "Parkside",
    "State": "PA"
  },
  {
    "Zip": 19139,
    "Center Name": "Parkside",
    "State": "PA"
  },
  {
    "Zip": 19151,
    "Center Name": "Parkside",
    "State": "PA"
  },
  {
    "Zip": 80817,
    "Center Name": "Pikes Peak Park",
    "State": "CO"
  },
  {
    "Zip": 80902,
    "Center Name": "Pikes Peak Park",
    "State": "CO"
  },
  {
    "Zip": 80903,
    "Center Name": "Pikes Peak Park",
    "State": "CO"
  },
  {
    "Zip": 80904,
    "Center Name": "Pikes Peak Park",
    "State": "CO"
  },
  {
    "Zip": 80905,
    "Center Name": "Pikes Peak Park",
    "State": "CO"
  },
  {
    "Zip": 80906,
    "Center Name": "Pikes Peak Park",
    "State": "CO"
  },
  {
    "Zip": 80909,
    "Center Name": "Pikes Peak Park",
    "State": "CO"
  },
  {
    "Zip": 80910,
    "Center Name": "Pikes Peak Park",
    "State": "CO"
  },
  {
    "Zip": 80911,
    "Center Name": "Pikes Peak Park",
    "State": "CO"
  },
  {
    "Zip": 80913,
    "Center Name": "Pikes Peak Park",
    "State": "CO"
  },
  {
    "Zip": 80914,
    "Center Name": "Pikes Peak Park",
    "State": "CO"
  },
  {
    "Zip": 80915,
    "Center Name": "Pikes Peak Park",
    "State": "CO"
  },
  {
    "Zip": 80916,
    "Center Name": "Pikes Peak Park",
    "State": "CO"
  },
  {
    "Zip": 75159,
    "Center Name": "Pleasant Grove",
    "State": "TX"
  },
  {
    "Zip": 75180,
    "Center Name": "Pleasant Grove",
    "State": "TX"
  },
  {
    "Zip": 75210,
    "Center Name": "Pleasant Grove",
    "State": "TX"
  },
  {
    "Zip": 75215,
    "Center Name": "Pleasant Grove",
    "State": "TX"
  },
  {
    "Zip": 75216,
    "Center Name": "Pleasant Grove",
    "State": "TX"
  },
  {
    "Zip": 75217,
    "Center Name": "Pleasant Grove",
    "State": "TX"
  },
  {
    "Zip": 75223,
    "Center Name": "Pleasant Grove",
    "State": "TX"
  },
  {
    "Zip": 75226,
    "Center Name": "Pleasant Grove",
    "State": "TX"
  },
  {
    "Zip": 75227,
    "Center Name": "Pleasant Grove",
    "State": "TX"
  },
  {
    "Zip": 75241,
    "Center Name": "Pleasant Grove",
    "State": "TX"
  },
  {
    "Zip": 75253,
    "Center Name": "Pleasant Grove",
    "State": "TX"
  },
  {
    "Zip": 48098,
    "Center Name": "Pontiac",
    "State": "MI"
  },
  {
    "Zip": 48302,
    "Center Name": "Pontiac",
    "State": "MI"
  },
  {
    "Zip": 48304,
    "Center Name": "Pontiac",
    "State": "MI"
  },
  {
    "Zip": 48309,
    "Center Name": "Pontiac",
    "State": "MI"
  },
  {
    "Zip": 48320,
    "Center Name": "Pontiac",
    "State": "MI"
  },
  {
    "Zip": 48324,
    "Center Name": "Pontiac",
    "State": "MI"
  },
  {
    "Zip": 48326,
    "Center Name": "Pontiac",
    "State": "MI"
  },
  {
    "Zip": 48327,
    "Center Name": "Pontiac",
    "State": "MI"
  },
  {
    "Zip": 48328,
    "Center Name": "Pontiac",
    "State": "MI"
  },
  {
    "Zip": 48329,
    "Center Name": "Pontiac",
    "State": "MI"
  },
  {
    "Zip": 48340,
    "Center Name": "Pontiac",
    "State": "MI"
  },
  {
    "Zip": 48341,
    "Center Name": "Pontiac",
    "State": "MI"
  },
  {
    "Zip": 48342,
    "Center Name": "Pontiac",
    "State": "MI"
  },
  {
    "Zip": 48346,
    "Center Name": "Pontiac",
    "State": "MI"
  },
  {
    "Zip": 48348,
    "Center Name": "Pontiac",
    "State": "MI"
  },
  {
    "Zip": 48359,
    "Center Name": "Pontiac",
    "State": "MI"
  },
  {
    "Zip": 60618,
    "Center Name": "Portage Park",
    "State": "IL"
  },
  {
    "Zip": 60625,
    "Center Name": "Portage Park",
    "State": "IL"
  },
  {
    "Zip": 60630,
    "Center Name": "Portage Park",
    "State": "IL"
  },
  {
    "Zip": 60641,
    "Center Name": "Portage Park",
    "State": "IL"
  },
  {
    "Zip": 19508,
    "Center Name": "Reading",
    "State": "PA"
  },
  {
    "Zip": 19510,
    "Center Name": "Reading",
    "State": "PA"
  },
  {
    "Zip": 19522,
    "Center Name": "Reading",
    "State": "PA"
  },
  {
    "Zip": 19533,
    "Center Name": "Reading",
    "State": "PA"
  },
  {
    "Zip": 19540,
    "Center Name": "Reading",
    "State": "PA"
  },
  {
    "Zip": 19547,
    "Center Name": "Reading",
    "State": "PA"
  },
  {
    "Zip": 19555,
    "Center Name": "Reading",
    "State": "PA"
  },
  {
    "Zip": 19560,
    "Center Name": "Reading",
    "State": "PA"
  },
  {
    "Zip": 19601,
    "Center Name": "Reading",
    "State": "PA"
  },
  {
    "Zip": 19602,
    "Center Name": "Reading",
    "State": "PA"
  },
  {
    "Zip": 19604,
    "Center Name": "Reading",
    "State": "PA"
  },
  {
    "Zip": 19605,
    "Center Name": "Reading",
    "State": "PA"
  },
  {
    "Zip": 19606,
    "Center Name": "Reading",
    "State": "PA"
  },
  {
    "Zip": 19607,
    "Center Name": "Reading",
    "State": "PA"
  },
  {
    "Zip": 19608,
    "Center Name": "Reading",
    "State": "PA"
  },
  {
    "Zip": 19609,
    "Center Name": "Reading",
    "State": "PA"
  },
  {
    "Zip": 19610,
    "Center Name": "Reading",
    "State": "PA"
  },
  {
    "Zip": 19611,
    "Center Name": "Reading",
    "State": "PA"
  },
  {
    "Zip": 35020,
    "Center Name": "Rickwood Field",
    "State": "AL"
  },
  {
    "Zip": 35061,
    "Center Name": "Rickwood Field",
    "State": "AL"
  },
  {
    "Zip": 35064,
    "Center Name": "Rickwood Field",
    "State": "AL"
  },
  {
    "Zip": 35117,
    "Center Name": "Rickwood Field",
    "State": "AL"
  },
  {
    "Zip": 35127,
    "Center Name": "Rickwood Field",
    "State": "AL"
  },
  {
    "Zip": 35203,
    "Center Name": "Rickwood Field",
    "State": "AL"
  },
  {
    "Zip": 35204,
    "Center Name": "Rickwood Field",
    "State": "AL"
  },
  {
    "Zip": 35205,
    "Center Name": "Rickwood Field",
    "State": "AL"
  },
  {
    "Zip": 35207,
    "Center Name": "Rickwood Field",
    "State": "AL"
  },
  {
    "Zip": 35208,
    "Center Name": "Rickwood Field",
    "State": "AL"
  },
  {
    "Zip": 35209,
    "Center Name": "Rickwood Field",
    "State": "AL"
  },
  {
    "Zip": 35211,
    "Center Name": "Rickwood Field",
    "State": "AL"
  },
  {
    "Zip": 35213,
    "Center Name": "Rickwood Field",
    "State": "AL"
  },
  {
    "Zip": 35214,
    "Center Name": "Rickwood Field",
    "State": "AL"
  },
  {
    "Zip": 35216,
    "Center Name": "Rickwood Field",
    "State": "AL"
  },
  {
    "Zip": 35218,
    "Center Name": "Rickwood Field",
    "State": "AL"
  },
  {
    "Zip": 35221,
    "Center Name": "Rickwood Field",
    "State": "AL"
  },
  {
    "Zip": 35222,
    "Center Name": "Rickwood Field",
    "State": "AL"
  },
  {
    "Zip": 35223,
    "Center Name": "Rickwood Field",
    "State": "AL"
  },
  {
    "Zip": 35224,
    "Center Name": "Rickwood Field",
    "State": "AL"
  },
  {
    "Zip": 35226,
    "Center Name": "Rickwood Field",
    "State": "AL"
  },
  {
    "Zip": 35228,
    "Center Name": "Rickwood Field",
    "State": "AL"
  },
  {
    "Zip": 35229,
    "Center Name": "Rickwood Field",
    "State": "AL"
  },
  {
    "Zip": 35233,
    "Center Name": "Rickwood Field",
    "State": "AL"
  },
  {
    "Zip": 35234,
    "Center Name": "Rickwood Field",
    "State": "AL"
  },
  {
    "Zip": 35254,
    "Center Name": "Rickwood Field",
    "State": "AL"
  },
  {
    "Zip": 35294,
    "Center Name": "Rickwood Field",
    "State": "AL"
  },
  {
    "Zip": 87031,
    "Center Name": "Rio Bravo",
    "State": "NM"
  },
  {
    "Zip": 87042,
    "Center Name": "Rio Bravo",
    "State": "NM"
  },
  {
    "Zip": 87068,
    "Center Name": "Rio Bravo",
    "State": "NM"
  },
  {
    "Zip": 87105,
    "Center Name": "Rio Bravo",
    "State": "NM"
  },
  {
    "Zip": 87106,
    "Center Name": "Rio Bravo",
    "State": "NM"
  },
  {
    "Zip": 87121,
    "Center Name": "Rio Bravo",
    "State": "NM"
  },
  {
    "Zip": 30213,
    "Center Name": "Riverdale",
    "State": "GA"
  },
  {
    "Zip": 30214,
    "Center Name": "Riverdale",
    "State": "GA"
  },
  {
    "Zip": 30215,
    "Center Name": "Riverdale",
    "State": "GA"
  },
  {
    "Zip": 30228,
    "Center Name": "Riverdale",
    "State": "GA"
  },
  {
    "Zip": 30236,
    "Center Name": "Riverdale",
    "State": "GA"
  },
  {
    "Zip": 30238,
    "Center Name": "Riverdale",
    "State": "GA"
  },
  {
    "Zip": 30260,
    "Center Name": "Riverdale",
    "State": "GA"
  },
  {
    "Zip": 30273,
    "Center Name": "Riverdale",
    "State": "GA"
  },
  {
    "Zip": 30274,
    "Center Name": "Riverdale",
    "State": "GA"
  },
  {
    "Zip": 30281,
    "Center Name": "Riverdale",
    "State": "GA"
  },
  {
    "Zip": 30296,
    "Center Name": "Riverdale",
    "State": "GA"
  },
  {
    "Zip": 30297,
    "Center Name": "Riverdale",
    "State": "GA"
  },
  {
    "Zip": 42420,
    "Center Name": "Riverside",
    "State": "IN"
  },
  {
    "Zip": 42451,
    "Center Name": "Riverside",
    "State": "IN"
  },
  {
    "Zip": 47630,
    "Center Name": "Riverside",
    "State": "IN"
  },
  {
    "Zip": 47708,
    "Center Name": "Riverside",
    "State": "IN"
  },
  {
    "Zip": 47710,
    "Center Name": "Riverside",
    "State": "IN"
  },
  {
    "Zip": 47711,
    "Center Name": "Riverside",
    "State": "IN"
  },
  {
    "Zip": 47712,
    "Center Name": "Riverside",
    "State": "IN"
  },
  {
    "Zip": 47713,
    "Center Name": "Riverside",
    "State": "IN"
  },
  {
    "Zip": 47714,
    "Center Name": "Riverside",
    "State": "IN"
  },
  {
    "Zip": 47715,
    "Center Name": "Riverside",
    "State": "IN"
  },
  {
    "Zip": 47720,
    "Center Name": "Riverside",
    "State": "IN"
  },
  {
    "Zip": 47722,
    "Center Name": "Riverside",
    "State": "IN"
  },
  {
    "Zip": 47725,
    "Center Name": "Riverside",
    "State": "IN"
  },
  {
    "Zip": 49315,
    "Center Name": "Rogers Plaza",
    "State": "MI"
  },
  {
    "Zip": 49316,
    "Center Name": "Rogers Plaza",
    "State": "MI"
  },
  {
    "Zip": 49348,
    "Center Name": "Rogers Plaza",
    "State": "MI"
  },
  {
    "Zip": 49418,
    "Center Name": "Rogers Plaza",
    "State": "MI"
  },
  {
    "Zip": 49426,
    "Center Name": "Rogers Plaza",
    "State": "MI"
  },
  {
    "Zip": 49428,
    "Center Name": "Rogers Plaza",
    "State": "MI"
  },
  {
    "Zip": 49503,
    "Center Name": "Rogers Plaza",
    "State": "MI"
  },
  {
    "Zip": 49504,
    "Center Name": "Rogers Plaza",
    "State": "MI"
  },
  {
    "Zip": 49505,
    "Center Name": "Rogers Plaza",
    "State": "MI"
  },
  {
    "Zip": 49506,
    "Center Name": "Rogers Plaza",
    "State": "MI"
  },
  {
    "Zip": 49507,
    "Center Name": "Rogers Plaza",
    "State": "MI"
  },
  {
    "Zip": 49508,
    "Center Name": "Rogers Plaza",
    "State": "MI"
  },
  {
    "Zip": 49509,
    "Center Name": "Rogers Plaza",
    "State": "MI"
  },
  {
    "Zip": 49512,
    "Center Name": "Rogers Plaza",
    "State": "MI"
  },
  {
    "Zip": 49519,
    "Center Name": "Rogers Plaza",
    "State": "MI"
  },
  {
    "Zip": 49525,
    "Center Name": "Rogers Plaza",
    "State": "MI"
  },
  {
    "Zip": 49534,
    "Center Name": "Rogers Plaza",
    "State": "MI"
  },
  {
    "Zip": 49544,
    "Center Name": "Rogers Plaza",
    "State": "MI"
  },
  {
    "Zip": 49546,
    "Center Name": "Rogers Plaza",
    "State": "MI"
  },
  {
    "Zip": 49548,
    "Center Name": "Rogers Plaza",
    "State": "MI"
  },
  {
    "Zip": 85707,
    "Center Name": "Rolling Hills Square",
    "State": "AZ"
  },
  {
    "Zip": 85708,
    "Center Name": "Rolling Hills Square",
    "State": "AZ"
  },
  {
    "Zip": 85710,
    "Center Name": "Rolling Hills Square",
    "State": "AZ"
  },
  {
    "Zip": 85711,
    "Center Name": "Rolling Hills Square",
    "State": "AZ"
  },
  {
    "Zip": 85712,
    "Center Name": "Rolling Hills Square",
    "State": "AZ"
  },
  {
    "Zip": 85715,
    "Center Name": "Rolling Hills Square",
    "State": "AZ"
  },
  {
    "Zip": 85730,
    "Center Name": "Rolling Hills Square",
    "State": "AZ"
  },
  {
    "Zip": 85747,
    "Center Name": "Rolling Hills Square",
    "State": "AZ"
  },
  {
    "Zip": 85748,
    "Center Name": "Rolling Hills Square",
    "State": "AZ"
  },
  {
    "Zip": 85749,
    "Center Name": "Rolling Hills Square",
    "State": "AZ"
  },
  {
    "Zip": 85750,
    "Center Name": "Rolling Hills Square",
    "State": "AZ"
  },
  {
    "Zip": 60004,
    "Center Name": "Rolling Meadows",
    "State": "IL"
  },
  {
    "Zip": 60005,
    "Center Name": "Rolling Meadows",
    "State": "IL"
  },
  {
    "Zip": 60007,
    "Center Name": "Rolling Meadows",
    "State": "IL"
  },
  {
    "Zip": 60008,
    "Center Name": "Rolling Meadows",
    "State": "IL"
  },
  {
    "Zip": 60016,
    "Center Name": "Rolling Meadows",
    "State": "IL"
  },
  {
    "Zip": 60018,
    "Center Name": "Rolling Meadows",
    "State": "IL"
  },
  {
    "Zip": 60056,
    "Center Name": "Rolling Meadows",
    "State": "IL"
  },
  {
    "Zip": 60067,
    "Center Name": "Rolling Meadows",
    "State": "IL"
  },
  {
    "Zip": 60070,
    "Center Name": "Rolling Meadows",
    "State": "IL"
  },
  {
    "Zip": 60074,
    "Center Name": "Rolling Meadows",
    "State": "IL"
  },
  {
    "Zip": 60089,
    "Center Name": "Rolling Meadows",
    "State": "IL"
  },
  {
    "Zip": 60106,
    "Center Name": "Rolling Meadows",
    "State": "IL"
  },
  {
    "Zip": 60143,
    "Center Name": "Rolling Meadows",
    "State": "IL"
  },
  {
    "Zip": 60157,
    "Center Name": "Rolling Meadows",
    "State": "IL"
  },
  {
    "Zip": 60173,
    "Center Name": "Rolling Meadows",
    "State": "IL"
  },
  {
    "Zip": 60191,
    "Center Name": "Rolling Meadows",
    "State": "IL"
  },
  {
    "Zip": 60195,
    "Center Name": "Rolling Meadows",
    "State": "IL"
  },
  {
    "Zip": 60196,
    "Center Name": "Rolling Meadows",
    "State": "IL"
  },
  {
    "Zip": 19111,
    "Center Name": "Roosevelt",
    "State": "PA"
  },
  {
    "Zip": 19115,
    "Center Name": "Roosevelt",
    "State": "PA"
  },
  {
    "Zip": 19135,
    "Center Name": "Roosevelt",
    "State": "PA"
  },
  {
    "Zip": 19136,
    "Center Name": "Roosevelt",
    "State": "PA"
  },
  {
    "Zip": 19149,
    "Center Name": "Roosevelt",
    "State": "PA"
  },
  {
    "Zip": 19152,
    "Center Name": "Roosevelt",
    "State": "PA"
  },
  {
    "Zip": 48033,
    "Center Name": "Rosedale Park",
    "State": "MI"
  },
  {
    "Zip": 48034,
    "Center Name": "Rosedale Park",
    "State": "MI"
  },
  {
    "Zip": 48075,
    "Center Name": "Rosedale Park",
    "State": "MI"
  },
  {
    "Zip": 48150,
    "Center Name": "Rosedale Park",
    "State": "MI"
  },
  {
    "Zip": 48152,
    "Center Name": "Rosedale Park",
    "State": "MI"
  },
  {
    "Zip": 48154,
    "Center Name": "Rosedale Park",
    "State": "MI"
  },
  {
    "Zip": 48204,
    "Center Name": "Rosedale Park",
    "State": "MI"
  },
  {
    "Zip": 48219,
    "Center Name": "Rosedale Park",
    "State": "MI"
  },
  {
    "Zip": 48221,
    "Center Name": "Rosedale Park",
    "State": "MI"
  },
  {
    "Zip": 48223,
    "Center Name": "Rosedale Park",
    "State": "MI"
  },
  {
    "Zip": 48227,
    "Center Name": "Rosedale Park",
    "State": "MI"
  },
  {
    "Zip": 48228,
    "Center Name": "Rosedale Park",
    "State": "MI"
  },
  {
    "Zip": 48235,
    "Center Name": "Rosedale Park",
    "State": "MI"
  },
  {
    "Zip": 48237,
    "Center Name": "Rosedale Park",
    "State": "MI"
  },
  {
    "Zip": 48239,
    "Center Name": "Rosedale Park",
    "State": "MI"
  },
  {
    "Zip": 48240,
    "Center Name": "Rosedale Park",
    "State": "MI"
  },
  {
    "Zip": 48336,
    "Center Name": "Rosedale Park",
    "State": "MI"
  },
  {
    "Zip": 18505,
    "Center Name": "Scranton",
    "State": "PA"
  },
  {
    "Zip": 18510,
    "Center Name": "Scranton",
    "State": "PA"
  },
  {
    "Zip": 18501,
    "Center Name": "Scranton",
    "State": "PA"
  },
  {
    "Zip": 18502,
    "Center Name": "Scranton",
    "State": "PA"
  },
  {
    "Zip": 18540,
    "Center Name": "Scranton",
    "State": "PA"
  },
  {
    "Zip": 18577,
    "Center Name": "Scranton",
    "State": "PA"
  },
  {
    "Zip": 18515,
    "Center Name": "Scranton",
    "State": "PA"
  },
  {
    "Zip": 18503,
    "Center Name": "Scranton",
    "State": "PA"
  },
  {
    "Zip": 18507,
    "Center Name": "Scranton",
    "State": "PA"
  },
  {
    "Zip": 18507,
    "Center Name": "Scranton",
    "State": "PA"
  },
  {
    "Zip": 18509,
    "Center Name": "Scranton",
    "State": "PA"
  },
  {
    "Zip": 18517,
    "Center Name": "Scranton",
    "State": "PA"
  },
  {
    "Zip": 18512,
    "Center Name": "Scranton",
    "State": "PA"
  },
  {
    "Zip": 18508,
    "Center Name": "Scranton",
    "State": "PA"
  },
  {
    "Zip": 10451,
    "Center Name": "Simpson",
    "State": "NY"
  },
  {
    "Zip": 10455,
    "Center Name": "Simpson",
    "State": "NY"
  },
  {
    "Zip": 10456,
    "Center Name": "Simpson",
    "State": "NY"
  },
  {
    "Zip": 10459,
    "Center Name": "Simpson",
    "State": "NY"
  },
  {
    "Zip": 10474,
    "Center Name": "Simpson",
    "State": "NY"
  },
  {
    "Zip": 60022,
    "Center Name": "Skokie",
    "State": "IL"
  },
  {
    "Zip": 60025,
    "Center Name": "Skokie",
    "State": "IL"
  },
  {
    "Zip": 60026,
    "Center Name": "Skokie",
    "State": "IL"
  },
  {
    "Zip": 60029,
    "Center Name": "Skokie",
    "State": "IL"
  },
  {
    "Zip": 60035,
    "Center Name": "Skokie",
    "State": "IL"
  },
  {
    "Zip": 60043,
    "Center Name": "Skokie",
    "State": "IL"
  },
  {
    "Zip": 60053,
    "Center Name": "Skokie",
    "State": "IL"
  },
  {
    "Zip": 60062,
    "Center Name": "Skokie",
    "State": "IL"
  },
  {
    "Zip": 60076,
    "Center Name": "Skokie",
    "State": "IL"
  },
  {
    "Zip": 60077,
    "Center Name": "Skokie",
    "State": "IL"
  },
  {
    "Zip": 60091,
    "Center Name": "Skokie",
    "State": "IL"
  },
  {
    "Zip": 60093,
    "Center Name": "Skokie",
    "State": "IL"
  },
  {
    "Zip": 60203,
    "Center Name": "Skokie",
    "State": "IL"
  },
  {
    "Zip": 60646,
    "Center Name": "Skokie",
    "State": "IL"
  },
  {
    "Zip": 60712,
    "Center Name": "Skokie",
    "State": "IL"
  },
  {
    "Zip": 60714,
    "Center Name": "Skokie",
    "State": "IL"
  },
  {
    "Zip": 10460,
    "Center Name": "Soundview",
    "State": "NY"
  },
  {
    "Zip": 10472,
    "Center Name": "Soundview",
    "State": "NY"
  },
  {
    "Zip": 10473,
    "Center Name": "Soundview",
    "State": "NY"
  },
  {
    "Zip": 10457,
    "Center Name": "Soundview",
    "State": "NY"
  },
  {
    "Zip": 10462,
    "Center Name": "Soundview",
    "State": "NY"
  },
  {
    "Zip": 10459,
    "Center Name": "Soundview",
    "State": "NY"
  },
  {
    "Zip": 10458,
    "Center Name": "Soundview",
    "State": "NY"
  },
  {
    "Zip": 10456,
    "Center Name": "Soundview",
    "State": "NY"
  },
  {
    "Zip": 10461,
    "Center Name": "Soundview",
    "State": "NY"
  },
  {
    "Zip": 10453,
    "Center Name": "Soundview",
    "State": "NY"
  },
  {
    "Zip": 70112,
    "Center Name": "South Claiborne",
    "State": "LA"
  },
  {
    "Zip": 70113,
    "Center Name": "South Claiborne",
    "State": "LA"
  },
  {
    "Zip": 70115,
    "Center Name": "South Claiborne",
    "State": "LA"
  },
  {
    "Zip": 70118,
    "Center Name": "South Claiborne",
    "State": "LA"
  },
  {
    "Zip": 70119,
    "Center Name": "South Claiborne",
    "State": "LA"
  },
  {
    "Zip": 70125,
    "Center Name": "South Claiborne",
    "State": "LA"
  },
  {
    "Zip": 70130,
    "Center Name": "South Claiborne",
    "State": "LA"
  },
  {
    "Zip": 11420,
    "Center Name": "South Jamaica",
    "State": "NY"
  },
  {
    "Zip": 11430,
    "Center Name": "South Jamaica",
    "State": "NY"
  },
  {
    "Zip": 11433,
    "Center Name": "South Jamaica",
    "State": "NY"
  },
  {
    "Zip": 11434,
    "Center Name": "South Jamaica",
    "State": "NY"
  },
  {
    "Zip": 11436,
    "Center Name": "South Jamaica",
    "State": "NY"
  },
  {
    "Zip": 73064,
    "Center Name": "South OKC",
    "State": "OK"
  },
  {
    "Zip": 73065,
    "Center Name": "South OKC",
    "State": "OK"
  },
  {
    "Zip": 73097,
    "Center Name": "South OKC",
    "State": "OK"
  },
  {
    "Zip": 73099,
    "Center Name": "South OKC",
    "State": "OK"
  },
  {
    "Zip": 73108,
    "Center Name": "South OKC",
    "State": "OK"
  },
  {
    "Zip": 73109,
    "Center Name": "South OKC",
    "State": "OK"
  },
  {
    "Zip": 73119,
    "Center Name": "South OKC",
    "State": "OK"
  },
  {
    "Zip": 73127,
    "Center Name": "South OKC",
    "State": "OK"
  },
  {
    "Zip": 73128,
    "Center Name": "South OKC",
    "State": "OK"
  },
  {
    "Zip": 73139,
    "Center Name": "South OKC",
    "State": "OK"
  },
  {
    "Zip": 73159,
    "Center Name": "South OKC",
    "State": "OK"
  },
  {
    "Zip": 73160,
    "Center Name": "South OKC",
    "State": "OK"
  },
  {
    "Zip": 73169,
    "Center Name": "South OKC",
    "State": "OK"
  },
  {
    "Zip": 73170,
    "Center Name": "South OKC",
    "State": "OK"
  },
  {
    "Zip": 73173,
    "Center Name": "South OKC",
    "State": "OK"
  },
  {
    "Zip": 73179,
    "Center Name": "South OKC",
    "State": "OK"
  },
  {
    "Zip": 19103,
    "Center Name": "South Philly",
    "State": "PA"
  },
  {
    "Zip": 19106,
    "Center Name": "South Philly",
    "State": "PA"
  },
  {
    "Zip": 19145,
    "Center Name": "South Philly",
    "State": "PA"
  },
  {
    "Zip": 19146,
    "Center Name": "South Philly",
    "State": "PA"
  },
  {
    "Zip": 19147,
    "Center Name": "South Philly",
    "State": "PA"
  },
  {
    "Zip": 19148,
    "Center Name": "South Philly",
    "State": "PA"
  },
  {
    "Zip": 2903,
    "Center Name": "South Providence",
    "State": "RI"
  },
  {
    "Zip": 2905,
    "Center Name": "South Providence",
    "State": "RI"
  },
  {
    "Zip": 2907,
    "Center Name": "South Providence",
    "State": "RI"
  },
  {
    "Zip": 2909,
    "Center Name": "South Providence",
    "State": "RI"
  },
  {
    "Zip": 85040,
    "Center Name": "South Tempe",
    "State": "AZ"
  },
  {
    "Zip": 85042,
    "Center Name": "South Tempe",
    "State": "AZ"
  },
  {
    "Zip": 85044,
    "Center Name": "South Tempe",
    "State": "AZ"
  },
  {
    "Zip": 85048,
    "Center Name": "South Tempe",
    "State": "AZ"
  },
  {
    "Zip": 85226,
    "Center Name": "South Tempe",
    "State": "AZ"
  },
  {
    "Zip": 85281,
    "Center Name": "South Tempe",
    "State": "AZ"
  },
  {
    "Zip": 85282,
    "Center Name": "South Tempe",
    "State": "AZ"
  },
  {
    "Zip": 85283,
    "Center Name": "South Tempe",
    "State": "AZ"
  },
  {
    "Zip": 85284,
    "Center Name": "South Tempe",
    "State": "AZ"
  },
  {
    "Zip": 85287,
    "Center Name": "South Tempe",
    "State": "AZ"
  },
  {
    "Zip": 77002,
    "Center Name": "South Wayside",
    "State": "TX"
  },
  {
    "Zip": 77003,
    "Center Name": "South Wayside",
    "State": "TX"
  },
  {
    "Zip": 77004,
    "Center Name": "South Wayside",
    "State": "TX"
  },
  {
    "Zip": 77005,
    "Center Name": "South Wayside",
    "State": "TX"
  },
  {
    "Zip": 77006,
    "Center Name": "South Wayside",
    "State": "TX"
  },
  {
    "Zip": 77007,
    "Center Name": "South Wayside",
    "State": "TX"
  },
  {
    "Zip": 77010,
    "Center Name": "South Wayside",
    "State": "TX"
  },
  {
    "Zip": 77011,
    "Center Name": "South Wayside",
    "State": "TX"
  },
  {
    "Zip": 77012,
    "Center Name": "South Wayside",
    "State": "TX"
  },
  {
    "Zip": 77019,
    "Center Name": "South Wayside",
    "State": "TX"
  },
  {
    "Zip": 77020,
    "Center Name": "South Wayside",
    "State": "TX"
  },
  {
    "Zip": 77021,
    "Center Name": "South Wayside",
    "State": "TX"
  },
  {
    "Zip": 77023,
    "Center Name": "South Wayside",
    "State": "TX"
  },
  {
    "Zip": 77030,
    "Center Name": "South Wayside",
    "State": "TX"
  },
  {
    "Zip": 77033,
    "Center Name": "South Wayside",
    "State": "TX"
  },
  {
    "Zip": 77047,
    "Center Name": "South Wayside",
    "State": "TX"
  },
  {
    "Zip": 77048,
    "Center Name": "South Wayside",
    "State": "TX"
  },
  {
    "Zip": 77051,
    "Center Name": "South Wayside",
    "State": "TX"
  },
  {
    "Zip": 77087,
    "Center Name": "South Wayside",
    "State": "TX"
  },
  {
    "Zip": 77204,
    "Center Name": "South Wayside",
    "State": "TX"
  },
  {
    "Zip": 77023,
    "Center Name": "South Wayside",
    "State": "TX"
  },
  {
    "Zip": 77011,
    "Center Name": "South Wayside",
    "State": "TX"
  },
  {
    "Zip": 77087,
    "Center Name": "South Wayside",
    "State": "TX"
  },
  {
    "Zip": 77003,
    "Center Name": "South Wayside",
    "State": "TX"
  },
  {
    "Zip": 77004,
    "Center Name": "South Wayside",
    "State": "TX"
  },
  {
    "Zip": 77021,
    "Center Name": "South Wayside",
    "State": "TX"
  },
  {
    "Zip": 77012,
    "Center Name": "South Wayside",
    "State": "TX"
  },
  {
    "Zip": 77010,
    "Center Name": "South Wayside",
    "State": "TX"
  },
  {
    "Zip": 77020,
    "Center Name": "South Wayside",
    "State": "TX"
  },
  {
    "Zip": 77002,
    "Center Name": "South Wayside",
    "State": "TX"
  },
  {
    "Zip": 77033,
    "Center Name": "South Wayside",
    "State": "TX"
  },
  {
    "Zip": 77201,
    "Center Name": "South Wayside",
    "State": "TX"
  },
  {
    "Zip": 77204,
    "Center Name": "South Wayside",
    "State": "TX"
  },
  {
    "Zip": 77212,
    "Center Name": "South Wayside",
    "State": "TX"
  },
  {
    "Zip": 77216,
    "Center Name": "South Wayside",
    "State": "TX"
  },
  {
    "Zip": 77297,
    "Center Name": "South Wayside",
    "State": "TX"
  },
  {
    "Zip": 77299,
    "Center Name": "South Wayside",
    "State": "TX"
  },
  {
    "Zip": 77017,
    "Center Name": "South Wayside",
    "State": "TX"
  },
  {
    "Zip": 77029,
    "Center Name": "South Wayside",
    "State": "TX"
  },
  {
    "Zip": 77006,
    "Center Name": "South Wayside",
    "State": "TX"
  },
  {
    "Zip": 27511,
    "Center Name": "Southeast Raleigh",
    "State": "NC"
  },
  {
    "Zip": 27518,
    "Center Name": "Southeast Raleigh",
    "State": "NC"
  },
  {
    "Zip": 27529,
    "Center Name": "Southeast Raleigh",
    "State": "NC"
  },
  {
    "Zip": 27545,
    "Center Name": "Southeast Raleigh",
    "State": "NC"
  },
  {
    "Zip": 27601,
    "Center Name": "Southeast Raleigh",
    "State": "NC"
  },
  {
    "Zip": 27603,
    "Center Name": "Southeast Raleigh",
    "State": "NC"
  },
  {
    "Zip": 27605,
    "Center Name": "Southeast Raleigh",
    "State": "NC"
  },
  {
    "Zip": 27606,
    "Center Name": "Southeast Raleigh",
    "State": "NC"
  },
  {
    "Zip": 27607,
    "Center Name": "Southeast Raleigh",
    "State": "NC"
  },
  {
    "Zip": 27608,
    "Center Name": "Southeast Raleigh",
    "State": "NC"
  },
  {
    "Zip": 27610,
    "Center Name": "Southeast Raleigh",
    "State": "NC"
  },
  {
    "Zip": 27695,
    "Center Name": "Southeast Raleigh",
    "State": "NC"
  },
  {
    "Zip": 48101,
    "Center Name": "Southgate",
    "State": "MI"
  },
  {
    "Zip": 48117,
    "Center Name": "Southgate",
    "State": "MI"
  },
  {
    "Zip": 48122,
    "Center Name": "Southgate",
    "State": "MI"
  },
  {
    "Zip": 48134,
    "Center Name": "Southgate",
    "State": "MI"
  },
  {
    "Zip": 48138,
    "Center Name": "Southgate",
    "State": "MI"
  },
  {
    "Zip": 48146,
    "Center Name": "Southgate",
    "State": "MI"
  },
  {
    "Zip": 48164,
    "Center Name": "Southgate",
    "State": "MI"
  },
  {
    "Zip": 48173,
    "Center Name": "Southgate",
    "State": "MI"
  },
  {
    "Zip": 48174,
    "Center Name": "Southgate",
    "State": "MI"
  },
  {
    "Zip": 48179,
    "Center Name": "Southgate",
    "State": "MI"
  },
  {
    "Zip": 48180,
    "Center Name": "Southgate",
    "State": "MI"
  },
  {
    "Zip": 48183,
    "Center Name": "Southgate",
    "State": "MI"
  },
  {
    "Zip": 48192,
    "Center Name": "Southgate",
    "State": "MI"
  },
  {
    "Zip": 48193,
    "Center Name": "Southgate",
    "State": "MI"
  },
  {
    "Zip": 48195,
    "Center Name": "Southgate",
    "State": "MI"
  },
  {
    "Zip": 48209,
    "Center Name": "Southgate",
    "State": "MI"
  },
  {
    "Zip": 48217,
    "Center Name": "Southgate",
    "State": "MI"
  },
  {
    "Zip": 48218,
    "Center Name": "Southgate",
    "State": "MI"
  },
  {
    "Zip": 48229,
    "Center Name": "Southgate",
    "State": "MI"
  },
  {
    "Zip": 29301,
    "Center Name": "Spartanburg",
    "State": "SC"
  },
  {
    "Zip": 29302,
    "Center Name": "Spartanburg",
    "State": "SC"
  },
  {
    "Zip": 29303,
    "Center Name": "Spartanburg",
    "State": "SC"
  },
  {
    "Zip": 29306,
    "Center Name": "Spartanburg",
    "State": "SC"
  },
  {
    "Zip": 29307,
    "Center Name": "Spartanburg",
    "State": "SC"
  },
  {
    "Zip": 29316,
    "Center Name": "Spartanburg",
    "State": "SC"
  },
  {
    "Zip": 29320,
    "Center Name": "Spartanburg",
    "State": "SC"
  },
  {
    "Zip": 29346,
    "Center Name": "Spartanburg",
    "State": "SC"
  },
  {
    "Zip": 29369,
    "Center Name": "Spartanburg",
    "State": "SC"
  },
  {
    "Zip": 29376,
    "Center Name": "Spartanburg",
    "State": "SC"
  },
  {
    "Zip": 29378,
    "Center Name": "Spartanburg",
    "State": "SC"
  },
  {
    "Zip": 29385,
    "Center Name": "Spartanburg",
    "State": "SC"
  },
  {
    "Zip": 46112,
    "Center Name": "Speedway",
    "State": "IN"
  },
  {
    "Zip": 46123,
    "Center Name": "Speedway",
    "State": "IN"
  },
  {
    "Zip": 46168,
    "Center Name": "Speedway",
    "State": "IN"
  },
  {
    "Zip": 46202,
    "Center Name": "Speedway",
    "State": "IN"
  },
  {
    "Zip": 46204,
    "Center Name": "Speedway",
    "State": "IN"
  },
  {
    "Zip": 46214,
    "Center Name": "Speedway",
    "State": "IN"
  },
  {
    "Zip": 46222,
    "Center Name": "Speedway",
    "State": "IN"
  },
  {
    "Zip": 46224,
    "Center Name": "Speedway",
    "State": "IN"
  },
  {
    "Zip": 46231,
    "Center Name": "Speedway",
    "State": "IN"
  },
  {
    "Zip": 46234,
    "Center Name": "Speedway",
    "State": "IN"
  },
  {
    "Zip": 46241,
    "Center Name": "Speedway",
    "State": "IN"
  },
  {
    "Zip": 46254,
    "Center Name": "Speedway",
    "State": "IN"
  },
  {
    "Zip": 62040,
    "Center Name": "State Street",
    "State": "IL"
  },
  {
    "Zip": 62059,
    "Center Name": "State Street",
    "State": "IL"
  },
  {
    "Zip": 62060,
    "Center Name": "State Street",
    "State": "IL"
  },
  {
    "Zip": 62071,
    "Center Name": "State Street",
    "State": "IL"
  },
  {
    "Zip": 62090,
    "Center Name": "State Street",
    "State": "IL"
  },
  {
    "Zip": 62201,
    "Center Name": "State Street",
    "State": "IL"
  },
  {
    "Zip": 62203,
    "Center Name": "State Street",
    "State": "IL"
  },
  {
    "Zip": 62204,
    "Center Name": "State Street",
    "State": "IL"
  },
  {
    "Zip": 62205,
    "Center Name": "State Street",
    "State": "IL"
  },
  {
    "Zip": 62206,
    "Center Name": "State Street",
    "State": "IL"
  },
  {
    "Zip": 62207,
    "Center Name": "State Street",
    "State": "IL"
  },
  {
    "Zip": 62208,
    "Center Name": "State Street",
    "State": "IL"
  },
  {
    "Zip": 62223,
    "Center Name": "State Street",
    "State": "IL"
  },
  {
    "Zip": 62226,
    "Center Name": "State Street",
    "State": "IL"
  },
  {
    "Zip": 62232,
    "Center Name": "State Street",
    "State": "IL"
  },
  {
    "Zip": 62234,
    "Center Name": "State Street",
    "State": "IL"
  },
  {
    "Zip": 62239,
    "Center Name": "State Street",
    "State": "IL"
  },
  {
    "Zip": 62240,
    "Center Name": "State Street",
    "State": "IL"
  },
  {
    "Zip": 62260,
    "Center Name": "State Street",
    "State": "IL"
  },
  {
    "Zip": 30021,
    "Center Name": "Stone Mountain",
    "State": "GA"
  },
  {
    "Zip": 30033,
    "Center Name": "Stone Mountain",
    "State": "GA"
  },
  {
    "Zip": 30039,
    "Center Name": "Stone Mountain",
    "State": "GA"
  },
  {
    "Zip": 30044,
    "Center Name": "Stone Mountain",
    "State": "GA"
  },
  {
    "Zip": 30047,
    "Center Name": "Stone Mountain",
    "State": "GA"
  },
  {
    "Zip": 30058,
    "Center Name": "Stone Mountain",
    "State": "GA"
  },
  {
    "Zip": 30072,
    "Center Name": "Stone Mountain",
    "State": "GA"
  },
  {
    "Zip": 30078,
    "Center Name": "Stone Mountain",
    "State": "GA"
  },
  {
    "Zip": 30083,
    "Center Name": "Stone Mountain",
    "State": "GA"
  },
  {
    "Zip": 30084,
    "Center Name": "Stone Mountain",
    "State": "GA"
  },
  {
    "Zip": 30087,
    "Center Name": "Stone Mountain",
    "State": "GA"
  },
  {
    "Zip": 30093,
    "Center Name": "Stone Mountain",
    "State": "GA"
  },
  {
    "Zip": 30340,
    "Center Name": "Stone Mountain",
    "State": "GA"
  },
  {
    "Zip": 64101,
    "Center Name": "Strawberry Hill",
    "State": "KS"
  },
  {
    "Zip": 64102,
    "Center Name": "Strawberry Hill",
    "State": "KS"
  },
  {
    "Zip": 64105,
    "Center Name": "Strawberry Hill",
    "State": "KS"
  },
  {
    "Zip": 64106,
    "Center Name": "Strawberry Hill",
    "State": "KS"
  },
  {
    "Zip": 64108,
    "Center Name": "Strawberry Hill",
    "State": "KS"
  },
  {
    "Zip": 64109,
    "Center Name": "Strawberry Hill",
    "State": "KS"
  },
  {
    "Zip": 64111,
    "Center Name": "Strawberry Hill",
    "State": "KS"
  },
  {
    "Zip": 64116,
    "Center Name": "Strawberry Hill",
    "State": "KS"
  },
  {
    "Zip": 64117,
    "Center Name": "Strawberry Hill",
    "State": "KS"
  },
  {
    "Zip": 64118,
    "Center Name": "Strawberry Hill",
    "State": "KS"
  },
  {
    "Zip": 64119,
    "Center Name": "Strawberry Hill",
    "State": "KS"
  },
  {
    "Zip": 64120,
    "Center Name": "Strawberry Hill",
    "State": "KS"
  },
  {
    "Zip": 64123,
    "Center Name": "Strawberry Hill",
    "State": "KS"
  },
  {
    "Zip": 64124,
    "Center Name": "Strawberry Hill",
    "State": "KS"
  },
  {
    "Zip": 64125,
    "Center Name": "Strawberry Hill",
    "State": "KS"
  },
  {
    "Zip": 64127,
    "Center Name": "Strawberry Hill",
    "State": "KS"
  },
  {
    "Zip": 64128,
    "Center Name": "Strawberry Hill",
    "State": "KS"
  },
  {
    "Zip": 64150,
    "Center Name": "Strawberry Hill",
    "State": "KS"
  },
  {
    "Zip": 64151,
    "Center Name": "Strawberry Hill",
    "State": "KS"
  },
  {
    "Zip": 64152,
    "Center Name": "Strawberry Hill",
    "State": "KS"
  },
  {
    "Zip": 64153,
    "Center Name": "Strawberry Hill",
    "State": "KS"
  },
  {
    "Zip": 66101,
    "Center Name": "Strawberry Hill",
    "State": "KS"
  },
  {
    "Zip": 66102,
    "Center Name": "Strawberry Hill",
    "State": "KS"
  },
  {
    "Zip": 66103,
    "Center Name": "Strawberry Hill",
    "State": "KS"
  },
  {
    "Zip": 66104,
    "Center Name": "Strawberry Hill",
    "State": "KS"
  },
  {
    "Zip": 66105,
    "Center Name": "Strawberry Hill",
    "State": "KS"
  },
  {
    "Zip": 66106,
    "Center Name": "Strawberry Hill",
    "State": "KS"
  },
  {
    "Zip": 66109,
    "Center Name": "Strawberry Hill",
    "State": "KS"
  },
  {
    "Zip": 66111,
    "Center Name": "Strawberry Hill",
    "State": "KS"
  },
  {
    "Zip": 66112,
    "Center Name": "Strawberry Hill",
    "State": "KS"
  },
  {
    "Zip": 66115,
    "Center Name": "Strawberry Hill",
    "State": "KS"
  },
  {
    "Zip": 66118,
    "Center Name": "Strawberry Hill",
    "State": "KS"
  },
  {
    "Zip": 66160,
    "Center Name": "Strawberry Hill",
    "State": "KS"
  },
  {
    "Zip": 66202,
    "Center Name": "Strawberry Hill",
    "State": "KS"
  },
  {
    "Zip": 66203,
    "Center Name": "Strawberry Hill",
    "State": "KS"
  },
  {
    "Zip": 66205,
    "Center Name": "Strawberry Hill",
    "State": "KS"
  },
  {
    "Zip": 60103,
    "Center Name": "Streamwood",
    "State": "IL"
  },
  {
    "Zip": 60107,
    "Center Name": "Streamwood",
    "State": "IL"
  },
  {
    "Zip": 60108,
    "Center Name": "Streamwood",
    "State": "IL"
  },
  {
    "Zip": 60133,
    "Center Name": "Streamwood",
    "State": "IL"
  },
  {
    "Zip": 60169,
    "Center Name": "Streamwood",
    "State": "IL"
  },
  {
    "Zip": 60172,
    "Center Name": "Streamwood",
    "State": "IL"
  },
  {
    "Zip": 60192,
    "Center Name": "Streamwood",
    "State": "IL"
  },
  {
    "Zip": 60193,
    "Center Name": "Streamwood",
    "State": "IL"
  },
  {
    "Zip": 60194,
    "Center Name": "Streamwood",
    "State": "IL"
  },
  {
    "Zip": 85351,
    "Center Name": "Sun City",
    "State": "AZ"
  },
  {
    "Zip": 85376,
    "Center Name": "Sun City",
    "State": "AZ"
  },
  {
    "Zip": 85372,
    "Center Name": "Sun City",
    "State": "AZ"
  },
  {
    "Zip": 85363,
    "Center Name": "Sun City",
    "State": "AZ"
  },
  {
    "Zip": 85335,
    "Center Name": "Sun City",
    "State": "AZ"
  },
  {
    "Zip": 85381,
    "Center Name": "Sun City",
    "State": "AZ"
  },
  {
    "Zip": 85380,
    "Center Name": "Sun City",
    "State": "AZ"
  },
  {
    "Zip": 85385,
    "Center Name": "Sun City",
    "State": "AZ"
  },
  {
    "Zip": 85382,
    "Center Name": "Sun City",
    "State": "AZ"
  },
  {
    "Zip": 11207,
    "Center Name": "Sutter Ave",
    "State": "NY"
  },
  {
    "Zip": 11212,
    "Center Name": "Sutter Ave",
    "State": "NY"
  },
  {
    "Zip": 11233,
    "Center Name": "Sutter Ave",
    "State": "NY"
  },
  {
    "Zip": 11208,
    "Center Name": "Sutter Ave",
    "State": "NY"
  },
  {
    "Zip": 11239,
    "Center Name": "Sutter Ave",
    "State": "NY"
  },
  {
    "Zip": 70037,
    "Center Name": "Terrytown",
    "State": "LA"
  },
  {
    "Zip": 70053,
    "Center Name": "Terrytown",
    "State": "LA"
  },
  {
    "Zip": 70056,
    "Center Name": "Terrytown",
    "State": "LA"
  },
  {
    "Zip": 70058,
    "Center Name": "Terrytown",
    "State": "LA"
  },
  {
    "Zip": 70072,
    "Center Name": "Terrytown",
    "State": "LA"
  },
  {
    "Zip": 70114,
    "Center Name": "Terrytown",
    "State": "LA"
  },
  {
    "Zip": 70131,
    "Center Name": "Terrytown",
    "State": "LA"
  },
  {
    "Zip": 63104,
    "Center Name": "Tower Grove",
    "State": "MO"
  },
  {
    "Zip": 63109,
    "Center Name": "Tower Grove",
    "State": "MO"
  },
  {
    "Zip": 63110,
    "Center Name": "Tower Grove",
    "State": "MO"
  },
  {
    "Zip": 63111,
    "Center Name": "Tower Grove",
    "State": "MO"
  },
  {
    "Zip": 63116,
    "Center Name": "Tower Grove",
    "State": "MO"
  },
  {
    "Zip": 63118,
    "Center Name": "Tower Grove",
    "State": "MO"
  },
  {
    "Zip": 63119,
    "Center Name": "Tower Grove",
    "State": "MO"
  },
  {
    "Zip": 63123,
    "Center Name": "Tower Grove",
    "State": "MO"
  },
  {
    "Zip": 63125,
    "Center Name": "Tower Grove",
    "State": "MO"
  },
  {
    "Zip": 63126,
    "Center Name": "Tower Grove",
    "State": "MO"
  },
  {
    "Zip": 63129,
    "Center Name": "Tower Grove",
    "State": "MO"
  },
  {
    "Zip": 63139,
    "Center Name": "Tower Grove",
    "State": "MO"
  },
  {
    "Zip": 63143,
    "Center Name": "Tower Grove",
    "State": "MO"
  },
  {
    "Zip": 63144,
    "Center Name": "Tower Grove",
    "State": "MO"
  },
  {
    "Zip": 64014,
    "Center Name": "Truman",
    "State": "MO"
  },
  {
    "Zip": 64015,
    "Center Name": "Truman",
    "State": "MO"
  },
  {
    "Zip": 64050,
    "Center Name": "Truman",
    "State": "MO"
  },
  {
    "Zip": 64052,
    "Center Name": "Truman",
    "State": "MO"
  },
  {
    "Zip": 64053,
    "Center Name": "Truman",
    "State": "MO"
  },
  {
    "Zip": 64054,
    "Center Name": "Truman",
    "State": "MO"
  },
  {
    "Zip": 64055,
    "Center Name": "Truman",
    "State": "MO"
  },
  {
    "Zip": 64056,
    "Center Name": "Truman",
    "State": "MO"
  },
  {
    "Zip": 64057,
    "Center Name": "Truman",
    "State": "MO"
  },
  {
    "Zip": 64058,
    "Center Name": "Truman",
    "State": "MO"
  },
  {
    "Zip": 64064,
    "Center Name": "Truman",
    "State": "MO"
  },
  {
    "Zip": 64086,
    "Center Name": "Truman",
    "State": "MO"
  },
  {
    "Zip": 64120,
    "Center Name": "Truman",
    "State": "MO"
  },
  {
    "Zip": 64123,
    "Center Name": "Truman",
    "State": "MO"
  },
  {
    "Zip": 64125,
    "Center Name": "Truman",
    "State": "MO"
  },
  {
    "Zip": 64126,
    "Center Name": "Truman",
    "State": "MO"
  },
  {
    "Zip": 64136,
    "Center Name": "Truman",
    "State": "MO"
  },
  {
    "Zip": 64139,
    "Center Name": "Truman",
    "State": "MO"
  },
  {
    "Zip": 64161,
    "Center Name": "Truman",
    "State": "MO"
  },
  {
    "Zip": 75701,
    "Center Name": "Tyler",
    "State": "TX"
  },
  {
    "Zip": 75702,
    "Center Name": "Tyler",
    "State": "TX"
  },
  {
    "Zip": 75703,
    "Center Name": "Tyler",
    "State": "TX"
  },
  {
    "Zip": 75704,
    "Center Name": "Tyler",
    "State": "TX"
  },
  {
    "Zip": 75705,
    "Center Name": "Tyler",
    "State": "TX"
  },
  {
    "Zip": 75706,
    "Center Name": "Tyler",
    "State": "TX"
  },
  {
    "Zip": 75707,
    "Center Name": "Tyler",
    "State": "TX"
  },
  {
    "Zip": 75708,
    "Center Name": "Tyler",
    "State": "TX"
  },
  {
    "Zip": 75709,
    "Center Name": "Tyler",
    "State": "TX"
  },
  {
    "Zip": 75762,
    "Center Name": "Tyler",
    "State": "TX"
  },
  {
    "Zip": 75791,
    "Center Name": "Tyler",
    "State": "TX"
  },
  {
    "Zip": 75798,
    "Center Name": "Tyler",
    "State": "TX"
  },
  {
    "Zip": 75799,
    "Center Name": "Tyler",
    "State": "TX"
  },
  {
    "Zip": 10452,
    "Center Name": "University Ave",
    "State": "NY"
  },
  {
    "Zip": 10453,
    "Center Name": "University Ave",
    "State": "NY"
  },
  {
    "Zip": 10457,
    "Center Name": "University Ave",
    "State": "NY"
  },
  {
    "Zip": 10458,
    "Center Name": "University Ave",
    "State": "NY"
  },
  {
    "Zip": 10463,
    "Center Name": "University Ave",
    "State": "NY"
  },
  {
    "Zip": 10468,
    "Center Name": "University Ave",
    "State": "NY"
  },
  {
    "Zip": 46106,
    "Center Name": "University Heights",
    "State": "IN"
  },
  {
    "Zip": 46107,
    "Center Name": "University Heights",
    "State": "IN"
  },
  {
    "Zip": 46131,
    "Center Name": "University Heights",
    "State": "IN"
  },
  {
    "Zip": 46142,
    "Center Name": "University Heights",
    "State": "IN"
  },
  {
    "Zip": 46143,
    "Center Name": "University Heights",
    "State": "IN"
  },
  {
    "Zip": 46184,
    "Center Name": "University Heights",
    "State": "IN"
  },
  {
    "Zip": 46217,
    "Center Name": "University Heights",
    "State": "IN"
  },
  {
    "Zip": 46221,
    "Center Name": "University Heights",
    "State": "IN"
  },
  {
    "Zip": 46225,
    "Center Name": "University Heights",
    "State": "IN"
  },
  {
    "Zip": 46227,
    "Center Name": "University Heights",
    "State": "IN"
  },
  {
    "Zip": 46237,
    "Center Name": "University Heights",
    "State": "IN"
  },
  {
    "Zip": 46259,
    "Center Name": "University Heights",
    "State": "IN"
  },
  {
    "Zip": 80840,
    "Center Name": "Vista Grande",
    "State": "CO"
  },
  {
    "Zip": 80907,
    "Center Name": "Vista Grande",
    "State": "CO"
  },
  {
    "Zip": 80908,
    "Center Name": "Vista Grande",
    "State": "CO"
  },
  {
    "Zip": 80917,
    "Center Name": "Vista Grande",
    "State": "CO"
  },
  {
    "Zip": 80918,
    "Center Name": "Vista Grande",
    "State": "CO"
  },
  {
    "Zip": 80919,
    "Center Name": "Vista Grande",
    "State": "CO"
  },
  {
    "Zip": 80920,
    "Center Name": "Vista Grande",
    "State": "CO"
  },
  {
    "Zip": 80922,
    "Center Name": "Vista Grande",
    "State": "CO"
  },
  {
    "Zip": 80923,
    "Center Name": "Vista Grande",
    "State": "CO"
  },
  {
    "Zip": 80927,
    "Center Name": "Vista Grande",
    "State": "CO"
  },
  {
    "Zip": 80938,
    "Center Name": "Vista Grande",
    "State": "CO"
  },
  {
    "Zip": 80939,
    "Center Name": "Vista Grande",
    "State": "CO"
  },
  {
    "Zip": 80951,
    "Center Name": "Vista Grande",
    "State": "CO"
  },
  {
    "Zip": 45305,
    "Center Name": "Walnut Hills",
    "State": "OH"
  },
  {
    "Zip": 45324,
    "Center Name": "Walnut Hills",
    "State": "OH"
  },
  {
    "Zip": 45403,
    "Center Name": "Walnut Hills",
    "State": "OH"
  },
  {
    "Zip": 45404,
    "Center Name": "Walnut Hills",
    "State": "OH"
  },
  {
    "Zip": 45409,
    "Center Name": "Walnut Hills",
    "State": "OH"
  },
  {
    "Zip": 45410,
    "Center Name": "Walnut Hills",
    "State": "OH"
  },
  {
    "Zip": 45414,
    "Center Name": "Walnut Hills",
    "State": "OH"
  },
  {
    "Zip": 45419,
    "Center Name": "Walnut Hills",
    "State": "OH"
  },
  {
    "Zip": 45420,
    "Center Name": "Walnut Hills",
    "State": "OH"
  },
  {
    "Zip": 45424,
    "Center Name": "Walnut Hills",
    "State": "OH"
  },
  {
    "Zip": 45429,
    "Center Name": "Walnut Hills",
    "State": "OH"
  },
  {
    "Zip": 45430,
    "Center Name": "Walnut Hills",
    "State": "OH"
  },
  {
    "Zip": 45431,
    "Center Name": "Walnut Hills",
    "State": "OH"
  },
  {
    "Zip": 45432,
    "Center Name": "Walnut Hills",
    "State": "OH"
  },
  {
    "Zip": 45433,
    "Center Name": "Walnut Hills",
    "State": "OH"
  },
  {
    "Zip": 45434,
    "Center Name": "Walnut Hills",
    "State": "OH"
  },
  {
    "Zip": 45439,
    "Center Name": "Walnut Hills",
    "State": "OH"
  },
  {
    "Zip": 45440,
    "Center Name": "Walnut Hills",
    "State": "OH"
  },
  {
    "Zip": 45459,
    "Center Name": "Walnut Hills",
    "State": "OH"
  },
  {
    "Zip": 45469,
    "Center Name": "Walnut Hills",
    "State": "OH"
  },
  {
    "Zip": 2816,
    "Center Name": "Warwick",
    "State": "RI"
  },
  {
    "Zip": 2817,
    "Center Name": "Warwick",
    "State": "RI"
  },
  {
    "Zip": 2818,
    "Center Name": "Warwick",
    "State": "RI"
  },
  {
    "Zip": 2831,
    "Center Name": "Warwick",
    "State": "RI"
  },
  {
    "Zip": 2852,
    "Center Name": "Warwick",
    "State": "RI"
  },
  {
    "Zip": 2886,
    "Center Name": "Warwick",
    "State": "RI"
  },
  {
    "Zip": 2888,
    "Center Name": "Warwick",
    "State": "RI"
  },
  {
    "Zip": 2889,
    "Center Name": "Warwick",
    "State": "RI"
  },
  {
    "Zip": 2893,
    "Center Name": "Warwick",
    "State": "RI"
  },
  {
    "Zip": 2910,
    "Center Name": "Warwick",
    "State": "RI"
  },
  {
    "Zip": 2920,
    "Center Name": "Warwick",
    "State": "RI"
  },
  {
    "Zip": 2921,
    "Center Name": "Warwick",
    "State": "RI"
  },
  {
    "Zip": 10031,
    "Center Name": "Washington Heights",
    "State": "NY"
  },
  {
    "Zip": 10032,
    "Center Name": "Washington Heights",
    "State": "NY"
  },
  {
    "Zip": 10033,
    "Center Name": "Washington Heights",
    "State": "NY"
  },
  {
    "Zip": 10034,
    "Center Name": "Washington Heights",
    "State": "NY"
  },
  {
    "Zip": 10039,
    "Center Name": "Washington Heights",
    "State": "NY"
  },
  {
    "Zip": 10040,
    "Center Name": "Washington Heights",
    "State": "NY"
  },
  {
    "Zip": 53158,
    "Center Name": "Waukegan",
    "State": "IL"
  },
  {
    "Zip": 60031,
    "Center Name": "Waukegan",
    "State": "IL"
  },
  {
    "Zip": 60044,
    "Center Name": "Waukegan",
    "State": "IL"
  },
  {
    "Zip": 60048,
    "Center Name": "Waukegan",
    "State": "IL"
  },
  {
    "Zip": 60064,
    "Center Name": "Waukegan",
    "State": "IL"
  },
  {
    "Zip": 60083,
    "Center Name": "Waukegan",
    "State": "IL"
  },
  {
    "Zip": 60085,
    "Center Name": "Waukegan",
    "State": "IL"
  },
  {
    "Zip": 60087,
    "Center Name": "Waukegan",
    "State": "IL"
  },
  {
    "Zip": 60088,
    "Center Name": "Waukegan",
    "State": "IL"
  },
  {
    "Zip": 60096,
    "Center Name": "Waukegan",
    "State": "IL"
  },
  {
    "Zip": 60099,
    "Center Name": "Waukegan",
    "State": "IL"
  },
  {
    "Zip": 85003,
    "Center Name": "Wedgewood Park",
    "State": "AZ"
  },
  {
    "Zip": 85004,
    "Center Name": "Wedgewood Park",
    "State": "AZ"
  },
  {
    "Zip": 85007,
    "Center Name": "Wedgewood Park",
    "State": "AZ"
  },
  {
    "Zip": 85009,
    "Center Name": "Wedgewood Park",
    "State": "AZ"
  },
  {
    "Zip": 85031,
    "Center Name": "Wedgewood Park",
    "State": "AZ"
  },
  {
    "Zip": 85035,
    "Center Name": "Wedgewood Park",
    "State": "AZ"
  },
  {
    "Zip": 85037,
    "Center Name": "Wedgewood Park",
    "State": "AZ"
  },
  {
    "Zip": 85041,
    "Center Name": "Wedgewood Park",
    "State": "AZ"
  },
  {
    "Zip": 85043,
    "Center Name": "Wedgewood Park",
    "State": "AZ"
  },
  {
    "Zip": 85323,
    "Center Name": "Wedgewood Park",
    "State": "AZ"
  },
  {
    "Zip": 85339,
    "Center Name": "Wedgewood Park",
    "State": "AZ"
  },
  {
    "Zip": 85353,
    "Center Name": "Wedgewood Park",
    "State": "AZ"
  },
  {
    "Zip": 85392,
    "Center Name": "Wedgewood Park",
    "State": "AZ"
  },
  {
    "Zip": 77025,
    "Center Name": "West Bellfort",
    "State": "TX"
  },
  {
    "Zip": 77027,
    "Center Name": "West Bellfort",
    "State": "TX"
  },
  {
    "Zip": 77031,
    "Center Name": "West Bellfort",
    "State": "TX"
  },
  {
    "Zip": 77035,
    "Center Name": "West Bellfort",
    "State": "TX"
  },
  {
    "Zip": 77045,
    "Center Name": "West Bellfort",
    "State": "TX"
  },
  {
    "Zip": 77053,
    "Center Name": "West Bellfort",
    "State": "TX"
  },
  {
    "Zip": 77054,
    "Center Name": "West Bellfort",
    "State": "TX"
  },
  {
    "Zip": 77056,
    "Center Name": "West Bellfort",
    "State": "TX"
  },
  {
    "Zip": 77057,
    "Center Name": "West Bellfort",
    "State": "TX"
  },
  {
    "Zip": 77071,
    "Center Name": "West Bellfort",
    "State": "TX"
  },
  {
    "Zip": 77074,
    "Center Name": "West Bellfort",
    "State": "TX"
  },
  {
    "Zip": 77081,
    "Center Name": "West Bellfort",
    "State": "TX"
  },
  {
    "Zip": 77085,
    "Center Name": "West Bellfort",
    "State": "TX"
  },
  {
    "Zip": 77096,
    "Center Name": "West Bellfort",
    "State": "TX"
  },
  {
    "Zip": 77401,
    "Center Name": "West Bellfort",
    "State": "TX"
  },
  {
    "Zip": 77459,
    "Center Name": "West Bellfort",
    "State": "TX"
  },
  {
    "Zip": 77477,
    "Center Name": "West Bellfort",
    "State": "TX"
  },
  {
    "Zip": 77489,
    "Center Name": "West Bellfort",
    "State": "TX"
  },
  {
    "Zip": 77584,
    "Center Name": "West Bellfort",
    "State": "TX"
  },
  {
    "Zip": 30126,
    "Center Name": "West End",
    "State": "GA"
  },
  {
    "Zip": 30168,
    "Center Name": "West End",
    "State": "GA"
  },
  {
    "Zip": 30303,
    "Center Name": "West End",
    "State": "GA"
  },
  {
    "Zip": 30305,
    "Center Name": "West End",
    "State": "GA"
  },
  {
    "Zip": 30308,
    "Center Name": "West End",
    "State": "GA"
  },
  {
    "Zip": 30309,
    "Center Name": "West End",
    "State": "GA"
  },
  {
    "Zip": 30310,
    "Center Name": "West End",
    "State": "GA"
  },
  {
    "Zip": 30311,
    "Center Name": "West End",
    "State": "GA"
  },
  {
    "Zip": 30313,
    "Center Name": "West End",
    "State": "GA"
  },
  {
    "Zip": 30314,
    "Center Name": "West End",
    "State": "GA"
  },
  {
    "Zip": 30318,
    "Center Name": "West End",
    "State": "GA"
  },
  {
    "Zip": 30327,
    "Center Name": "West End",
    "State": "GA"
  },
  {
    "Zip": 30328,
    "Center Name": "West End",
    "State": "GA"
  },
  {
    "Zip": 30332,
    "Center Name": "West End",
    "State": "GA"
  },
  {
    "Zip": 30334,
    "Center Name": "West End",
    "State": "GA"
  },
  {
    "Zip": 30336,
    "Center Name": "West End",
    "State": "GA"
  },
  {
    "Zip": 30339,
    "Center Name": "West End",
    "State": "GA"
  },
  {
    "Zip": 30363,
    "Center Name": "West End",
    "State": "GA"
  },
  {
    "Zip": 28304,
    "Center Name": "West Fayetteville",
    "State": "NC"
  },
  {
    "Zip": 28331,
    "Center Name": "West Fayetteville",
    "State": "NC"
  },
  {
    "Zip": 28314,
    "Center Name": "West Fayetteville",
    "State": "NC"
  },
  {
    "Zip": 28303,
    "Center Name": "West Fayetteville",
    "State": "NC"
  },
  {
    "Zip": 44102,
    "Center Name": "Westown",
    "State": "OH"
  },
  {
    "Zip": 44107,
    "Center Name": "Westown",
    "State": "OH"
  },
  {
    "Zip": 44109,
    "Center Name": "Westown",
    "State": "OH"
  },
  {
    "Zip": 44111,
    "Center Name": "Westown",
    "State": "OH"
  },
  {
    "Zip": 44113,
    "Center Name": "Westown",
    "State": "OH"
  },
  {
    "Zip": 44129,
    "Center Name": "Westown",
    "State": "OH"
  },
  {
    "Zip": 44135,
    "Center Name": "Westown",
    "State": "OH"
  },
  {
    "Zip": 44144,
    "Center Name": "Westown",
    "State": "OH"
  },
  {
    "Zip": 45204,
    "Center Name": "Westwood",
    "State": "OH"
  },
  {
    "Zip": 45205,
    "Center Name": "Westwood",
    "State": "OH"
  },
  {
    "Zip": 45211,
    "Center Name": "Westwood",
    "State": "OH"
  },
  {
    "Zip": 45214,
    "Center Name": "Westwood",
    "State": "OH"
  },
  {
    "Zip": 45223,
    "Center Name": "Westwood",
    "State": "OH"
  },
  {
    "Zip": 45225,
    "Center Name": "Westwood",
    "State": "OH"
  },
  {
    "Zip": 45233,
    "Center Name": "Westwood",
    "State": "OH"
  },
  {
    "Zip": 45238,
    "Center Name": "Westwood",
    "State": "OH"
  },
  {
    "Zip": 45239,
    "Center Name": "Westwood",
    "State": "OH"
  },
  {
    "Zip": 45247,
    "Center Name": "Westwood",
    "State": "OH"
  },
  {
    "Zip": 45248,
    "Center Name": "Westwood",
    "State": "OH"
  },
  {
    "Zip": 45251,
    "Center Name": "Westwood",
    "State": "OH"
  },
  {
    "Zip": 77008,
    "Center Name": "White Oak",
    "State": "TX"
  },
  {
    "Zip": 77018,
    "Center Name": "White Oak",
    "State": "TX"
  },
  {
    "Zip": 77038,
    "Center Name": "White Oak",
    "State": "TX"
  },
  {
    "Zip": 77040,
    "Center Name": "White Oak",
    "State": "TX"
  },
  {
    "Zip": 77041,
    "Center Name": "White Oak",
    "State": "TX"
  },
  {
    "Zip": 77043,
    "Center Name": "White Oak",
    "State": "TX"
  },
  {
    "Zip": 77055,
    "Center Name": "White Oak",
    "State": "TX"
  },
  {
    "Zip": 77064,
    "Center Name": "White Oak",
    "State": "TX"
  },
  {
    "Zip": 77066,
    "Center Name": "White Oak",
    "State": "TX"
  },
  {
    "Zip": 77067,
    "Center Name": "White Oak",
    "State": "TX"
  },
  {
    "Zip": 77068,
    "Center Name": "White Oak",
    "State": "TX"
  },
  {
    "Zip": 77070,
    "Center Name": "White Oak",
    "State": "TX"
  },
  {
    "Zip": 77080,
    "Center Name": "White Oak",
    "State": "TX"
  },
  {
    "Zip": 77086,
    "Center Name": "White Oak",
    "State": "TX"
  },
  {
    "Zip": 77088,
    "Center Name": "White Oak",
    "State": "TX"
  },
  {
    "Zip": 77091,
    "Center Name": "White Oak",
    "State": "TX"
  },
  {
    "Zip": 77092,
    "Center Name": "White Oak",
    "State": "TX"
  },
  {
    "Zip": 38106,
    "Center Name": "Whitehaven",
    "State": "TN"
  },
  {
    "Zip": 38109,
    "Center Name": "Whitehaven",
    "State": "TN"
  },
  {
    "Zip": 38114,
    "Center Name": "Whitehaven",
    "State": "TN"
  },
  {
    "Zip": 38116,
    "Center Name": "Whitehaven",
    "State": "TN"
  },
  {
    "Zip": 38131,
    "Center Name": "Whitehaven",
    "State": "TN"
  },
  {
    "Zip": 38132,
    "Center Name": "Whitehaven",
    "State": "TN"
  },
  {
    "Zip": 27012,
    "Center Name": "Winston-Salem",
    "State": "NC"
  },
  {
    "Zip": 27051,
    "Center Name": "Winston-Salem",
    "State": "NC"
  },
  {
    "Zip": 27101,
    "Center Name": "Winston-Salem",
    "State": "NC"
  },
  {
    "Zip": 27103,
    "Center Name": "Winston-Salem",
    "State": "NC"
  },
  {
    "Zip": 27104,
    "Center Name": "Winston-Salem",
    "State": "NC"
  },
  {
    "Zip": 27105,
    "Center Name": "Winston-Salem",
    "State": "NC"
  },
  {
    "Zip": 27106,
    "Center Name": "Winston-Salem",
    "State": "NC"
  },
  {
    "Zip": 27107,
    "Center Name": "Winston-Salem",
    "State": "NC"
  },
  {
    "Zip": 27110,
    "Center Name": "Winston-Salem",
    "State": "NC"
  },
  {
    "Zip": 27127,
    "Center Name": "Winston-Salem",
    "State": "NC"
  },
  {
    "Zip": 27284,
    "Center Name": "Winston-Salem",
    "State": "NC"
  },
  {
    "Zip": 27295,
    "Center Name": "Winston-Salem",
    "State": "NC"
  },
  {
    "Zip": 48201,
    "Center Name": "Woodward",
    "State": "MI"
  },
  {
    "Zip": 48202,
    "Center Name": "Woodward",
    "State": "MI"
  },
  {
    "Zip": 48206,
    "Center Name": "Woodward",
    "State": "MI"
  },
  {
    "Zip": 48207,
    "Center Name": "Woodward",
    "State": "MI"
  },
  {
    "Zip": 48208,
    "Center Name": "Woodward",
    "State": "MI"
  },
  {
    "Zip": 48211,
    "Center Name": "Woodward",
    "State": "MI"
  },
  {
    "Zip": 48216,
    "Center Name": "Woodward",
    "State": "MI"
  },
  {
    "Zip": 48226,
    "Center Name": "Woodward",
    "State": "MI"
  },
  {
    "Zip": 48238,
    "Center Name": "Woodward",
    "State": "MI"
  },
  {
    "Zip": 48243,
    "Center Name": "Woodward",
    "State": "MI"
  },
  {
    "Zip": 2762,
    "Center Name": "Woonsocket",
    "State": "RI"
  },
  {
    "Zip": 2802,
    "Center Name": "Woonsocket",
    "State": "RI"
  },
  {
    "Zip": 2824,
    "Center Name": "Woonsocket",
    "State": "RI"
  },
  {
    "Zip": 2830,
    "Center Name": "Woonsocket",
    "State": "RI"
  },
  {
    "Zip": 2838,
    "Center Name": "Woonsocket",
    "State": "RI"
  },
  {
    "Zip": 2864,
    "Center Name": "Woonsocket",
    "State": "RI"
  },
  {
    "Zip": 2865,
    "Center Name": "Woonsocket",
    "State": "RI"
  },
  {
    "Zip": 2876,
    "Center Name": "Woonsocket",
    "State": "RI"
  },
  {
    "Zip": 2895,
    "Center Name": "Woonsocket",
    "State": "RI"
  },
  {
    "Zip": 2896,
    "Center Name": "Woonsocket",
    "State": "RI"
  },
  {
    "Zip": 2917,
    "Center Name": "Woonsocket",
    "State": "RI"
  },
  {
    "Zip": 87108,
    "Center Name": "Zuni Road",
    "State": "NM"
  },
  {
    "Zip": 87110,
    "Center Name": "Zuni Road",
    "State": "NM"
  },
  {
    "Zip": 87112,
    "Center Name": "Zuni Road",
    "State": "NM"
  },
  {
    "Zip": 87116,
    "Center Name": "Zuni Road",
    "State": "NM"
  },
  {
    "Zip": 87117,
    "Center Name": "Zuni Road",
    "State": "NM"
  },
  {
    "Zip": 87123,
    "Center Name": "Zuni Road",
    "State": "NM"
  }
]
